name,address,cuisine,lat,lng,region
Blue Water Cafe,1095 Hamilton St,Seafood,49.276155,-123.1211291,Downtown
Miku Vancouver,200 Granville St #70,Japanese,49.2868259,-123.112583,Downtown
MeeT in Gastown,12 Water St,Vegetarian,49.2834276,-123.1048588,Downtown
Cafe Medina,780 Richards St,Brunch,49.280408,-123.1168648,Downtown
Lupo Restaurant & Vinoteca,869 Hamilton St,Italian,49.27819299999999,-123.1173485,Downtown
L'Abattoir,217 Carrall St,Pacific Northwest,49.2831234,-123.1044431,Downtown
Minami,1118 Mainland St,Japanese,49.2752011,-123.1207259,Downtown
Bacchus Restaurant & Lounge,845 Hornby St,European,49.2823626,-123.1228112,Downtown
Gotham Steakhouse & Cocktail Bar,615 Seymour St,Steak,49.2828825,-123.1159646,Downtown
Five Sails Restaurant,999 Canada Pl,Fine Dining,49.2886946,-123.1111906,Downtown
Twisted Fork Bistro,213 Carrall St,Brunch,49.2831834,-123.1044482,Downtown
Giardino Restaurant,1328 Hornby St,Tuscan,49.27697819999999,-123.1300609,Downtown
Cioppino's Mediterranean Grill,1133 Hamilton St,Mediterranean,49.2757752,-123.121939,Downtown
Italian Kitchen,860 Burrard St,Italian,49.2824321,-123.1234913,Downtown
Shizenya,965 Hornby St,Japanese,49.2812366,-123.1250519,Downtown
Ancora Waterfront Dining and Patio - False Creek,1600 Howe St #2,Seafood,49.2738114,-123.1325984,Downtown
Nightingale,1017 W Hastings St,Canadian,49.287432,-123.1175609,Downtown
La Taqueria Pinche Taco,322 W Hastings St,Mexican,49.282903,-123.1105901,Downtown
Cora Breakfast and Lunch,1368 Robson St,Breakfast,49.2875008,-123.1297495,West End
Momo Sushi,6-375 Water St,Japanese,49.284686,-123.110254,Downtown
The Flying Pig Gastown,102 Water St,Canadian,49.2837739,-123.1067002,Downtown
Fanny Bay Oyster Bar & Shellfish Market,762 Cambie St,Oyster Bar,49.2786079,-123.1141059,Downtown
Frankie's Italian Kitchen & Bar,765 Beatty St,Southern Italian,49.2781484,-123.1134225,Downtown
Joyeaux Café & Restaurant,551 Howe St,Vietnamese,49.2848652,-123.1170502,Downtown
Gyoza Bar,622 W Pender St,Japanese,49.28415039999999,-123.114433,Downtown
Le Crocodile,909 Burrard St #100,French,49.2823018,-123.1249281,West End
The Templeton,1087 Granville St,Diner,49.278481,-123.124598,Downtown
Meat & Bread,370 Cambie St,Sandwich,49.23398299999999,-123.116576,South Cambie
Hy's Steakhouse & Cocktail Bar,637 Hornby St,Steak,49.2846711,-123.1193051,Downtown
Chancho Tortilleria,560 Davie St,Mexican,49.2761398,-123.1249744,Downtown
Scoozis Bar & Grill,445 Howe St,Grill,49.2859071,-123.115404,Downtown
Rodney's Oyster House,1228 Hamilton St,Oyster Bar,49.2743299,-123.1231956,Downtown
Nuba in Gastown,207 W Hastings St,Takeout Restaurant,49.28278599999999,-123.1097021,Downtown
Gringo,27 Blood Alley Square,Mexican,49.2833607,-123.1053151,Downtown
The Old Spaghetti Factory (Gastown,53 Water St,Italian,49.2837374,-123.1052117,Downtown
#e food,1308 Burrard St,Sandwich,49.2777097,-123.1309215,Downtown
Joe Fortes Seafood & Chop House,777 Thurlow St,Seafood,49.2849406,-123.1247733,West End
Water St. Café,300 Water St,Canadian,49.2841708,-123.1090542,Downtown
Brioche Urban Eatery,401 W Cordova St,Italian,49.2842375,-123.1099282,Downtown
Bali Thai,88 W Pender St,Indonesian,49.2804064,-123.1069714,Downtown
Wildebeest,120 W Hastings St,Pacific Northwest,49.2819194,-123.1080066,Downtown
Hungry Guys Kitchen,988 Granville St,Mexican,49.2792922,-123.1226648,Downtown
Di Beppe Restaurant,8 W Cordova St,Italian,49.282365,-123.104637,Downtown
Straight Outta Brooklyn NYC Pizzeria,350 Robson St,Pizza,49.2791013,-123.1166285,Downtown
Autostrada Osteria Downtown,350 W Pender St,Italian,49.2825512,-123.112021,Downtown
PiDGiN Restaurant,350 Carrall St,Asian,49.28188100000001,-123.104145,Downtown
Botanist,1038 Canada Pl,Pacific Northwest,49.2880938,-123.1165232,Downtown
Manoush'eh,620 Davie St,Syrian,49.27667880000001,-123.1256815,Downtown
Basil Pasta Bar,636 Davie St,Italian,49.2767546,-123.1259051,Downtown
Bao Bei,163 Keefer St,Chinese,49.2796534,-123.1006157,Downtown
Tacofino Taco Bar,15 W Cordova St,Mexican,49.2827731,-123.1047979,Downtown
Pizza Garden,675 Smithe St,Pizza,49.280165,-123.1209115,Downtown
Top Of Vancouver Revolving Restaurant,555 W Hastings St,Continental restaurant,49.2846966,-123.1119349,Downtown
Pizzeria Farina,915 Main St,Pizza,49.2765892,-123.1000905,Downtown
Pholicious,550 W Hastings St,Pho,49.2841432,-123.1126064,Downtown
Kaide Sushi Bar,1375 Richards St,Japanese,49.274238,-123.1270952,Downtown
Al Porto Ristorante,321 Water St,Italian,49.2846566,-123.1093607,Downtown
Pita Wrap Cafe,565 Dunsmuir St,Middle Eastern,49.2828269,-123.1149952,Downtown
The Poke Guy,420 Richards St,Hawaiian,49.28377039999999,-123.1120424,Downtown
Glowbal,590 W Georgia St,Fusion restaurant,49.2811002,-123.1177713,Downtown
Elisa,1109 Hamilton St,Steak,49.2759238,-123.1214577,Downtown
Vegan Cave Cafe,415 Abbott St,Vegan,49.28182349999999,-123.1075054,Downtown
Jules Bistro,216 Abbott St,French,49.28344269999999,-123.1064141,Downtown
Nicli Antica Pizzeria,62 E Cordova St,Pizza,49.28217919999999,-123.1028313,Downtown
Guu Original Thurlow,838 Thurlow St,Izakaya,49.2840076,-123.1254334,West End
La Terrazza,1088 Cambie St,Italian,49.2749917,-123.1186413,Downtown
Gyu-Kaku Japanese BBQ,888 Nelson St g3,Japanese,49.2800583,-123.1252306,Downtown
Fresh Sushi,909 Expo Blvd,Japanese,49.2756851,-123.1154129,Downtown
Chinatown BBQ,130 E Pender St,Chinese,49.28016,-123.1015139,Downtown
Coast,1054 Alberni St,Seafood,49.2846237,-123.1232331,West End
La Cantina Tacos,722 Nelson St,Mexican,49.2794339,-123.1235357,Downtown
SMAK Healthy Fast Food,545 Granville St,Fast Food,49.2843619,-123.1159252,Downtown
Black Rice Izakaya,782 Cambie St,Izakaya,49.2783603,-123.1142376,Downtown
The Parlour,1011 Hamilton St,Takeout Restaurant,49.27672099999999,-123.1201634,Downtown
Yamato Sushi,616 Davie St,Japanese,49.2766291,-123.125616,Downtown
Café One,1000 Burrard St,American,49.280314,-123.1264736,Downtown
Wakwak Burger,511 Granville St,Hamburger,49.2845236,-123.1150798,Downtown
Firecrust Neapolitan Pizzeria,808 Davie St,Pizza,49.2777222,-123.1278294,Downtown
Bistro Sakana,1123 Mainland St,Japanese,49.2753816,-123.1211273,Downtown
Burgoo,101-1100 Burrard St,Bistro,49.2798451,-123.1276538,Downtown
Viet Sub Vietnamese Cuisine,520 Robson St,Takeout Restaurant,49.2802009,-123.1182521,Downtown
The Greek By Anatoli,1043 Mainland St,Greek,49.2762117,-123.1198819,Downtown
Pacifico Pizzeria & Ristorante,970 Smithe St,Pizza,49.2818429,-123.1240315,Downtown
Bellaggio Cafe,773 Hornby St,Italian,49.2829809,-123.1215702,Downtown
Calabash Bistro,428 Carrall St,Caribbean,49.28103369999999,-123.1041914,Downtown
Catch 122 Cafe Bistro,122 W Hastings St,Bistro,49.28184419999999,-123.1081617,Downtown
Indigo Age Catering,436 Richards St,Vegan,49.283463,-123.1125294,Downtown
Cibo Trattoria,900 Seymour St,Italian,49.2793994,-123.1204307,Downtown
Nuba in Yaletown,508 Davie St,Lebanese,49.2759072,-123.1246107,Downtown
Pokerrito,558 Dunsmuir St,Hawaiian,49.282647,-123.1151179,Downtown
Indian Delicacy,1130 W Pender St Unit 105,Indian,49.2874843,-123.1216047,Downtown
Tasty Indian Bistro | Yaletown,1261 Hamilton St,Indian,49.2742853,-123.1239474,Downtown
Thai Away Home on Granville,1081 Granville St,Thai,49.2785035,-123.1245091,Downtown
Paramount Fine Foods,560 Robson St,Middle Eastern,49.2803212,-123.1185948,Downtown
Baghdad Cafe,548 Seymour St,Middle Eastern,49.2834649,-123.1144324,Downtown
Sushi Mugen,903 Davie St,Japanese,49.2787454,-123.1282384,Downtown
Cafe Il Nido,780 Thurlow St,Italian,49.28463139999999,-123.1242731,West End
White Spot Dunsmuir,405 Dunsmuir St,Family-friendly,49.2819406,-123.1135203,Downtown
Crave India Restaurant,1019 Granville St,Indian,49.279099,-123.1235367,Downtown
Wow Thai Food,88 W Pender St #2007,Thai,49.2804064,-123.1069714,Downtown
Kamei Baru,990 Smithe St,Japanese,49.28190499999999,-123.1241268,Downtown
Black+Blue,1032 Alberni St,Steak,49.2844825,-123.1230584,West End
Revel Room Supper Club & Live Music Restaurant,238 Abbott St,Southern,49.28307909999999,-123.1065521,Downtown
Le Petit Belge,340 Robson St,Breakfast,49.2788987,-123.1164103,Downtown
SMAK Healthy Fast Food,840 Howe St,Health Food,49.2810497,-123.1217849,Downtown
Chipotle Mexican Grill,818 Howe St,Mexican,49.28151250000001,-123.1210674,Downtown
Tacofino Yaletown,1025 Mainland St,Mexican,49.27647109999999,-123.1195878,Downtown
OEB Breakfast Co.,1137 Marinaside Crescent,Breakfast,49.2734565,-123.119265,Downtown
Nero waffles,1002 Seymour St,Dessert,49.2782787,-123.1219729,Downtown
per se Social Corner,891 Homer St,Spanish,49.2786163,-123.1184615,Downtown
Kobe Japanese Steakhouse,1042 Alberni St,Japanese steakhouse,49.2845448,-123.1231404,West End
Robba da Matti,1127 Mainland St,Italian,49.2754729,-123.1213374,Downtown
La Casita - Gastown,101 W Cordova St,Mexican,49.2831085,-123.1069497,Downtown
Mr Greek Donair Town,1173 Granville St,Middle Eastern,49.277553,-123.1259781,Downtown
Patron Tacos & Cantina,265 Robson St,Mexican,49.2786425,-123.1153525,Downtown
Holts Café Vancouver,Holt Renfrew Vancouver 737 Dunsmuir St,Canadian,49.28401479999999,-123.1165937,Downtown
Save On Meats,43 W Hastings St,Diner,49.2820917,-123.1059682,Downtown
The Edge Social Grille & Lounge,1100 Granville St,Grill,49.2778204,-123.1246014,Downtown
Simply Thai,1211 Hamilton St,Thai,49.2748962,-123.1230955,Downtown
TWB - The Wine Bar,1167 Marinaside Crescent,Grill,49.2733765,-123.1194802,Downtown
Roxy Burger,910 Granville St,Hamburger,49.2798685,-123.1215208,Downtown
La Taqueria Pinche Taco Shop,586 Hornby St,Mexican,49.28504119999999,-123.1178533,Downtown
The Pawn Shop YVR,1117 Granville St,Mexican,49.2781493,-123.1252321,Downtown
Sala Thai,888 Burrard St #102,Thai,49.2822067,-123.1238037,Downtown
Ask For Luigi Restaurant,305 Alexander St,Italian,49.2842,-123.0977177,Strathcona
Haru Korean Kitchen,324 Cambie St,Korean,49.2829075,-123.1091588,Downtown
Bibiko,530 Hornby St,Korean,49.2854132,-123.1172916,Downtown
Steamworks Brewpub,375 Water St,Brewpub,49.28486660000001,-123.1105007,Downtown
Guu with Otokomae,375 Water St #105,Izakaya,49.2847191,-123.1103983,Downtown
Hubbub,859 Hornby St,Sandwich,49.2819932,-123.1230964,Downtown
Peaceful Restaurant,602 Seymour St,Chinese,49.28282,-123.1154086,Downtown
Sitar Restaurant,8 Powell St,Indian,49.2850084,-123.0643792,Grandview-Woodland
Yagger's Downtown Restaurant & Sports Bar,433 W Pender St,Takeout Restaurant,49.28317639999999,-123.1122509,Downtown
Guu Garden,888 Nelson St m101,Japanese,49.2800364,-123.1252786,Downtown
Heirs Pears,605 Nelson St,Gluten Free,49.2788773,-123.1221668,Downtown
TAKO - Taqueria Korean,601 Expo Blvd,Korean,49.2788834,-123.1082574,Downtown
Bistro Verde,799 Robson St,American,49.2819563,-123.120054,Downtown
Mean Poutine,718 Nelson S,Fast Food,49.2793909,-123.1234558,Downtown
Hapa Izakaya Yaletown,1193 Hamilton St,Japanese,49.2751446,-123.1225872,Downtown
Ramen Gojiro,501 Dunsmuir St,Japanese,49.2824997,-123.1144563,Downtown
Fritz European Fry House,718 Davie St,Fast Food,49.2773086,-123.1266618,Downtown
SMAK Healthy Fast Food,1139 W Pender St,Gluten Free,49.28799,-123.1214007,Downtown
JOS,1190 W Cordova St,Pizza,49.2888993,-123.1222175,Downtown
Devil's Elbow Ale and Smoke House,562 Beatty St,Barbecue,49.2802264,-123.1098262,Downtown
One Saigon,979 Hornby St,Vietnamese,49.2808056,-123.1248433,Downtown
De Dutch,1055 Canada Pl #60,Brunch,49.2886624,-123.1168056,Downtown
Ha Long Bay Restaurant,430 W Pender St,Vietnamese,49.2830164,-123.1127467,Downtown
Sai Woo,158 E Pender St,Asian,49.2801505,-123.1009936,Downtown
CinCin Ristorante + Bar,1154 Robson St,Italian,49.285261,-123.1261391,West End
arturosmexico2go,777 W Cordova St,Mexican,49.2865036,-123.1134803,Downtown
Phnom Penh Restaurant,244 E Georgia St,Cambodian,49.2783154,-123.0981947,Strathcona
Tractor Foods,547 Robson St,Health Food,49.2804996,-123.118019,Downtown
Patterson Wonton House,917 Davie St,Chinese,49.2787832,-123.1282499,Downtown
The Victor,39 Smithe St,Steak,49.27537419999999,-123.1128477,Downtown
Marutama Ra-men Canada Central Library,270 Robson St,Japanese,49.2785153,-123.1158076,Downtown
India Gate Restaurant,616 Robson St,Indian,49.2808576,-123.1194517,Downtown
Nando's Davie & Howe (Downtown,828 Davie St,Chicken,49.2778637,-123.1276568,Downtown
Five Guys,635 Robson St,Hamburger,49.2810806,-123.119066,Downtown
Johnny Rockets,755 Nelson St,Hamburger,49.2797997,-123.1235319,Downtown
Edo Japan,CF Pacific Centre 701 W Georgia St,Fast Food,49.2833319,-123.1183909,Downtown
St Lawrence Restaurant,269 Powell St,French,49.2833058,-123.0979713,Strathcona
Kokoro Tokyo Mazesoba - Downtown,551 Seymour St,Japanese,49.2834164,-123.1150628,Downtown
Copper Branch,280 Nelson St,Vegan,49.2763873,-123.1188118,Downtown
Freshii,1291 Howe St,Health Food,49.2769971,-123.1286647,Downtown
Congee Noodle Delight,88 W Pender St #1021,Chinese Noodles,49.2804064,-123.1069714,Downtown
Tractor Everyday Healthy Foods - Marine Building,335 Burrard St,Health Food,49.2875834,-123.1167499,Downtown
Big Bowl Rice,505 Dunsmuir St,Taiwanese,49.2825233,-123.1145022,Downtown
24 Train Express Noodle House,550 Nelson St,Takeout Restaurant,49.278306,-123.1218399,Downtown
Mosaic Grille & Bar,655 Burrard St,Grill,49.2853096,-123.1207679,Downtown
Chang 'An,1661 Granville St 1st Floor,Chinese,49.27331299999999,-123.1326809,Downtown
Kingston Taphouse & Grille,755 Richards St,Grill,49.2808173,-123.1172019,Downtown
Tableau Bar Bistro,1181 Melville St,Bistro,49.287549,-123.12347,Downtown
Numero Uno Pizza,708 Davie St,Pizza,49.2772034,-123.1265675,Downtown
Tutto Restaurant & Bar,901 Homer St,Italian,49.2784079,-123.1187385,Downtown
Yah Yah Ya Ramen Downtown,570 Robson St,Japanese,49.280471,-123.1187675,Downtown
ZAC-ZAC Japanese Curry House,590 Robson St,Japanese,49.2805271,-123.1187971,Downtown
Freshslice Pizza,549 W Pender St,Pizza,49.2838187,-123.1131301,Downtown
Mangos Lounge,1180 Howe St,Mexican,49.2782904,-123.1260684,Downtown
Triple O's CBC,700 Hamilton St #10,Hamburger,49.2796085,-123.1143842,Downtown
Jako Sushi,656 Davie St,Japanese,49.2767858,-123.1259462,Downtown
Chopped Leaf,488 Robson St,Salad,49.279823,-123.1178853,Downtown
Kissa Tanto,263 E Pender St,Fusion restaurant,49.2806451,-123.0981172,Strathcona
Little Saigon Yaletown,1263 Pacific Blvd,Vietnamese,49.2737966,-123.1232233,Downtown
Copper Chimney Restaurant - Indian Grill & Bar,567 Hornby St,Indian,49.2853097,-123.1182573,Downtown
Belgard Kitchen,55 Dunlevy Ave,Canadian,49.2843192,-123.0956589,Strathcona
Delicious Pho,255 Robson St,Vietnamese,49.2786512,-123.115353,Downtown
Fat Mao Noodles,217 E Georgia St,Noodle Shop,49.2787559,-123.0989242,Strathcona
Oceans 999,999 Canada Pl #300,Pacific Northwest,49.2886946,-123.1111906,Downtown
The Sandbar Seafood Restaurant,1535 Johnston Street Creekhouse #102,Seafood,49.2715164,-123.134276,Fairview
Noodlebox,108 W Hastings St,Asian,49.2816859,-123.1077569,Downtown
Zefferelli's,1136 Robson St 2nd Floor,Italian,49.28502719999999,-123.126053,West End
Honjin Yaletown Sushi Restaurant,138 Davie St,Japanese,49.273145,-123.1210885,Downtown
Browns Crafthouse Seymour St.,580 W Pender St,Grill,49.2837833,-123.1138739,Downtown
JAPADOG,530 Robson St,Hot Dog,49.28022319999999,-123.1183207,Downtown
Forage,1300 Robson St,Pacific Northwest,49.287051,-123.1290774,West End
New Town Bakery & Restaurant,148 E Pender St,Chinese bakery,49.2803095,-123.1011943,Downtown
The Mackenzie Room,415 Powell St,Canadian,49.2833009,-123.0949246,Strathcona
Johnnie Fox's Irish Snug,1033 Granville St,Irish pub,49.2789617,-123.1237552,Downtown
Rue 909 Sushi,909 Dunsmuir St,Japanese,49.28526489999999,-123.1187474,Downtown
Noodlebox,839 Homer St,Asian,49.2791466,-123.1177574,Downtown
Yui Japanese Bistro,1185 W Georgia St#102,Japanese,49.287177,-123.124666,Downtown
The Deli Vancouver,1055 W Georgia St Unit 242,Sandwich,49.2853911,-123.1215501,Downtown
Davie Dosa Company,1235 Davie St,Indian,49.282163,-123.133735,West End
Moxie's Grill & Bar,180 W Georgia St,Grill,49.2788916,-123.1130907,Downtown
Boston Pizza,869 Hornby St,Pizza,49.2818577,-123.1234686,Downtown
Cardero's Restaurant,1583 Coal Harbour Quay,Seafood,49.2916101,-123.1274816,Downtown
Sushi Maro Japanese Restaurant,1168 Mainland St #101,Japanese,49.2749058,-123.1218909,Downtown
Victoria Chinese Restaurant,1055 W Georgia St,Cantonese,49.2853911,-123.1215501,Downtown
Mink Chocolates Cafe,863 W Hastings St,Chocolate cafe,49.286592,-123.1152091,Downtown
Mumbai Local Restaurant,1148 Davie St,Indian,49.2808497,-123.1323893,West End
Mott 32 Vancouver,1161 W Georgia St,Chinese,49.2868699,-123.1241293,Downtown
White Spot Granville & Drake,718 Drake St,Family-friendly,49.2761619,-123.1282952,Downtown
Floata Seafood Restaurant,180 Keefer St,Seafood,49.2791047,-123.1007624,Downtown
Ebisu On Robson,827 Bute St,Japanese,49.2858585,-123.1274769,West End
The Vancouver Fish Company,1517 Anderson St,Seafood,49.2705997,-123.1365764,Fairview
Cazba Restaurant,1103 Davie St,Persian,49.28067799999999,-123.1311,West End
Curry Fusion,542 Robson St,Indian,49.2802354,-123.1183171,Downtown
Go Fish,1505 W 1st Ave,Fish & Chips,49.2724945,-123.1404146,Fairview
Panago Pizza,1199 W Pender St #101,Pizza,49.28831599999999,-123.1226686,Downtown
The Juice Truck Yaletown,1022 Mainland St,Cafe,49.2760723,-123.1194564,Downtown
A&W Canada,603 Dunsmuir St,Hamburger,49.2831921,-123.1154539,Downtown
6 Degrees Eatery,1590 Coal Harbour Quay,Breakfast,49.2916482,-123.128495,Downtown
AnnaLena,1809 W 1st Ave,Canadian,49.2708261,-123.1467714,Kitsilano
Sura Korean Royal Cuisine Restaurant Vancouver,1518 Robson St,Korean,49.2888077,-123.131828,West End
Apollonia Greek Restaurant,1830 Fir St,Takeout Restaurant,49.2694416,-123.1406537,Fairview
Freshii,1185 W Georgia St,Health Food,49.2872573,-123.1247192,Downtown
Kingyo,871 Denman St,Izakaya,49.2906302,-123.1370603,West End
Guu with Garlic,1698 Robson St,Izakaya,49.2902019,-123.133953,West End
Boston Pizza,808 Beatty St,Pizza,49.2771786,-123.1140883,Downtown
Silk Dinner Lounge and Restaurant,132 Powell St,Indian,49.2831042,-123.1010731,Downtown
Oddfish Restaurant,1889 W 1st Ave,Seafood,49.270894,-123.147586,Kitsilano
Lift Bar Grill View - Downtown Vancouver,333 Menchion Mews,American,49.2936737,-123.1296952,Downtown
ChongQing on Robson,1260 Robson St,Sichuan,49.286478,-123.1281157,West End
España Restaurant,1118 Denman St,Spanish,49.2880552,-123.1404114,West End
Kirin Restaurant,1172 Alberni St,Chinese,49.286305,-123.1255378,West End
Thida Thai Restaurant,1193 Davie St,Thai,49.2817776,-123.1329753,West End
Triple O's,800 Griffiths Way,Fast Food,49.2777744,-123.1085205,Downtown
Marutama Ra-men Canada / Westend,780 Bidwell St,Japanese,49.2905691,-123.1333952,West End
McDonald's,275 Robson St #211,Fast Food,49.2788171,-123.1154121,Downtown
Dae Ji,519 Dunsmuir St,Korean,49.2826601,-123.11472,Downtown
Breka Bakery & Café (Davie,855 Davie St,Bakery,49.2784376,-123.1278992,Downtown
McDonald's,200 Burrard St Unit 5 Waterfront Centre,Fast Food,49.2876106,-123.1150993,Downtown
Dynasty Seafood Restaurant,108-777 W Broadway,Chinese,49.2637681,-123.1216281,Fairview
Tavola,1829 Robson St,Italian,49.2919048,-123.1356847,West End
Heirloom Vegetarian Restaurant,1509 W 12th Ave,Vegetarian,49.2609126,-123.1391689,Fairview
Japadog,899 Burrard St,Hot Dog Stand,49.2822782,-123.1247563,West End
Au Comptoir,2278 W 4th Ave,French,49.2679582,-123.1570401,Kitsilano
Bridges Restaurant,1696 Duranleau St,Seafood,49.272817,-123.1364204,Fairview
Cazba Express,Granville St,Middle Eastern,49.2454569,-123.1392135,Shaughnessy
Tojo's Restaurant,1133 W Broadway,Japanese,49.2636964,-123.1297159,Fairview
delhi6 Indian bistro,1766 W 7th Ave,Indian,49.2652347,-123.1449676,Fairview
Bishop's,2183 W 4th Ave,Pacific Northwest,49.2683236,-123.1547032,Kitsilano
Panago Pizza,1267 Pacific Blvd,Pizza,49.2737585,-123.1232841,Downtown
Hook Seabar,1210 Denman St,Seafood,49.286879,-123.141935,West End
Gyu-Kaku Japanese BBQ,950 W Broadway #201,Yakiniku,49.2632584,-123.1257975,Fairview
Afghan Horsemen Restaurant,1833 Anderson St #202,Afghani,49.2693903,-123.1389283,Fairview
Peaceful Restaurant,532 W Broadway #110,Chinese,49.2630874,-123.1160779,Fairview
Maenam,1938 W 4th Ave,Thai,49.2678675,-123.1488949,Kitsilano
Guu Davie,1239 Davie St,Izakaya,49.2823917,-123.1336009,West End
Marcello Ristorante & Pizzeria,1404 Commercial Dr,Italian,49.2720501,-123.0694232,Grandview-Woodland
Osteria Savio Volpe,615 Kingsway,Italian,49.2574913,-123.0909344,Mount Pleasant
Khaghan Restaurant Downtown,851 Denman St,Persian,49.2907992,-123.1368123,West End
The Liberty Distillery,1494 Old Bridge St,Distillery,49.270394,-123.134551,Fairview
JAPADOG (Waterfront Station,600 W Cordova St,Hot Dog Stand,49.2850323,-123.1115876,Downtown
Bandidas Taqueria,2781 Commercial Dr,Vegetarian,49.259773,-123.0700275,Kensington-Cedar Cottage
Les Faux Bourgeois,663 E 15th Ave,French,49.2573518,-123.0896297,Mount Pleasant
Dinesty Dumpling House,1719 Robson St,Chinese,49.2907799,-123.1340727,West End
Italia Bella Bar & Grill,215 Kingsway,Italian,49.26165719999999,-123.0980671,Mount Pleasant
BiBo Pizzeria con Cucina,1835 W 4th Ave,Pizza,49.2682628,-123.1465315,Kitsilano
Triple O's Bentall Center,1055 Dunsmuir St Unit 407B,Fast Food,49.2864943,-123.1214363,Downtown
Bar One,1088 Burrard St North Tower Lobby,Bar,49.2801681,-123.1271342,Downtown
Burdock & Co,2702 Main St,Small Plates,49.260986,-123.100708,Mount Pleasant
The Acorn Restaurant,3995 Main St,Vegetarian,49.2495953,-123.1013533,Riley Park
Ugly Dumpling,1590 Commercial Dr,Asian,49.2706489,-123.0694667,Grandview-Woodland
Purebread,159 W Hastings St,Bakery,49.2825319,-123.1090594,Downtown
Freshii,561 W Broadway,Health Food,49.2634909,-123.1170326,Fairview
Toshi Sushi,181 E 16th Ave,Japanese,49.25671029999999,-123.1019284,Mount Pleasant
Revolver,325 Cambie St,Cafe,49.283191,-123.1094521,Downtown
Burger King,612 W Pender St,Fast Food,49.2841199,-123.1142664,Downtown
Via Tevere Pizzeria,1190 Victoria Dr,Pizza,49.2738774,-123.0653991,Grandview-Woodland
Jamjar Canteen,2290 Commercial Dr,Lebanese,49.264293,-123.0695535,Grandview-Woodland
The Fish Counter,3825 Main St,Seafood,49.2507804,-123.1012704,Riley Park
Gillaneh Grill House,1072 Denman St,Persian,49.2884421,-123.1396485,West End
Thierry Alberni,1059 Alberni St,Dessert shop,49.2848765,-123.1226288,West End
The Arbor Restaurant,3941 Main St,Vegetarian,49.24995089999999,-123.101352,Riley Park
Zeitoon Restaurant,1795 Pendrell St,Persian,49.28794260000001,-123.1404572,West End
Robba da Matti,Powell St,Italian,49.2827482,-123.0843227,Strathcona
El Camino's,3250 Main St,Latin American,49.25617039999999,-123.1010147,Riley Park
MeeT on Main,4288 Main St,Vegetarian,49.246713,-123.1008309,Riley Park
Pink Peppercorn Seafood House,1485 Kingsway,Seafood,49.2493907,-123.0736372,Kensington-Cedar Cottage
Neptune Chinese Kitchen 鳳鳴粥麵,1136 Alberni St,Chinese,49.2857633,-123.1247303,West End
East is East,4433 Main St,Organic,49.2453531,-123.1014848,Riley Park
Nammos Estiatorio,3980 Fraser St,Greek,49.2494546,-123.0898053,Kensington-Cedar Cottage
Anh and Chi,3388 Main St,Vietnamese,49.2549852,-123.1008596,Riley Park
The Shameful Tiki Room,4362 Main St,Polynesian restaurant,49.2461036,-123.1010655,Riley Park
Triple O's Science World,1455 Quebec St #55,Fast Food,49.272298,-123.1020829,Mount Pleasant
