name,address,cuisine,region,lat,lng
The Patty Shop,4019 Macdonald St,Caribbean,Arbutus-Ridge,49.2507667,-123.1680264
Butter Baked Goods,4907 Mackenzie St,Bakery,Dunbar-Southlands,49.2421678,-123.1704101
La Buca,4025 MacDonald Street,Italian,Arbutus-Ridge,49.2506204,-123.1679983
Bufala,5395 West Blvd,Pizza,Arbutus-Ridge,49.2374814,-123.1556462
White Spot,5367 West Blvd,Burgers,Arbutus-Ridge,49.23766850000001,-123.1556307
Subway,4665 Arbutus Street,Sandwiches,Arbutus-Ridge,49.24397949999999,-123.1539879
Wakwak Burger,511 Granville St,Food Truck,Downtown,49.2845236,-123.1150798
A&W,"4255 Arbutus Street, #104",Fast Food,Arbutus-Ridge,49.2485248,-123.1540053
Van Den Bosch Bakery,4255 Arbutus Street,Bakery,Arbutus-Ridge,49.2485248,-123.1540053
Finest at Sea,4675 Arbutus Street,Seafood,Arbutus-Ridge,49.2444905,-123.1539172
Gotham Steakhouse & Cocktail Bar,615 Seymour St.,Steakhouse,Downtown,49.2828825,-123.1159646
Medina Café,780 Richards St,Breakfast,Downtown,49.280408,-123.1168648
Fanny Bay Oyster Bar,762 Cambie St,Seafood,Downtown,49.2786079,-123.1141059
Japadog,530 Robson St,Hot Dogs,Downtown,49.28022319999999,-123.1183207
Lupo,869 Hamilton St,Italian,Downtown,49.27819299999999,-123.1173485
Paramount Fine Foods,560 Robson St,Lebanese,Downtown,49.2803212,-123.1185948
Cartems Donuterie,534 W Pender St,Donuts,Downtown,49.2835993,-123.113811
Triple O's,700 Hamilton St. (inside CBC Vancouver),Burgers,Downtown,49.27952879999999,-123.1138787
Chambar,568 Beatty St,Belgian,Downtown,49.2801598,-123.109912
Finch’s Tea & Coffee House,353 W Pender St,Sandwiches,Downtown,49.2827746,-123.1116823
Gallery Café,750 Hornby St,Café,Downtown,49.2830077,-123.1208179
Hubbub Sandwiches,859 Hornby St,Sandwiches,Downtown,49.2819932,-123.1230964
Meat & Bread,370 Cambie St,Sandwiches,South Cambie,49.23398299999999,-123.116576
La Taqueria,322 W Hastings St,Mexican,Downtown,49.282903,-123.1105901
Tacofino,1025 Mainland St,Mexican,Downtown,49.27647109999999,-123.1195878
Five Guys,635 Robson Street,Burgers,Downtown,49.2810806,-123.119066
Bacchus Lounge,845 Hornby St,French,Downtown,49.2823626,-123.1228112
New Amsterdam Cafe,301 W Hastings,Café,Downtown,49.2829108,-123.1099049
PureBread,159 W. Hastings DT,Bakery,Downtown,49.2825319,-123.1090594
Blue Water Cafe + Raw Bar,1095 Hamilton St,Seafood,Downtown,49.276155,-123.1211291
Kokoro Tokyo Mazesoba,551 Seymore St,Noodles,Downtown,49.2834164,-123.1150628
Jam Cafe,556 Beatty St.,Breakfast,Downtown,49.280155,-123.1095422
The Parlour,1011 Hamilton St.,Italian,Downtown,49.27672099999999,-123.1201634
Baghdad Cafe,548 Seymour St.,Middle Eastern,Downtown,49.2834649,-123.1144324
Pizza Garden,675 Smithe St.,Pizza,Downtown,49.280165,-123.1209115
ZAC•ZAC Japanese Curry House,590 Robson Street,Japanese Curry,Downtown,49.2805271,-123.1187971
Small Victory Bakery,1088 Homer St,Bakery,Downtown,49.2765395,-123.1211149
The Poke Guy,420 Richards St,Poke Place,Downtown,49.28377039999999,-123.1120424
Le Crocodile Restaurant,909 Burrard St,French,West End,49.2823018,-123.1249281
Meinhardt,Granville,Deli,Downtown,49.2827291,-123.1207375
Hy's Steakhouse,637 Hornby St,Steakhouse,Downtown,49.2846711,-123.1193051
Minami,1118 Mainland St,Japanese,Downtown,49.2752011,-123.1207259
Jinya Ramen Bar,541 Robson St.,Japanese,Downtown,49.2803288,-123.1179083
Tacofino Cantina,Howe St.,Food Truck,Downtown,49.2807469,-123.1227452
hungry guys,988 Granville St,Mexican,Downtown,49.2792922,-123.1226648
Yolk's Breakfast,110 Dunsmuir St,Food Truck,Downtown,49.27904239999999,-123.1095277
Angus T,1036 Mainland Street,Bakery,Downtown,49.2759375,-123.1197949
La Taqueria Pinche Taco Shop,586 Hornby Street,Mexican,Downtown,49.28504119999999,-123.1178533
Shizen Ya,985 Hornby St,Japanese,Downtown,49.2807787,-123.1248703
The Pawn Shop,1117 Granville Street,Mexican,Downtown,49.2781493,-123.1252321
Joe Fortes Seafood & Chop House,777 Thurlow St,Seafood,West End,49.2849406,-123.1247733
Miku Restaurant,200 Granville Street,Japanese,Downtown,49.2868259,-123.112583
JOEY Burrard,820 Burrard St,New American,Downtown,49.282606,-123.1231879
Pholicious,550 W Hastings St,Vietnamese,Downtown,49.2841432,-123.1126064
Crave India,1019 Granville St.,Indian,Downtown,49.279099,-123.1235367
Pizzeria Ludica,189 Keefer Place,Pizza,Downtown,49.2800443,-123.1086181
La Terrazza Restaurant,1088 Cambie St.,Italian,Downtown,49.2749917,-123.1186413
49th Parallel & Lucky's Doughnuts,689 Thurlow,Donuts,Downtown,49.2860839,-123.1229468
Chipotle Mexican Grill,818 Howe St,Mexican,Downtown,49.28151250000001,-123.1210674
Pacifico Pizzeria Ristorante,970 Smithe St.,Italian,Downtown,49.2818429,-123.1240315
Peaceful Restaurant,602 Seymour St,Chinese,Downtown,49.28282,-123.1154086
Meat & Bread,1033 W Pender St,Sandwiches,Downtown,49.2873207,-123.1188383
Gyu-Kaku Japanese BBQ,G3-888 Nelson St.,Japanese,Downtown,49.2800583,-123.1252306
Twisted Fork Bistro,1147 Granville St,French,Downtown,49.2778708,-123.1256128
White Spot,405 Dunsmuir St,Burgers,Downtown,49.2819406,-123.1135203
The Mexican,1049 Granville St,Mexican,Downtown,49.2788282,-123.1240439
Eat Chicken Wraps,800 Howe Street,Food Truck,Downtown,49.2819092,-123.1208845
Nuba,207 W Hastings St,Middle Eastern,Downtown,49.28278599999999,-123.1097021
Caffè Artigiano,763 Hornby St,Café,Downtown,49.2831088,-123.1214374
The Templeton,1087 Granville St.,Diner,Downtown,49.278481,-123.124598
Nuba Café,508 Davie St,Middle Eastern,Downtown,49.2759072,-123.1246107
Indigo Age,436 Richard St,Vegetarian,Downtown,49.283463,-123.1125294
Vegan Pudding & Co.,422 Richards St,Vegetarian,Downtown,49.2836682,-123.1121414
Coast Restaurant,1054 Alberni St.,Seafood,West End,49.2846237,-123.1232331
Pokerrito,Hornby St,Hawaiian,Downtown,49.2805474,-123.1250074
Boulevard Kitchen & Oyster Bar,845 Burrard Street,Seafood,West End,49.2830751,-123.1239084
Faubourg Paris,769 Hornby St,Café,Downtown,49.2830662,-123.1214307
Fresh Sushi,909 Expo Blvd.,Japanese,Downtown,49.2756851,-123.1154129
Meet in Gastown,12 Water St,Vegetarian,Downtown,49.2834276,-123.1048588
Per Se Social Corner,891 Homer St.,Café,Downtown,49.2786163,-123.1184615
Yamato Sushi,616 Davie St,Japanese,Downtown,49.2766291,-123.125616
Cactus Club Cafe,588 Burrard St,American,Downtown,49.2854558,-123.118732
Ebar,799 Robson Street,Café,Downtown,49.2819563,-123.120054
Sala Thai,102-888 Burrard St,Thai,Downtown,49.2881028,-123.1159761
Rodney's Oyster House,1228 Hamilton St,Seafood,Downtown,49.2743299,-123.1231956
Koala Kebabs Donairs,519 West Pender,Falafel,Downtown,49.2837542,-123.1130544
Manoush'eh,620 Davie St.,Lebanese,Downtown,49.27667880000001,-123.1256815
Guu Original,838 Thurlow St.,Japanese,West End,49.2840076,-123.1254334
CinCin,1154 Robson St,Italian,West End,49.285261,-123.1261391
Einstein Wrap House,516 Abbott St,Falafel,Downtown,49.28062260000001,-123.1074519
Cioppino's,1133 Hamilton St,Mediterranean,Downtown,49.2757752,-123.121939
Provence Marinaside Seafood Restaurant Bar & Grill,1177 Marinaside Crescent,French,Downtown,49.2733234,-123.119583
WildTale Coastal Grill,1079 Mainland,Seafood,Downtown,49.2759291,-123.1203252
Kobe Japanese Steakhouse,1042 Alberni St,Steakhouse,West End,49.2845448,-123.1231404
Tractor,335 Burrard Street,Cafeteria,Downtown,49.2875834,-123.1167499
Red Robin Gourmet Burgers and Brews,803 Thurlow Street,Burgers,West End,49.2845862,-123.1252497
Scoozis,445 Howe St.,Mediterranean,Downtown,49.2859071,-123.115404
Tacofino Taco Bar,15 W Cordova St,Mexican,Downtown,49.2827731,-123.1047979
Gyu-Kaku Japanese BBQ,201 - 950 W Broadway St,BBQ,Fairview,49.2632584,-123.1257975
Shi Zen Ya,1102 West Broadway,Japanese,Fairview,49.2633113,-123.1292396
Slickity Jim's Chat & Choux,1387 West 7th Ave,Breakfast,Fairview,49.2654301,-123.1357879
Beaucoup Bakery,2150 Fir St,Bakery,Fairview,49.2664597,-123.1407911
Café Salade de Fruits,1551 W 7th Ave,French,Fairview,49.2655967,-123.1400538
Masa Japanese Restaurant,1414 West Broadway,Japanese,Fairview,49.2634203,-123.1366112
Suika,1626 W Broadway,Japanese,Fairview,49.2634105,-123.1416899
Paul's Place Omelettery Restaurant,2211 Granville St.,Breakfast,Fairview,49.2659984,-123.1387561
SushiVan,2566 Granville St,Japanese,Fairview,49.26296319999999,-123.1383187
Oyama Sausage,1689 Johnston St,Deli,Fairview,49.2727014,-123.1352146
A Bread Affair,1680 Johnston St,Bakery,Fairview,49.2724853,-123.1358648
Small Victory,3070 Granville street,Bakery,Fairview,49.2583008,-123.1385395
Red Ginger Asian Cuisine,967 W Broadway,Asian,Fairview,49.2635515,-123.1256451
Siegel’s Bagels,1698 Johnston St,Bagels,Fairview,49.2726696,-123.1359137
A Taste of Vietnam,1016 W Broadway,Vietnamese,Fairview,49.2631256,-123.1270799
Lee's Donuts,1689 Johnson St,Donuts,Fairview,49.2727014,-123.1352146
Off the Tracks Espresso Bar & Bistro,1363 Railspur Alley,Café,Fairview,49.2704673,-123.1337891
Kaya Malay Bistro,1063 West Broadway,Asian,Fairview,49.2636018,-123.1280703
Lin's Chinese Cuisine and Tea House,1537 W. Broadway,Chinese,Fairview,49.26377309999999,-123.1397224
Caffè Cittadella,2310 Ash St,Café,Fairview,49.264775,-123.117217
Go Fish,1505 W 1st Ave,Seafood,Fairview,49.2724945,-123.1404146
Banana Leaf,820 West Broadway,Malay,Fairview,49.2631202,-123.1224844
Heirloom Vegetarian Restaurant,1509 W 12th Ave,Vegetarian,Fairview,49.2609126,-123.1391689
Vancouver Fish Co.,1517 Anderson Street,Seafood,Fairview,49.2705997,-123.1365764
Edible Canada at the Market,1596 Johnston St.,Gastropub,Fairview,49.2716722,-123.1348861
Cactus Club Cafe,1530 W Broadway,American,Fairview,49.26343869999999,-123.1395482
Afghan Horsemen Restaurant,202-1833 Anderson Street,Middle Eastern,Fairview,49.2693903,-123.1389283
Dynasty Seafood Restaurant 皇朝海鮮酒家,108-777 W Broadway,Chinese,Fairview,49.2637681,-123.1216281
B-Bin,3098 Oak Street,Japanese,Fairview,49.2577393,-123.1267423
liquids+solids,1550 W Broadway,Café,Fairview,49.2634672,-123.1400913
The Sandbar Seafood Restaurant,1536 Johnston St.,Seafood,Fairview,49.2712072,-123.1343241
Breakfast Table,1481 West Broadway,Breakfast,Fairview,49.2637878,-123.1377917
Royal Seoul House Korean Restaurant,100 - 1215 W Broadway,Korean,Fairview,49.2635592,-123.1450448
Dockside Restaurant,1253 Johnston St,Seafood,Fairview,49.26948600000001,-123.131177
Raga Restaurant,1177 Broadway W,Indian,Fairview,49.2637614,-123.1305469
Bin 4,2996 Granville Street,Burgers,Fairview,49.2590704,-123.1384745
Cactus Club Cafe,575 West Broadway,American,Fairview,49.2634554,-123.1171839
Tony's Fish & Oyster Café,1511 Anderson St,Seafood,Fairview,49.2707061,-123.1364206
Vivanty's,802 West Broadway,Sandwiches,Fairview,49.2631709,-123.1221441
Prado Cafe,1809 Fir Street,Café,Fairview,49.2694391,-123.1409639
De Dutch,3192 Oak St.,Breakfast,Fairview,49.25726419999999,-123.1270022
Jitlada,1459 Broadway West,Thai,Fairview,49.2637441,-123.1373983
Flying Swan Coffeehouse,1724 West 4th Avenue,Breakfast,Fairview,49.2678694,-123.143856
Yanaki Sushi,816 W 6th Ave.,Japanese,Fairview,49.26571999999999,-123.1223239
Gourmet Wok,1689 Johnston Street,Chinese,Fairview,49.2727014,-123.1352146
Duke's On Broadway,736 W Broadway,Diner,Fairview,49.263078,-123.1210049
Sushi Dragon,614 W Broadway,Japanese,Fairview,49.2630952,-123.1182667
Branas Mediterranean Grill,617 Stamps Landing,Mediterranean,Fairview,49.26850049999999,-123.1187213
Bridges Restaurant,1696 Duranleau St,American,Fairview,49.272817,-123.1364204
Earls,1601 W Broadway,American,Fairview,49.2639631,-123.1414827
Donair Spot,806 West Broadway,Falafel,Fairview,49.2630496,-123.1222281
Max's Bakery & Delicatessen,3105 Oak Street,Bakery,Fairview,49.2575721,-123.1275238
The Market Grill,104 - 1689 Johnston St,Burgers,Fairview,49.2715205,-123.1341702
Subway,1288 W Broadway,Sandwiches,Fairview,49.2633442,-123.1329176
Szechuan Chili Restaurant,804 W 6th Ave.,Szechuan,Fairview,49.265607,-123.121984
À La Mode,137 - 1689 Johnston St,Café,Fairview,49.2727014,-123.1352146
Caffé Barney,2975 Granville St.,Breakfast,Fairview,49.25918009999999,-123.1391536
The Marquis,2666 Granville St,Gastropub,Fairview,49.2621327,-123.1383634
Apollonia,1830 Fir Street,Greek,Fairview,49.2694416,-123.1406537
Tojo's Restaurant,1133 W Broadway,Japanese,Fairview,49.2636964,-123.1297159
Chang'An,1661 Granville St,Chinese,Downtown,49.27331299999999,-123.1326809
QQ Sushi,1640 W Broadway,Japanese,Fairview,49.2634926,-123.1419998
A&W,777 West Broadway,Fast Food,Fairview,49.2635975,-123.1213494
Subway,"700 West 6th Avenue, Retail Unit D",Sandwiches,Fairview,49.26555099999999,-123.1199986
Boston Pizza,190 - 1333 W Broadway,Pizza,Mount Pleasant,49.26312069999999,-123.1093472
Stock Market,1551 Johnston St,Soup,Fairview,49.27181479999999,-123.1344084
Ebisu on Broadway,B16 - 601 W. Broadway,Japanese,Fairview,49.2637363,-123.1180045
Panago Pizza,1278 W Broadway,Pizza,Fairview,49.2633586,-123.1328321
Tony's Coffee,805 west broadway,Café,Fairview,49.2638294,-123.1222828
Denny's,1759 West Broadway,Breakfast,Fairview,49.2638717,-123.1448243
Tomokazu,201-1128 W Broadway,Japanese,Fairview,49.2633333,-123.13
IHOP,200-950 W Broadway,Breakfast,Fairview,49.2630333,-123.1255056
Subway,102-1595 W Broadway,Sandwiches,Fairview,49.2638018,-123.1406688
Kisokoma,805 W Broadway,Japanese,Fairview,49.2638294,-123.1222828
Bella Pizza,2525 Hemlock St,Pizza,Fairview,49.263255,-123.136615
New India Buffet & Restaurant,#105 - 805 West Broadway,Indian,Fairview,49.2637957,-123.1221784
Ro Sushi,678 West Broadway,Japanese,Fairview,49.2631001,-123.1192423
Szechuan Chongqing Seafood Restaurant,#205-1668 W Broadway,Chinese,Fairview,49.2634294,-123.1423828
Salad Loop,2775 Laurel St,Salad,Fairview,49.261199,-123.1260659
Express Pho,1455 W Broadway,Vietnamese,Fairview,49.26372380000001,-123.1373524
Ichibankan Express,750 West Broadway,Japanese,Fairview,49.26301110000001,-123.1211867
Shanghai Lu Restaurant,705 W Broadway Street,Asian,Fairview,49.26361259999999,-123.1200751
Kyo Korean BBQ & Sushi,2-2993 Granville St.,Korean,Marpole,49.2101605,-123.1408864
Joons Kitchen,3093 Oak Street,Japanese,Fairview,49.2580519,-123.1271478
My Slice Pizza,1630 W Broadway,Pizza,Fairview,49.2635028,-123.1417719
Old Beijing Roast Duck,1643 West Broadway,Chinese,Fairview,49.2638967,-123.1421012
The Downlow Chicken Shack,905 Commercial Drive,Fried Chicken,Grandview-Woodland,49.27632699999999,-123.069732
Via Tevere,1190 Victoria Dr,Pizza,Grandview-Woodland,49.2738774,-123.0653991
Biercraft Tap And Tapas,1191 Commercial Dr.,Tapas,Grandview-Woodland,49.2740611,-123.0697946
Kin Kao,903 Commercial Dr,Thai,Grandview-Woodland,49.2763558,-123.0696924
Pepino’s,631 Commercial Drive,Italian,Grandview-Woodland,49.2788717,-123.0706063
A. Bosa And Company Ltd. Import Euro,562 Victoria Drive,Deli,Grandview-Woodland,49.2792444,-123.0654808
Havana,1212 Commercial Dr,Cuban,Grandview-Woodland,49.2737034,-123.0692115
Ginger Sushi,1437 Commercial Dr.,Japanese,Grandview-Woodland,49.2717096,-123.0697506
Sula Indian Restaurant,1128 Commercial Drive,Indian,Grandview-Woodland,49.2744339,-123.0691883
Fets Whisky Kitchen,1230 Commercial Dr.,Cajun,Grandview-Woodland,49.2735267,-123.0692475
Sunrise Pizza & Steak House,949 Commercial Dr,Pizza,Grandview-Woodland,49.2758896,-123.0696667
Tandoori Palace,1439 Commercial Dr,Indian,Grandview-Woodland,49.2716292,-123.0699829
Uprising Breads Bakery,1697 Venables St,Bakery,Grandview-Woodland,49.2767667,-123.070614
Fujiya,912 Clark Dr.,Japanese,Grandview-Woodland,49.2765541,-123.0768797
Absinthe Bistro,1260 Commercial Dr,French,Grandview-Woodland,49.27338,-123.0693298
Mr. Red Cafe,2234 E Hastings St,Vietnamese,Grandview-Woodland,49.2810132,-123.0591164
Famoso Neapolitan Pizzeria,1380 Commercial Dr,Pizza,Grandview-Woodland,49.2722609,-123.0692191
Tacofino Commissary,2327 E Hastings St,Mexican,Grandview-Woodland,49.28128419999999,-123.0575022
Black Rook Bakehouse,2141 East Hastings,Café,Grandview-Woodland,49.2813702,-123.0606091
Eternal Abundance,1025 Commercial Dr,Vegetarian,Grandview-Woodland,49.275432,-123.0698104
The Red Wagon,2296 E Hastings St,Breakfast,Grandview-Woodland,49.2810265,-123.0580193
La Grotta Del Formaggio,1791 Commercial Dr,Sandwiches,Grandview-Woodland,49.26884889999999,-123.0699837
Yolks,1598 E Hastings St,Breakfast,Grandview-Woodland,49.2811259,-123.072895
Scandilicious Commissary,25 Victoria Drive,Bakery,Grandview-Woodland,49.2843937,-123.065746
Joes Cafe,1150 Commercial drive,Café,Grandview-Woodland,49.27413199999999,-123.069351
Bistro Wagon Rouge,1869 Powell St,French,Grandview-Woodland,49.284784,-123.0662582
La Mezcaleria,1622 Commercial Dr,Mexican,Grandview-Woodland,49.2700977,-123.0692773
Volcano Sushi & Grill,1991 E. Hastings St.,Japanese,Grandview-Woodland,49.28152799999999,-123.063824
Fratelli Bakery,1795 Commercial Street,Bakery,Grandview-Woodland,49.26883309999999,-123.0698593
Kishimoto Japanese Kitchen & Sushi Bar,2054 Commercial Drive,Japanese,Grandview-Woodland,49.2667364,-123.0694112
Jackalope's Neighbourhood Dive,2257 E Hastings St,Southern / Soul,Grandview-Woodland,49.2812947,-123.0589523
Sopra Sotto Pizzeria,1550 Commercial Dr,Italian,Grandview-Woodland,49.2707941,-123.069405
East Cafe,2401 E Hastings St,Café,Hastings-Sunrise,49.28134619999999,-123.0562671
Truck Stop Cafe,1049 Clark Dr,Diner,Strathcona,49.27542039999999,-123.0776829
Rinconcito Salvadorean,2062 Commercial Dr,Latin American,Grandview-Woodland,49.2666037,-123.0695021
Roundel Cafe,2465 E Hastings St,Café,Hastings-Sunrise,49.28127809999999,-123.0553772
Cafe Du Soleil,1393 Commercial Dr,Vegetarian,Grandview-Woodland,49.272438,-123.069862
Marcello Pizzeria & Ristorante,1404 Commercial Dr,Italian,Grandview-Woodland,49.2720501,-123.0694232
Tatsu Japanese Bistro,1441 Commercial Dr.,Japanese,Grandview-Woodland,49.2716228,-123.0698886
What's Up? Hot Dog!,2481 E Hastings St,Hot Dogs,Hastings-Sunrise,49.2812846,-123.0550644
Babylon Café,1605 Commercial Dr,Middle Eastern,Grandview-Woodland,49.2703839,-123.069814
Aleph Eatery,1889 Powell St,Middle Eastern,Grandview-Woodland,49.2848444,-123.0659429
Cannibal Cafe,1818 Commercial Dr,Burgers,Grandview-Woodland,49.2683788,-123.0694713
Pizza Garden,1042 Commercial Dr.,Pizza,Grandview-Woodland,49.2750233,-123.0692198
Far Out Coffee Post,2173 Dundas St,Café,Grandview-Woodland,49.2849236,-123.0600312
Tamam Fine Palestinian Cuisine,2616 E Hastings St,Middle Eastern,Hastings-Sunrise,49.2809355,-123.051436
"J, N & Z Deli",1729 Commercial Dr.,Deli,Grandview-Woodland,49.2691136,-123.0698261
Siddhartha's,2066 Commercial Drive,Indian,Grandview-Woodland,49.2665657,-123.0695155
Koko,2053 Hastings Street East,Japanese,Grandview-Woodland,49.2813178,-123.0625702
Union Market,Union St,Deli,Strathcona,49.2775323,-123.0916297
Sushi Nanaimo,350 Nanaimo St,Japanese,Hastings-Sunrise,49.2815242,-123.0562663
Lombardo’s Pizzeria & Ristorante,1641 Commercial Dr,Italian,Grandview-Woodland,49.2700044,-123.0698928
The Daily Catch,1418 Commercial Drive,Seafood,Grandview-Woodland,49.2718176,-123.0693452
Deserts,905 Commercial Dr.,Indian,Grandview-Woodland,49.27632699999999,-123.069732
Fire Pizza,1918 Commercial Dr,Pizza,Grandview-Woodland,49.26740840000001,-123.0694962
Café Deux Soleils,2096 Commercial Dr.,Vegetarian,Grandview-Woodland,49.2660509,-123.0694337
Cabrito,2270 Commercial Dr,Tapas,Grandview-Woodland,49.2644738,-123.0695334
Five Elements Cafe,1046 Commercial Dr,Asian,Grandview-Woodland,49.2749731,-123.0693852
Belgian Fries,1885 Commercial Dr,Diner,Grandview-Woodland,49.267933,-123.0698877
X-site East Van,2270 Hastings Street East,Latin American,Grandview-Woodland,49.2810272,-123.0585509
Livia Bakery,1399 Commercial Dr,Bakery,Grandview-Woodland,49.2722878,-123.0697787
Le Petit Saigon,2783 E Hastings,Vietnamese,Hastings-Sunrise,49.281355,-123.0472672
Tangent Cafe,2095 Commercial Dr,Gastropub,Grandview-Woodland,49.2660675,-123.0699631
Carthage Cafe,1851 Commercial Dr,French,Grandview-Woodland,49.2681986,-123.0698366
Sake Maki,1414 Commercial Dr,Japanese,Grandview-Woodland,49.2718997,-123.0694427
Memphis Blues Barbeque House,1342 Commercial Dr,BBQ,Grandview-Woodland,49.2724944,-123.0692524
Vera's on the Drive,1438 Commercial Dr,Burgers,Grandview-Woodland,49.27164339999999,-123.0694547
Harambe Ethiopian Cuisine,2149 Commercial Drive,Ethiopian,Grandview-Woodland,49.26556679999999,-123.0699715
Addis Cafe,2017 Commercial Drive,Ethiopian,Grandview-Woodland,49.26653289999999,-123.0699021
Bao Chau,2717 E. Hastings St.,Vietnamese,Hastings-Sunrise,49.2812747,-123.0489068
Pig on the Street,Howe St,Food Truck,Downtown,49.2807469,-123.1227452
Take Thai Home,1736 Commercial Dr.,Thai,Grandview-Woodland,49.2689969,-123.0692568
Jamjar,2280 Commercial Dr,Lebanese,Grandview-Woodland,49.2643741,-123.0693441
On Lok Restaurant & Won-Tun House 安樂麵家,2010 E Hastings St.,Chinese,Grandview-Woodland,49.2808579,-123.0633045
Saloniki Greek Taverna,1815 Commercial Drive,Greek,Grandview-Woodland,49.2683534,-123.070115
Bai Bua Thai Cuisine,1-2443 E Hastings St,Thai,Hastings-Sunrise,49.2812869,-123.0556328
The Drive Coffee Bar,1670 Commercial Drive,Café,Grandview-Woodland,49.2699198,-123.0692781
Song Huong,1613 Nanaimo St.,Vietnamese,Grandview-Woodland,49.2701941,-123.0569066
Santa Barbara Market,1322 Commercial Dr,Deli,Grandview-Woodland,49.2726167,-123.0692175
Uncle Fatih's Pizza,1685 Broadway East,Pizza,Grandview-Woodland,49.26248649999999,-123.0701321
reLiSH Gourmet Burgers,2290 Commercial Dr,Burgers,Grandview-Woodland,49.264293,-123.0695535
Pink Pearl,1132 E Hastings St,Chinese,Strathcona,49.2806949,-123.0802963
Le Pho Vietnamese Cuisine,2503 E Hastings St,Vietnamese,Hastings-Sunrise,49.2812758,-123.0543241
James on Hastings,2683 E Hastings St.,Chinese,Hastings-Sunrise,49.2814925,-123.0498771
Pelican Seafood Restaurant,1891 E Hastings St,Asian,Grandview-Woodland,49.2814592,-123.0661649
Euro Cafe,1468 Commercial Dr.,Breakfast,Grandview-Woodland,49.271535,-123.069451
The Charlatan,1447 Commercial Dr,Gastropub,Grandview-Woodland,49.2715434,-123.0697684
Axum Ethiopian,1279 E Hastings St,Ethiopian,Strathcona,49.2816149,-123.0777844
Bon's Off Broadway,2451 Nanaimo Street,Breakfast,Grandview-Woodland,49.2626943,-123.0571017
Kojima Sushi,1836 Commercial Dr,Japanese,Grandview-Woodland,49.2681034,-123.0694691
Laksa King Restaurant,2546 East Hastings Street,Malay,Hastings-Sunrise,49.28102519999999,-123.0533381
Italia Bakery,2828 E. Hastings St,Bakery,Hastings-Sunrise,49.280817,-123.0459715
Cindys Palace 頭啖湯,1796 Nanaimo St,Asian,Hastings-Sunrise,49.2686838,-123.0562864
Church's Chicken,2304 East Hastings Street,Fried Chicken,Grandview-Woodland,49.2809743,-123.0574231
Neptune Express,2450 Commercial Dr,Chinese,Grandview-Woodland,49.2627422,-123.0695455
East Village Bakery,2166 East Hastings Street,Bakery,Grandview-Woodland,49.2810138,-123.0602546
Subway,"2828 E Hastings St, Unit 108",Sandwiches,Hastings-Sunrise,49.280817,-123.0459715
Osteria Napoli Ristoranté,1660 Renfrew St.,Italian,Hastings-Sunrise,49.2698492,-123.0439297
Fortune City Seafood Resturant 百福海鮮酒家,302-2800 E 1st Ave.,Seafood,Strathcona,49.2681808,-123.0973952
Thai Son Restaurant,2800 E 1st Ave,Vietnamese,Hastings-Sunrise,49.26894490000001,-123.0454708
Poor Italian Trattoria,3296 E 1st Ave,Italian,Hastings-Sunrise,49.2690821,-123.0341384
Vallarta's Mexican Restaurant,2991 E. Broadway,Mexican,Hastings-Sunrise,49.2621438,-123.0418284
Roaming Dragon,100 Renfrew St,Asian,Hastings-Sunrise,49.285843,-123.0426334
Le Do,2292 E Hastings St.,Vietnamese,Grandview-Woodland,49.2809537,-123.0581034
Van Dragon Chinese Restaurant 雲龍海鮮酒家,2163 E Hastings St,Chinese,Grandview-Woodland,49.281302,-123.0601107
Giants Den,Pacific Coliseum,American,Hastings-Sunrise,49.2858056,-123.0427306
Thai Hang Vietnamese Restaurant,2122 East Hastings Street,Vietnamese,Grandview-Woodland,49.2809485,-123.0612294
Fortune Court Seafood House,3555 E Hastings St,Seafood,Hastings-Sunrise,49.28148729999999,-123.0270545
Penny Restaurant 錢記,2060 E Hastings St,Chinese,Grandview-Woodland,49.2808968,-123.0624938
Miyako Sushi,2341 E Hastings St,Japanese,Grandview-Woodland,49.2813655,-123.0573113
Tsolias Taverna,2277 East Hastings Street,Greek,Grandview-Woodland,49.2813001,-123.0584768
Vietnam House,2122 E Hastings St,Vietnamese,Grandview-Woodland,49.2809485,-123.0612294
J's Grill & Pasta,1901 Powell Street,Italian,Grandview-Woodland,49.2850084,-123.064968
Little Caesars Pizza,2080 Hastings Street East,Pizza,Grandview-Woodland,49.2808696,-123.0622011
Yan Bakery,2070 E Hastings St.,Bakery,Grandview-Woodland,49.28090599999999,-123.0623788
Domino's Pizza,2083 Dundas St,Pizza,Grandview-Woodland,49.28512019999999,-123.0621365
Riz Sushi Bar & Catering,2887 E. Broadway,Japanese,Hastings-Sunrise,49.2622132,-123.0447988
Basil Garden,2889 E Broadway,Vietnamese,Hastings-Sunrise,49.2622722,-123.0448569
Talay Thai Restaurant,8369 Granville Street,Thai,Marpole,49.2107897,-123.140745
Cafe de l'Orangerie,1320 W 73rd Ave,Japanese,Marpole,49.204004,-123.1352808
Cravings Restaurant + Lounge,8808 Osler St,American,Marpole,49.2055267,-123.1313388
Gigi Blin,1400 W 70th Ave,Café,Marpole,49.208429,-123.1379116
Red Star Seafood Restaurant 鴻星海鮮酒家,8298 Granville St,Chinese,Marpole,49.2111772,-123.1401991
Penang Delight Cafe,1316 W 73rd Ave,Malay,Marpole,49.2040797,-123.1352609
Ming Tak Hong Kong Style Restaurant,8363 Granville Street,Chinese,Marpole,49.2108334,-123.1407047
A&W,468 S.W. Marine Drive,Fast Food,Marpole,49.209364,-123.116783
Mirchi Restaurant,7964 Granville Street,Indian,Marpole,49.2135408,-123.1401398
The Place Restaurant,8028 Granville Street,Chinese,Marpole,49.2128045,-123.1401193
Wicks Café,1300 W 73rd Ave,Café,Marpole,49.2040721,-123.1349289
Applause Japanese Restaurant,8269 Oak St,Japanese,Marpole,49.2109319,-123.1305183
Subway,8347 Granville St,Sandwiches,Marpole,49.211083,-123.1406811
White Spot,1041 SW Marine Dr,Burgers,Marpole,49.2048294,-123.130886
Sushi Wow,8273 Granville,Japanese,Marpole,49.2116562,-123.1407218
Donair Spot,8616 Granville St,Falafel,Marpole,49.2082537,-123.1401242
Tai Tung Chinese Seafood Restaurant,8012 Granville St.,Chinese,Marpole,49.21290219999999,-123.1400916
Pizza Hut,8155 Granville Street,Pizza,Marpole,49.2121552,-123.1409273
Subway,"644 SW Marine Dr, Unit 101",Sandwiches,Marpole,49.2085891,-123.1197921
Thai Son,1450 SW Marine Dr.,Vietnamese,Marpole,49.2042456,-123.1395324
Ikura Japanese Restaurant,8646 Granville St.,Japanese,Marpole,49.2079003,-123.1403017
Sushi King House,8176 Granville St.,Japanese,Marpole,49.2116627,-123.1401882
Parm'z Pizza Factory,8319 Oak St.,Pizza,Marpole,49.2105495,-123.1304717
Dublin Crossing Irish Pub,466 SW Marine Drive,Irish,Marpole,49.2100079,-123.1157887
Cafe Mai-Mai,8636 Granville St,Vietnamese,Marpole,49.2080893,-123.1400808
Denny's,622 SW Marine Dr,Breakfast,Marpole,49.20879069999999,-123.1193511
Subway,474 South West Marine Drive,Sandwiches,Marpole,49.20986019999999,-123.1165335
Pink Elephant Thai,434 South West Marine Drive,Thai,Marpole,49.2101841,-123.1161936
Wang's Beef Noodle House,8390 Granville Street,Noodles,Marpole,49.21020559999999,-123.1400582
FreshSlice Pizza,498 SW Marine Drice,Pizza,Marpole,49.2099567,-123.1168429
Neptune Palace (Neptune Palace Seafood Restaurant),308 - 470 SW Marine Drive,Chinese,Marpole,49.21004800000001,-123.116603
Freshslice Pizza,8618 Granville St,Pizza,Marpole,49.2082081,-123.1401279
Oriole Cafe,1200 west 73rd avenue,Café,Marpole,49.2041247,-123.1332583
Gold Train Express,8178 Granville st,Vietnamese,Marpole,49.2117182,-123.1399784
Papa's Eatery,8091 Granville St.,Sandwiches,Marpole,49.212435,-123.1405946
Panago Pizza,8333 Granville St,Pizza,Marpole,49.2111805,-123.1408436
Sakuranbo,8051 Granville St,Japanese,Marpole,49.2126887,-123.1405975
The Meat Up,7994 Granville St,Chinese,Marpole,49.2132843,-123.1400589
South West Seafood Restaurant,8012 Granville St,Chinese,Marpole,49.21290219999999,-123.1400916
Golden Pair Vietnamese Asian Cuisine,8167 Granville Street,Vietnamese,Marpole,49.211983,-123.140896
Bubbletopia,7974 Granville Street,Café,Marpole,49.2134317,-123.1401162
Sushi Hoon,7974 Granville St.,Japanese,Marpole,49.2134317,-123.1401162
East is East,4433 Main St,Middle Eastern,Riley Park,49.2453531,-123.1014848
Pho Tan,4589 Main St,Vietnamese,Riley Park,49.243205,-123.1016815
Sawasdee Thai Restaurant,4250 Main St,Thai,Riley Park,49.2470563,-123.1008276
Meet on Main,4288 Main St.,Vegetarian,Riley Park,49.246713,-123.1008309
Trilussa Pizza & Pane,4363 Main St.,Pizza,Riley Park,49.2464617,-123.1014422
Trafiq Café & Bakery,4216 Main St,Café,Riley Park,49.2473463,-123.1007201
Hawker's Delight,4127 Main St,Malay,Riley Park,49.2483626,-123.101467
Matchstick Coffee Roasters,4807 Main St,Café,Riley Park,49.2417993,-123.1018127
The Acorn,3995 Main St,Vegetarian,Riley Park,49.2495953,-123.1013533
Long's Noodle House 小龍記麵家,4853 Main St,Chinese,Riley Park,49.2412498,-123.1016585
Au Petit Cafe,4851 Main Street,Vietnamese,Riley Park,49.241269,-123.1016808
Seasons in the Park,West 33rd Avenue,Seafood,Arbutus-Ridge,49.2421528,-123.1566311
Pho Bon Vietnamese Restaurant,4909 Main St,Vietnamese,Riley Park,49.2403618,-123.1017427
Liberty Bakery + Cafe,3699 Main St,Bakery,Riley Park,49.25191599999999,-123.1012221
Zakkushi Charcoal Grill,4075 Main St.,Japanese,Riley Park,49.2490989,-123.1015353
The Fish Counter,3825 Main St,Seafood,Riley Park,49.2507804,-123.1012704
Sushi Mania,3851 Main St,Japanese,Riley Park,49.2506311,-123.1013081
Locus,4121 Main St,Breakfast,Riley Park,49.24849709999999,-123.1014653
Chickpea,4298 Main St,Falafel,Riley Park,49.2465536,-123.1010436
The Arbor,3941 Main Street,Gastropub,Riley Park,49.24995089999999,-123.101352
Bâtard Boulangerie & Cafe Moderne,3958 Fraser St,Café,Kensington-Cedar Cottage,49.2495562,-123.0898771
Anh and Chi,3388 Main St,Vietnamese,Riley Park,49.2549852,-123.1008596
Coco et Olive,3707 Main St,Café,Riley Park,49.2516796,-123.1011941
Pizza Carano,4241 Fraser St,Pizza,Riley Park,49.24724699999999,-123.0904024
Solly’s Bagelry,4071 Main St,Bagels,Riley Park,49.2491206,-123.1014603
Slickity Jim’s,3475 Main St,Breakfast,Riley Park,49.2540235,-123.1010613
Toshi Sushi,181 E 16th Ave.,Japanese,Mount Pleasant,49.25671029999999,-123.1019284
The General Public,3289 Main St,Japanese,Riley Park,49.2558553,-123.1015339
Egg And Company,4245 Fraser Street,Breakfast,Riley Park,49.24715699999999,-123.0904601
El Camino's,3250 Main St.,Latin American,Riley Park,49.25617039999999,-123.1010147
Dream Sushi Japanese Restaurant,4401 Main St.,Japanese,Riley Park,49.2458467,-123.1014995
The Reef,4172 Main St.,Caribbean,Riley Park,49.2479632,-123.1007692
Helen's Grill,4102 Main St,Diner,Riley Park,49.2486433,-123.1007253
Yugo Restaurant,4265 Main St,Japanese,Riley Park,49.2475265,-123.1014138
Landmark Hot Pot House 春秋火鍋,4023 Cambie St.,Chinese,South Cambie,49.2498405,-123.1155811
Don’t Argue Pizzeria,3240 Main St,Pizza,Riley Park,49.2563171,-123.1008879
Boiling Point,4148 Main Street,Hotpot,Riley Park,49.2482504,-123.1008849
Sun Sui Wah,3888 Main St,Chinese,Riley Park,49.2504277,-123.1006395
King's Chinese Cuisine,4488 Main St,Chinese,Riley Park,49.2446116,-123.1009743
Pho Quyen Restaurant,3916 Fraser St,Vietnamese,Kensington-Cedar Cottage,49.2498702,-123.0896868
Ogenki Sushi,4342 Main St.,Japanese,Riley Park,49.2462607,-123.1009543
Van. Tea Cafe 伯茶餐廳,5688 Main Street,Chinese,Riley Park,49.2332905,-123.1010171
Nammos Estiatorio,3980 Fraser St,Greek,Kensington-Cedar Cottage,49.2494546,-123.0898053
Corner 23,4008 Cambie St.,Chinese,Riley Park,49.2499562,-123.1150368
The French Table,3916 Main Street,French,Riley Park,49.2500363,-123.1008354
Splitz Grill,4242 Main St,Burgers,Riley Park,49.2470985,-123.1007657
Caffé Artigiano,4010 Main St,Café,Riley Park,49.2491774,-123.100842
Bob Likes Thai Food,3755 Main Street,Thai,Riley Park,49.2513423,-123.101333
Simply Delicious Eatery & Lounge,4316 Main St,Japanese,Riley Park,49.2464954,-123.1010225
Subway,4108 Fraser Street,Sandwiches,Kensington-Cedar Cottage,49.2484391,-123.0898488
Haiyi Seafood Restaurant,4818 Main Street,Cantonese,Riley Park,49.2420726,-123.1012135
Autostrada Osteria,4811 Main St,Italian,Riley Park,49.2417397,-123.1016277
Sushi Hub,4855 Main Street,Japanese,Riley Park,49.2411806,-123.1016703
Happy Pho,4136 Main St,Vietnamese,Riley Park,49.24832550000001,-123.1008158
Cambie Vietnam Restaurant,4136 Main Street,Vietnamese,Riley Park,49.24832550000001,-123.1008158
Quejos Cheesebuns,4129 Main St,Bakery,Riley Park,49.248382,-123.1013152
Church's Chicken,3449 Main St,Fried Chicken,Riley Park,49.254167,-123.1012977
Pizza Hut,3425 Main Street,Pizza,Riley Park,49.2544611,-123.1012989
Masayoshi,4376 Fraser St,Japanese,Kensington-Cedar Cottage,49.24579869999999,-123.0900391
Float On Bakeshop & Cafe,4384 Fraser St,Bakery,Kensington-Cedar Cottage,49.2457271,-123.0898687
Nooru Mahal,4354 Fraser Street,Indian,Kensington-Cedar Cottage,49.2460302,-123.08996
European Breads Bakery,4324 Fraser St.,Bakery,Kensington-Cedar Cottage,49.2463266,-123.0900346
Aling Ening,4253 fraser street,Filipino,Riley Park,49.247027,-123.0905809
Pho Cilantro,4197 Fraser St,Vietnamese,Riley Park,49.24777049999999,-123.090485
Grand View Szechuan Restaurant Ltd,4181 Fraser St,Chinese,Riley Park,49.2478619,-123.0903444
Bee Kim Heng,4194 Fraser St,Chinese,Kensington-Cedar Cottage,49.2477076,-123.0898537
Penang Bistro,3960 Fraser St,Malay,Kensington-Cedar Cottage,49.2495413,-123.0899132
Panz Veggie,3485 Fraser Street,Vegetarian,Riley Park,49.25395470000001,-123.0901929
Nikkyu Japanese Restaurant,3302 Main Street,Japanese,Riley Park,49.255567,-123.101019
Truffles Fine Foods,5151 Oak St,Sandwiches,Shaughnessy,49.2391439,-123.1318942
Goma Sushi,3720 Oak St.,Japanese,South Cambie,49.2524673,-123.1272818
Grand Honour Restaurant,5668 Granville St.,Asian,Shaughnessy,49.2347517,-123.1393101
The Best Neighbours Restaurant,3838 Oak St.,Greek,South Cambie,49.2514254,-123.127207
Osaka Sushi,960 West King Edward Ave.,Japanese,South Cambie,49.2485394,-123.1255618
Subway,3890 Oak St,Sandwiches,South Cambie,49.25094379999999,-123.1270301
City1Cafe,954 West King Edward Ave.,Malay,South Cambie,49.2483912,-123.1254967
Kim Express,952 W King Edward Ave,Vietnamese,South Cambie,49.2485223,-123.1254486
Mandarin Hong Kong Cafe 文華餐廳,904 W King Edward Ave.,Cantonese,South Cambie,49.248413,-123.1251604
BC Women's Cafeteria,4500 Oak St,Cafeteria,South Cambie,49.2443788,-123.1241862
Morrison / Shy Café,4500 Oak Street,Café,South Cambie,49.2443788,-123.1241862
Xi Yan Restaurant 囍宴私房苹,#110-5701 Granville St.,Chinese,Kerrisdale,49.2339553,-123.1399271
Phnom Penh,244 E Georgia St,Asian,Strathcona,49.2783154,-123.0981947
Matchstick Coffee Roasters,213 E Georgia St,Café,Strathcona,49.2787121,-123.0992481
Railtown Cafe,397 Railway St,Café,Strathcona,49.2850495,-123.0954183
The Union,219 Union St,Gastropub,Strathcona,49.2777797,-123.0989601
Bao Bei,163 Keefer St,Chinese,Downtown,49.2796534,-123.1006157
Pizzeria Farina,915 Main St,Pizza,Downtown,49.2765892,-123.1000905
Oyster Express,296 Keefer Street,Seafood,Strathcona,49.2793021,-123.0973781
Kissa Tanto,263 East Pender St,Japanese,Strathcona,49.2806451,-123.0981172
Ask for Luigi,305 Alexander St,Italian,Strathcona,49.2842,-123.0977177
Finch’s Market,501 E Georgia St,Sandwiches,Strathcona,49.2787186,-123.0932563
Virtuous Pie,583 Main St,Pizza,Downtown,49.279734,-123.0999725
Cuchillo,261 Powell St,Latin American,Strathcona,49.2834276,-123.0981059
Pacific~Poke,625 Main Street,Poke Place,Downtown,49.2790547,-123.1000169
Bestie,105 E Pender St,German,Downtown,49.2804289,-123.1020179
Cadeaux Bakery,172 Powell St,Bakery,Downtown,49.2830853,-123.100481
LanaLou’s,362 Powell St,Diner,Strathcona,49.28302739999999,-123.0962677
DALINA,687 Main St,Café,Downtown,49.27876269999999,-123.1003603
Torafuku,958 Main Street,Asian,Strathcona,49.2758842,-123.09968
New Town Bakery & Restaurant,148 E Pender St,Chinese,Downtown,49.2803095,-123.1011943
Birds & The Beets,55 Powell St,Café,Downtown,49.2834553,-123.1028539
Dosanko,566 Powell St,Japanese,Strathcona,49.2828319,-123.0919338
Deacon's Corner,101 Main St,Diner,Downtown,49.2839947,-123.099882
Rhinofish,550 Main St,Noodles,Strathcona,49.279636,-123.0994299
Sardine Can,26 Powell,Tapas,Downtown,49.2830875,-123.1035221
Nicli Antica Pizzeria,62 E Cordova St,Pizza,Downtown,49.28217919999999,-123.1028313
Chinatown BBQ,130 E Pender St,Chinese,Downtown,49.28016,-123.1015139
Nelson the Seagull,315 Carrall St,Breakfast,Downtown,49.2821489,-123.1044755
La Mezcaleria (Gastown),68 E Cordova St,Mexican,Downtown,49.2821404,-123.1028426
Dixies BBQ,337 East Hastings Street,BBQ,Strathcona,49.2815544,-123.0966219
Mamie Taylor's,251 E Georgia St,American,Strathcona,49.2786841,-123.0980207
L’Abattoir,217 Carrall St,French,Downtown,49.2831234,-123.1044431
BAUHAUS,1 Cordova,German,Downtown,49.2826974,-123.1046195
Dunlevy Snackbar,433 Dunlevy Ave,Asian,Strathcona,49.28091999999999,-123.095595
HAVE Cafe,374 Powell St,Café,Strathcona,49.2830108,-123.0960445
Pidgin,350 Carrall St,Asian,Downtown,49.28188100000001,-123.104145
Calabash Bistro,428 Carrall St.,Caribbean,Downtown,49.28103369999999,-123.1041914
St Lawrence Restaurant,269 Powell St,French,Strathcona,49.2833058,-123.0979713
Rodney's,52 Powell St.,Seafood,Downtown,49.28304989999999,-123.1030463
Juke,180 Keefer Street,Fried Chicken,Downtown,49.2791047,-123.1007624
Gringo,27 Blood Alley Sq,Mexican,Downtown,49.2833607,-123.1053151
Lost + Found,33 W Hastings St,Café,Downtown,49.28186179999999,-123.1057791
Odo Sushi,82 Keefer Place,Japanese,Downtown,49.27941120000001,-123.1070016
The Old Spaghetti Factory,53 Water Street,Italian,Downtown,49.2837374,-123.1052117
Peckinpah BBQ,2 Water St,BBQ,Downtown,49.28333569999999,-123.1046377
Tuc Craft Kitchen,60 W Cordova St,Gastropub,Downtown,49.2826445,-123.1060592
The Brixton,212 E Georgia St,Café,Strathcona,49.278422,-123.0991391
Local Gastown,3 Alexander St,New American,Downtown,49.2836149,-123.1040021
Say Hey Cafe,156 E Pender St,Sandwiches,Downtown,49.2801715,-123.1010566
Campagnolo,1020 Main St,Italian,Strathcona,49.2754049,-123.0997124
HiFive,22 East Cordova,Sandwiches,Downtown,49.2822651,-123.1036529
Hanoi Pho,404 E Hastings St,Vietnamese,Strathcona,49.2810808,-123.0952401
Moltaqa,51 W Hastings,Moroccan,Downtown,49.28200229999999,-123.1064116
Ba Le,638 Main St.,Sandwiches,Strathcona,49.2787738,-123.0995718
Six Acres,203 Carrall St,Gastropub,Downtown,49.283339,-123.1044456
Goldstone Bakery & Restaurant,139 Keefer St.,Chinese,Downtown,49.2797519,-123.1009488
Save On Meats,43 Hastings St W,Diner,Downtown,49.2820917,-123.1059682
Coquille,181 Carall Street,Seafood,Downtown,49.28378619999999,-123.1044645
Save On Meats Pop Up,1 W Cordova St,Diner,Downtown,49.2826974,-123.1046195
Golden Garden Vietnamese Cuisine,509 Main St,Vietnamese,Downtown,49.2801171,-123.1001592
The Ramen Butcher,223 E Georgia St,Noodles,Strathcona,49.2786667,-123.0987197
Hogan's Alley Cafe,789 Gore Ave,Café,Strathcona,49.2777421,-123.0971616
Kobob Burger,1019 Main St,Korean,Downtown,49.2754652,-123.1001595
The Irish Heather,212 Carrall St,Irish,Downtown,49.28284009999999,-123.1041375
Congee Noodle Delight,88 W Pender St,Chinese,Downtown,49.2804064,-123.1069714
Gain Wah Restaurant,218 Keefer Street,Chinese,Strathcona,49.2793717,-123.0989354
Hakone Sushi,82 Keefer St.,Japanese,Downtown,49.2792432,-123.1044569
Prado Cafe,117 Water St,Café,Downtown,49.2841362,-123.1069093
Bali Thai,88 w. Pender st,Indonesian,Downtown,49.2804064,-123.1069714
Dubh Linn Gate Irish Pub,1601 Main St,Irish,Mount Pleasant,49.2714055,-123.1008655
Subway,846 Powell Street,Sandwiches,Strathcona,49.28265469999999,-123.0858096
Railtown Cafe,1691 Main St,Café,Mount Pleasant,49.2703869,-123.1013086
Bodega on Main,1014 Main St,Tapas,Strathcona,49.275431,-123.0993791
Tina Vietnamese,88 W Pender,Vietnamese,Downtown,49.2804064,-123.1069714
Take Five Cafe Gastown,62 W Cordova St.,Café,Downtown,49.2826806,-123.1061775
A&W,1150 Station Street,Fast Food,Strathcona,49.2737759,-123.097836
Greenhorn Cafe,994 Nicola St,Café,West End,49.2866291,-123.1340403
Cardero Bottega,1016 Cardero St.,Sandwiches,West End,49.28701539999999,-123.1357669
COBS Bread,140-1160 Davie St.,Bakery,West End,49.28120639999999,-123.1327779
Banana Leaf On Denman,1096 Denman St.,Asian,West End,49.2882994,-123.1400574
Ramen Danbo,1333 Robson Street,Japanese,West End,49.28749579999999,-123.1289339
Miko Sushi,1335 Robson St,Japanese,West End,49.2875451,-123.1289933
Cactus Club Cafe,1790 Beach Ave,New American,West End,49.2867391,-123.142725
España Restaurant,1118 Denman St.,Spanish,West End,49.2880552,-123.1404114
Peaked Pies,975 Denman St,Comfort Food,West End,49.2896992,-123.1384286
Guu with Garlic,1698 Robson St,Japanese,West End,49.2902019,-123.133953
Kingyo Izakaya 金魚居酒屋,871 Denman St,Japanese,West End,49.2906302,-123.1370603
Sura,1518 Robson St,Korean,West End,49.2888077,-123.131828
Hokkaido Ramen Santouka,1690 Robson St,Japanese,West End,49.2901852,-123.1339645
Baoguette Vietnamese Bistro,104 - 1184 Denman St,Vietnamese,West End,49.2872573,-123.1412277
Donair Dude,1172 Davie St.,Falafel,West End,49.2813704,-123.1329526
Takis Taverna,1106 Davie St,Greek,West End,49.2805364,-123.1316731
Tavola,1829 Robson St,Italian,West End,49.2919048,-123.1356847
Won More Szechuan Cuisine,201 - 1184 Denman St.,Szechuan,West End,49.2918741,-123.1346369
Marutama Ra-men,780 Bidwell St,Japanese,West End,49.2905691,-123.1333952
Horin Ramen + Sake,1226 Robson St,Japanese,West End,49.2861973,-123.1275046
Stepho's Souvlaki Greek Taverna,1124 Davie St.,Greek,West End,49.2806316,-123.1321013
Stepho's Souvlaki Greek Taverna,1359 Robson St,Greek,West End,49.287752,-123.129254
Legendary Noodle,1074 Denman St,Noodles,West End,49.2884818,-123.1397769
Ma Dang Goul,847 Denman St.,Korean,West End,49.2909695,-123.1364999
Davie Dosa Company,1235 Davie St,South Indian,West End,49.282163,-123.133735
Buckstop,833 Denman,BBQ,West End,49.2910804,-123.1364574
Babylon Cafe,105-1610 Robson St,Middle Eastern,West End,49.2895386,-123.132799
Baguette & Co,1102 Davie St.,Bakery,West End,49.280445,-123.1315288
Kosoo Restaurant,832 Cardero Street,Korean,West End,49.2890947,-123.1326326
Joe's Grill,1031 Davie St.,Diner,West End,49.2797502,-123.1299447
Dinesty Chinese Restaurant,1719 Robson St.,Shanghai,West End,49.2907799,-123.1340727
Saku,1773 Robson street,Japanese,West End,49.2913126,-123.1348901
Sushi Bar Maumi,1226 Bute St,Japanese,West End,49.2813645,-123.1336464
Chez Cora - Breakfast and Lunch,1368 Robson Street,Breakfast,West End,49.2875008,-123.1297495
Cazba restaurant,1103 Davie St,Middle Eastern,West End,49.28067799999999,-123.1311
Earls,1185 Robson St,American,West End,49.2859397,-123.1263654
Joe's Grill,948 Denman St,Breakfast,West End,49.289889,-123.1376668
Pho Goodness,1183 Davie St,Vietnamese,West End,49.2816951,-123.1327991
Zefferelli's Spaghetti Joint,1136 Robson St,Italian,West End,49.28502719999999,-123.126053
Molli Cafe,1225 Burrard St.,Mexican,West End,49.2787827,-123.1299875
Melriches Coffee House,1244 Davie St,Café,West End,49.2822726,-123.1343617
Sushi Sky,1226 Bute St.,Japanese,West End,49.2813645,-123.1336464
Tartine Bread & Pies,1069 Davie St,Bakery,West End,49.28023959999999,-123.1307065
Number e food,1308 Burrard St,Sandwiches,Downtown,49.2777097,-123.1309215
Banana Leaf,1043 Davie Street,Malay,West End,49.2799227,-123.1302489
Cardero's Restaurant,1583 Coal Harbour Quay,Seafood,Downtown,49.2916101,-123.1274816
Nook,781 Denman Street,Italian,West End,49.29173650000001,-123.1353449
Simba's Grill,825 Denman St.,African,West End,49.29117369999999,-123.1363059
Japadog,899 Burrard St.,Food Truck,West End,49.2822782,-123.1247563
A Taste of India,1282 Robson Street,Indian,West End,49.2866919,-123.1283441
Breka Bakery & Cafe,855 Davie St,Bakery,Downtown,49.2784376,-123.1278992
Le Tigre,Alberni Street,Food Truck,West End,49.28926509999999,-123.1298563
Samurai Japanese Restaurant,1108 Davie St,Japanese,West End,49.2805439,-123.1317481
Red Umbrella Cafe,1707 Davie Street,Café,West End,49.286402,-123.1403028
Ginger Garlic,Davie,Indian,West End,49.2803931,-123.1311967
Yogi Korean Snack Bar,1706 Robson St.,Snacks,West End,49.2904875,-123.1342473
Belachan Kitchen,1128 Robson St,Malay,West End,49.2850028,-123.1258737
Guu Garden,M101 - 888 Nelson St,Japanese,Downtown,49.2800364,-123.1252786
Vij's Railway Express,1075 W Georgia St,Food Truck,Downtown,49.28577860000001,-123.1221398
Los Amigos Taqueria,1118 Davie St.,Mexican,West End,49.2805803,-123.1319161
Zakkushi Charcoal Grill,823 Denman St,Japanese,West End,49.2912037,-123.1362474
Yui Japanese Bistro,102-1185 W Georgia St,Japanese,Downtown,49.287177,-123.124666
Tetsu Sushi Bar,775 Denman street,Japanese,West End,49.2918295,-123.1352117
PINK Elephant THAI,1152 Alberni,Thai,West End,49.2859529,-123.1252287
Sushi Coen,1306 Burrard St.,Japanese,Downtown,49.2777307,-123.1308646
Thai Basil Restaurant,1215 Thurlow Street,Thai,West End,49.28029730000001,-123.1315906
Mary’s On Davie,1202 Davie Street,Diner,West End,49.2817883,-123.1335975
Patterson Chinese Restaurant,917 Davie Street,Chinese,Downtown,49.2787832,-123.1282499
Gurkha Himalayan Kitchen,1141 Davie St,Himalayan,West End,49.2811653,-123.1320997
Ukrainian Village,815 Denman St,Eastern European,West End,49.2914077,-123.1358246
Falafel King,1110 Denman St.,Falafel,West End,49.288146,-123.140288
Nando's,828 Davie St.,Portuguese,Downtown,49.2778637,-123.1276568
Vera's Burger Shack,1030 Davie Street,Burgers,West End,49.2794934,-123.13008
Cafe Phin,976 Denman St,Vietnamese,West End,49.28954969999999,-123.1380672
Sun Bo Kong,1363 Kingsway,Vegetarian,Kensington-Cedar Cottage,49.250878,-123.0769121
House of Dosas,1391 Kingsway,Indian,Kensington-Cedar Cottage,49.250466,-123.0763303
Commercial Street Cafe,3599 Commercial St,Café,Kensington-Cedar Cottage,49.2526241,-123.0682933
Pink Peppercorn Seafood House,1486 Kingsway St,Seafood,Kensington-Cedar Cottage,49.2489809,-123.0739238
Green Lettuce Restaurant,1949 Kingsway,Chinese,Kensington-Cedar Cottage,49.2457947,-123.0659378
Tung Hing Bakery,1196 Kingsway,Vietnamese,Kensington-Cedar Cottage,49.25196330000001,-123.0801494
My Chau,1715 kingsway,Vietnamese,Kensington-Cedar Cottage,49.2472777,-123.0693067
Po Kong,1334 Kingsway,Vegetarian,Kensington-Cedar Cottage,49.2505555,-123.0773747
Chau Veggie Express,5052 Victoria Dr,Vegetarian,Kensington-Cedar Cottage,49.2385526,-123.0651974
Amay’s House,5076 Victoria Dr,Asian,Kensington-Cedar Cottage,49.23833800000001,-123.0650596
Pho Thai Hang,1962 Kingsway,Vietnamese,Kensington-Cedar Cottage,49.2452153,-123.0657358
The Tipper,2066 Kingsway,American,Kensington-Cedar Cottage,49.2444802,-123.0644541
Hai Phong,1246 Kingsway,Vietnamese,Kensington-Cedar Cottage,49.2511628,-123.0790452
White Spot,1476 Kingsway,Burgers,Kensington-Cedar Cottage,49.2489856,-123.0742081
Sushi By Yuji,2252 Kingsway,Japanese,Kensington-Cedar Cottage,49.2424827,-123.0598354
Hoang Yen,5338 Victoria Dr.,Vietnamese,Kensington-Cedar Cottage,49.2364522,-123.0652317
Aree Thai,1150 Kingsway,Thai,Kensington-Cedar Cottage,49.2524171,-123.0810365
Banh Mi Saigon,5397 Victoria Drive,Vietnamese,Kensington-Cedar Cottage,49.235361,-123.0657601
Bandidas Taqueria,2781 Commercial Dr,Vegetarian,Kensington-Cedar Cottage,49.259773,-123.0700275
Mogu: Japanese Street Eats,Howe Street,Food Truck,Downtown,49.2807469,-123.1227452
Adelitas Mexican Food,4180 Victoria Dr,Mexican,Kensington-Cedar Cottage,49.2478543,-123.0647838
Pho Thái Hòa,1625 Kingsway,Vietnamese,Kensington-Cedar Cottage,49.2481213,-123.071125
Sal y Limón,701 Kingsway,Mexican,Mount Pleasant,49.2567896,-123.089226
BKH Jerky,3201 Fraser St.,BBQ,Riley Park,49.2562552,-123.0902646
Hoi An,5002 Victoria Dr,Vietnamese,Kensington-Cedar Cottage,49.2388048,-123.0651262
Ba Le French Sandwiches (Banh Mi),701 Kingsway Ave.,Vietnamese,Mount Pleasant,49.2567896,-123.089226
Bakery Sate,2879 Commercial Drive,Bakery,Kensington-Cedar Cottage,49.2589765,-123.0700724
Hapag Ihaw Ihaw,5432 Victoria Dr,Filipino,Kensington-Cedar Cottage,49.2355374,-123.0652908
El Caracol Mexican Cafe,5190 victoria drive,Mexican,Kensington-Cedar Cottage,49.2375504,-123.065129
Green Lemongrass,1086 Kingsway,Vietnamese,Kensington-Cedar Cottage,49.2529471,-123.0822846
Kings Cafe,2223 Kingsway,Café,Kensington-Cedar Cottage,49.2430909,-123.0603443
Duffin's Donuts,1391 E 41st Ave.,Donuts,Kensington-Cedar Cottage,49.2329912,-123.0776955
Golden Eats Seafood Restaurant,2141 Kingsway,Cantonese,Kensington-Cedar Cottage,49.244215,-123.062803
Church's Chicken,2504 Kingsway,Fried Chicken,Renfrew-Collingwood,49.2399881,-123.0547464
De Dutch Pannekoek House,4003 Knight Street,Breakfast,Kensington-Cedar Cottage,49.2488652,-123.0766036
Western Lake Chinese Restaurant,4989 Victoria Drive,Chinese,Kensington-Cedar Cottage,49.239343,-123.0655693
Seoul Doogbaegi House,1031 Kingsway,Korean,Kensington-Cedar Cottage,49.2537375,-123.0830987
Szechuan Chongqing Restaurant,2808 Commercial Drive,Chinese,Kensington-Cedar Cottage,49.2593024,-123.0695171
Kalvin's Szechuan Restaurant,5225 Victoria Dr,Chinese,Kensington-Cedar Cottage,49.2372789,-123.0656188
Cedar Cottage Pub,1261 Kingsway,American,Kensington-Cedar Cottage,49.2516836,-123.0786553
Vegan Pizza House,2119 Kingsway,Pizza,Kensington-Cedar Cottage,49.2443956,-123.0631994
Truong Thanh,2096 kingsway,Vietnamese,Kensington-Cedar Cottage,49.24435980000001,-123.0641388
Subway,1773 Kingsway,Sandwiches,Kensington-Cedar Cottage,49.246797,-123.0682872
SweetSalt Baked Goods & Playscapes,3497 Fraser Street,Bakery,Riley Park,49.25385,-123.0902492
Veggiebowl,2222 Kingsway,Vegetarian,Kensington-Cedar Cottage,49.2428328,-123.0605746
Banner's Restaurant,1680 E. 12th Ave,Diner,Kensington-Cedar Cottage,49.2592806,-123.0702968
Sandy La Chinese Restaurant,5257 Victoria Dr.,Chinese,Kensington-Cedar Cottage,49.2370473,-123.0656135
Deutsches Haus,4875 Victoria Drive,German,Kensington-Cedar Cottage,49.24050039999999,-123.0656204
Dai Tung 大同,#108 - 1050 Kingsway,Chinese,Kensington-Cedar Cottage,49.2531346,-123.0830035
Lam Hoa Quan,5073 Victoria Drive,Vietnamese,Kensington-Cedar Cottage,49.2386698,-123.0655885
BT Cafe,920 Kingsway,Chinese,Kensington-Cedar Cottage,49.2542716,-123.0851632
Happy Family Restaurant,2178 Kingsway,Chinese,Kensington-Cedar Cottage,49.2435351,-123.0624268
Mui Ngo Gai,2052 Kingsway,Vietnamese,Kensington-Cedar Cottage,49.2445738,-123.0645772
Hoy's Won Ton House,1202 Kingsway,Chinese,Kensington-Cedar Cottage,49.2516103,-123.0796002
Kyle's Cafe,2627 Commercial Drive,Chinese,Kensington-Cedar Cottage,49.2609735,-123.0700354
Kawa Sushi,5088 Victoria Drive,Japanese,Kensington-Cedar Cottage,49.2382751,-123.0652076
Oka-San,3578 Fraser st,Japanese,Kensington-Cedar Cottage,49.2531662,-123.0896209
Ken's Chinese Restaurant,1097 kingsway,Chinese,Kensington-Cedar Cottage,49.2534996,-123.0821913
Xu Hue,2226 kingsway,Vietnamese,Kensington-Cedar Cottage,49.2427614,-123.0604391
Come Along Seafood Restaurant,2550 Kingsway,Chinese,Renfrew-Collingwood,49.2393614,-123.0531504
Golden Swan Restaurant,5380 Victoria Street,Chinese,Kensington-Cedar Cottage,49.2361564,-123.0650787
Naruto Sushi,2763 Commercial Drive,Japanese,Kensington-Cedar Cottage,49.2599555,-123.0700561
Pho Hoa,2257 Kingsway,Vietnamese,Kensington-Cedar Cottage,49.2426317,-123.0592661
Fatty Cow Seafood Hot Pot 小肥牛火鍋專門店,5108 Victoria Drive,Chinese,Kensington-Cedar Cottage,49.2380136,-123.0651025
Bale Deli & bakery,25 kingsway,Bakery,Mount Pleasant,49.2640258,-123.1001869
Pho Long,3370 Fraser St.,Vietnamese,Kensington-Cedar Cottage,49.2549583,-123.0895353
Kent's Kitchen,5659 Victoria Dr,Asian,Kensington-Cedar Cottage,49.2331219,-123.0658535
Shima-Ya Japanese Restaurant,5589 Victoria Dr,Japanese,Kensington-Cedar Cottage,49.2337864,-123.0657079
Gojo Cafe,2838 Commercial Drive,African,Kensington-Cedar Cottage,49.2591178,-123.0695691
Circus Play Cafe,1650 East 12th Ave,Café,Kensington-Cedar Cottage,49.2593198,-123.0705747
Pho Hue,5497 Victoria Dr,Vietnamese,Kensington-Cedar Cottage,49.2346282,-123.0656954
Pho Thuan An,789 Kingsway,Vietnamese,Kensington-Cedar Cottage,49.2558079,-123.0875334
Kojak's,2763 Commercial Dr.,Fast Food,Kensington-Cedar Cottage,49.2599555,-123.0700561
Sushiyama,371 E Broadway,Japanese,Mount Pleasant,49.2630221,-123.0972043
Budgie’s Burritos,44 Kingsway,Mexican,Mount Pleasant,49.263639,-123.1004686
Fable Diner,151E E Broadway,Diner,Mount Pleasant,49.2630513,-123.101494
Tocador,2610 MAIN ST,Latin American,Mount Pleasant,49.2618238,-123.1007894
Chutney Villa,147 E Broadway,Indian,Mount Pleasant,49.2631923,-123.1018777
Carp,2516 Prince Edward Street,Japanese,Mount Pleasant,49.2623104,-123.095829
La Taqueria Pinche Taco Shop,2521 Main St,Mexican,Mount Pleasant,49.26251999999999,-123.101213
Rosemary Rocksalt,2515 Main St,Bagels,Mount Pleasant,49.262569,-123.1012809
Cartems Donuterie,2152 Main St,Donuts,Mount Pleasant,49.26563220000001,-123.1006577
Congee Noodle House 粥麵館 (Congee Noodle House),141 E Broadway,Chinese,Mount Pleasant,49.263084,-123.1020899
JJ's Trucketeria,Fraser Street,Food Truck,Riley Park,49.2365523,-123.090486
Burdock & Co.,2702 Main St,New American,Mount Pleasant,49.260986,-123.100708
Nirvana Indian Restaruant,2313 Main Street,Indian,Mount Pleasant,49.2643576,-123.1012003
Pure Bread,5 W 5th Ave,Bakery,Mount Pleasant,49.2666191,-123.1049088
The Whip,209 E 6th Ave,Breakfast,Mount Pleasant,49.26560869999999,-123.1001642
Ignite Pizzeria,Main Street,Pizza,Riley Park,49.2457108,-123.101237
Dock Lunch,152 E 11th Ave,Sandwiches,Mount Pleasant,49.2610262,-123.1018121
Sunny Spot Cafe 张记凉皮肉夹馍,2543 Main St,Noodles,Mount Pleasant,49.2622046,-123.1013597
Burgoo Bistro,3096 Main St.,Mac & Cheese,Mount Pleasant,49.2576348,-123.1008393
The Rumpus Room,2301 Main St,Diner,Mount Pleasant,49.2644412,-123.1011723
Cafe D'Afrique,363  E. Broadway,Ethiopian,Mount Pleasant,49.2630224,-123.0974793
Swiss Bakery,143 East 3rd Ave,Bakery,Mount Pleasant,49.2684773,-123.1016717
Nuba Café,146 E 3rd Ave,Middle Eastern,Mount Pleasant,49.2679671,-123.1017065
Peaceful Restaurant 和平饭店,43 E 5th Ave,Chinese,Mount Pleasant,49.2666437,-123.1037431
COBS Bread,2924 Main St,Bakery,Mount Pleasant,49.25887360000001,-123.1008093
Eight ½ Restaurant Lounge,151 E 8th Ave,Gastropub,Mount Pleasant,49.2638486,-123.1016578
Chicha,136 E Broadway,Peruvian,Mount Pleasant,49.26280509999999,-123.1021083
Osteria Savio Volpe,615 Kingsway,Italian,Mount Pleasant,49.2574913,-123.0909344
Kranky Cafe,228 E 4th Ave,Café,Mount Pleasant,49.2671303,-123.0998567
Martini's,151 Broadway W,Italian,Mount Pleasant,49.26322649999999,-123.1082126
Hime Sushi,315 E Broadway,Japanese,Mount Pleasant,49.263087,-123.09876
Thai Son,373 East Broadway's,Vietnamese,Mount Pleasant,49.2629861,-123.0967649
Los Cuervos Taqueria & Cantina,603 Kingsway,Mexican,Mount Pleasant,49.2574346,-123.0911227
Smith’s Bagelry,191 W. Broadway,Bagels,Mount Pleasant,49.2633243,-123.1090103
The Gluten Free Epicurean,633 E 15th Ave,Bakery,Mount Pleasant,49.2573055,-123.0905028
Tacofino Ocho,8 E 5th Avenue,Mexican,Mount Pleasant,49.2662163,-123.1044144
Les Faux Bourgeois,663 E 15th Ave,French,Mount Pleasant,49.2573518,-123.0896297
Pizzeria Barbarella,654 E Broadway,Pizza,Mount Pleasant,49.26233209999999,-123.0897482
Pho Goodness,3079 Main Street,Vietnamese,Mount Pleasant,49.2577224,-123.1014771
Tractor,1751 Quebec St,Salad,Mount Pleasant,49.26959490000001,-123.1029667
Modus Coffee,112 W Broadway,Café,Mount Pleasant,49.2629228,-123.1072618
Papa's Pizza,3030 Main Street,Pizza,Mount Pleasant,49.258249,-123.1008873
Emelle's Catering,177 W.7th Avenue,Bistro,Mount Pleasant,49.2649793,-123.1086642
Pho Linh,325 E Broadway,Vietnamese,Mount Pleasant,49.26296610000001,-123.0983789
The Wallflower,2420 Main St,Diner,Mount Pleasant,49.2635552,-123.1007275
Fife Bakery,64 East 3rd Avenue,Bakery,Mount Pleasant,49.26803630000001,-123.1032466
Anna's Cake House,606 East Broadway,Bakery,Mount Pleasant,49.26221229999999,-123.0907685
Kwong Chow Congee & Noodle House,3163 Main St.,Noodles,Mount Pleasant,49.2570141,-123.1014822
Caffé Rustico,3136 Main St.,Café,Mount Pleasant,49.25690050000001,-123.1009365
Fassil,736 East Broadway,Ethiopian,Mount Pleasant,49.2622223,-123.0882139
The Lions Den Cafe,651 E 15th Ave,Caribbean,Mount Pleasant,49.2574057,-123.0899468
Terra Breads False Creek,53 West 5th Ave,Café,Mount Pleasant,49.266649,-123.1060452
Caffé Barney,2526 Main St,Breakfast,Mount Pleasant,49.2624998,-123.100769
Como Taperia,201 E 7th Ave,Tapas,Mount Pleasant,49.2647398,-123.1006238
Subway,36-96 E Broadway,Sandwiches,Mount Pleasant,49.2628656,-123.1039739
Argo Cafe,1836 Ontario St.,Diner,Mount Pleasant,49.268574,-123.104545
The Black Lodge,630 Kingsway,Vegetarian,Mount Pleasant,49.25703190000001,-123.0910924
Bonchaz Bakery Cafe,189 E Broadway,Bakery,Mount Pleasant,49.2630872,-123.1013081
Great Han Mongolian BBQ,3043 Main Street,Asian,Mount Pleasant,49.2579913,-123.1014181
Marutama Gaiden,2858 Main Street,Japanese,Mount Pleasant,49.25955829999999,-123.100899
Subway,"2827 Main Street, Unit 3",Sandwiches,Mount Pleasant,49.259896,-123.1013984
Lucy's Eastside Diner,2708 Main St,Diner,Mount Pleasant,49.2608828,-123.1008169
Subway,8-615 E Broadway,Sandwiches,Mount Pleasant,49.2628334,-123.1047497
Vera's Burger Shack,2922 Main Street,Burgers,Mount Pleasant,49.2589048,-123.1008504
Josephine's Restaurant,2650 Main Street,Asian,Mount Pleasant,49.2613256,-123.1008031
Toko Restaurant,223 W 7th Ave.,Chinese,Mount Pleasant,49.2650339,-123.1101477
Pleasant Beans,39 Kingsway,Café,Mount Pleasant,49.2639097,-123.1000823
Best Burrito,15 W. Broadway,Mexican,Mount Pleasant,49.26317299999999,-123.1053799
BNS Cafe,691 East Broadway,Café,Mount Pleasant,49.2626746,-123.0894313
Indochine Kitchen,1 East Broadway,Asian,Mount Pleasant,49.2631601,-123.1046852
Gigi's Pizza & Spaghetti House,189 Broadway W,Pizza,Mount Pleasant,49.263283,-123.1088971
Manna Sushi,6 East 2nd Ave,Japanese,Mount Pleasant,49.2690952,-123.1044923
Fatburger,255 West Broadway,Burgers,Mount Pleasant,49.26330129999999,-123.1106659
Mangia Cucina & Bar,2211 Manitoba St,Pizza,Mount Pleasant,49.265396,-123.1069483
Our Place Cafe,2205 Manitoba,Café,Mount Pleasant,49.265419,-123.1070043
Ba Le,691 E Broadway,Vietnamese,Mount Pleasant,49.2626746,-123.0894313
Cazba Food Truck,Granville St.,Food Truck,Shaughnessy,49.2454569,-123.1392135
Pho Nha Trang,720 E Broadway,Vietnamese,Mount Pleasant,49.2622138,-123.0885161
Laura's Coffee Shop,1945 Manitoba St.,Diner,Mount Pleasant,49.2675473,-123.106822
Hon's Wonton House,25 E 2nd Ave,Asian,Mount Pleasant,49.2695381,-123.1041682
Pop Up Pizza,646 Kingsway,Pizza,Mount Pleasant,49.256925,-123.0908729
Pho Quynh Express,91 West 2nd Avenue,Vietnamese,Mount Pleasant,49.2694323,-123.1062533
Jinya Express Ramen,153 W 4th Ave,Japanese,Kitsilano,49.2685059,-123.177719
Rouge Bistro,91 W 2nd Ave,Bistro,Mount Pleasant,49.2694323,-123.1062533
Sushi Mura,6485 Oak St,Japanese,Oakridge,49.2268452,-123.1287853
A&W,6491 Oak Street,Fast Food,Oakridge,49.22676269999999,-123.1289195
Samurai Sushi House,5888 Cambie St.,Japanese,Oakridge,49.2318904,-123.1159603
Subway,6471 Oak St,Sandwiches,Oakridge,49.2269357,-123.128909
Togo Sushi,423-650 W 41st Ave,Japanese,Riley Park,49.2337526,-123.1147325
Peninsula Seafood Restaurant,"650 West 41st Ave Vancouver, BC V5Z2M9",Cantonese,Oakridge,49.2319166,-123.1179691
A&W,650 - 41st Ave W,Fast Food,Oakridge,49.2320456,-123.1186835
Phò Hōa,1011 W 49th Ave,Vietnamese,Oakridge,49.2270157,-123.1288733
Taco Luis,650 West 41,Mexican,Oakridge,49.2320456,-123.1186835
KFC,650 West 41st Avenue,Fast Food,Oakridge,49.2320456,-123.1186835
Saint Germain Bakery,650 West 41st Ave,Bakery,Oakridge,49.2320456,-123.1186835
Domino's Pizza,6469 Oak St,Pizza,Oakridge,49.2269997,-123.1287524
Oakridge Centre Food Court,650 West 41st Ave.,Food Court,Oakridge,49.2320456,-123.1186835
Kernels Popcorn,Oakridge Mall,Snacks,Oakridge,49.2320488,-123.1186817
Mmmuffins,Oakridge,Bakery,Oakridge,49.2260954,-123.1165881
Curry Express,650 W 41st Ave,Indian,Oakridge,49.2320456,-123.1186835
Shi Art Express,F7-650 W 41st Ave,Chinese,Oakridge,49.2320456,-123.1186835
Vina Vietnamese,655 W 41st Ave,Vietnamese,South Cambie,49.2338739,-123.1196898
Nava,950 W 41st Ave,Café,Oakridge,49.23344280000001,-123.1267225
Ragazzi Pizza,2996 E. 22nd Ave.,Pizza,Renfrew-Collingwood,49.25041119999999,-123.041782
Banana Grove Market & Deli,2705 E. 22nd Ave.,Deli,Renfrew-Collingwood,49.2508755,-123.0493409
Jambo Grill,3219 Kingsway,Indian,Renfrew-Collingwood,49.2349448,-123.0371593
Chili Pepper House,#1 - 3003 Kingsway,Asian,Renfrew-Collingwood,49.2362021,-123.041154
Joojak Restaurant 朱雀坊,3337 Kingsway,Asian,Renfrew-Collingwood,49.2336784,-123.0345324
Sushiholic,3311 East Broadway,Japanese,Hastings-Sunrise,49.262059,-123.0332862
Andamiro Korean Bistro,2568 Kingsway,Asian,Renfrew-Collingwood,49.2392139,-123.0528253
Wang's Shanghai Cuisine,110-3328 Kingsway,Shanghai,Killarney,49.2331241,-123.0344459
Kimu Japanese Cuisine,4441 Boundary Rd,Japanese,Renfrew-Collingwood,49.2449191,-123.024194
Penang Delight Cafe,3885 Rupert St,Malay,Renfrew-Collingwood,49.24988390000001,-123.0341413
Dario Italian Restaurant,3075 Slocan St,Italian,Renfrew-Collingwood,49.2564704,-123.0504383
Panaderia Latina,4906 Joyce St,Bakery,Renfrew-Collingwood,49.2397739,-123.030048
Wendy’s,3698 Grandview Highway,Fast Food,Renfrew-Collingwood,49.2577852,-123.0243352
Hyoga,#2 - 3343 Kingsway,Japanese,Renfrew-Collingwood,49.2336372,-123.0342988
Sushi Taku,4902 Joyce St,Japanese,Renfrew-Collingwood,49.2398062,-123.0299092
Cho Sun BBQ,3486 Kingsway,Korean,Killarney,49.2317416,-123.0303984
Pho Nhuan,2989 Rupert St,Vietnamese,Renfrew-Collingwood,49.2574592,-123.0341578
Off the Grid Waffles,2665 Kingsway,Café,Renfrew-Collingwood,49.2388328,-123.0510247
Top Cantonese Restaurant,2752 Kingsway,Chinese,Renfrew-Collingwood,49.2374664,-123.0494301
Super Great Pizza,3308 Vaness Ave,Pizza,Renfrew-Collingwood,49.2392379,-123.0345428
囍相逢 Happy Day Cafe (Happy Day Cafe),3312 Kingsway,Cantonese,Killarney,49.2335577,-123.0353925
Pizza Hut,2850 Grandview Highway,Pizza,Renfrew-Collingwood,49.2579325,-123.0459998
Triple O's,3505 Grandview Hwy.,Burgers,Renfrew-Collingwood,49.2584656,-123.0280866
Sunflower Bubble Tea,5125 Joyce St,Asian,Renfrew-Collingwood,49.2380697,-123.0323807
Subway,2892 Grandview Hwy,Sandwiches,Renfrew-Collingwood,49.2580275,-123.0449227
Subway,5218 Joyce St,Sandwiches,Renfrew-Collingwood,49.2372491,-123.0326258
McKim Wonton Mein Saga,2780 Kingsway,Chinese,Renfrew-Collingwood,49.2370618,-123.0483267
Prince Seafood Chinese Restaurant,2881 Grandview Hwy,Chinese,Renfrew-Collingwood,49.2584949,-123.0451062
Boston Pizza,2850 Bentall St,Pizza,Renfrew-Collingwood,49.2584746,-123.0306817
Freshslice Pizza,2-2889 Grandview Hwy,Pizza,Renfrew-Collingwood,49.258601,-123.04477
Congee Noodle King 粥麵軒,3133 Kingsway,Chinese,Renfrew-Collingwood,49.2355847,-123.0387856
Happy Valley Seafood Restaurant,3432 Lougheed Hwy,Chinese,Renfrew-Collingwood,49.2620924,-123.0296453
Gold Train Express,3320 Kingsway,Vietnamese,Killarney,49.2333626,-123.0348768
Bao Bakery,5115 Joyce St,Bakery,Renfrew-Collingwood,49.2381796,-123.0324466
Goto King,5183 Joyce St,Asian,Renfrew-Collingwood,49.2377471,-123.0326674
iSushi,3883 Rupert St,Japanese,Renfrew-Collingwood,49.2498859,-123.0341807
Lucky Plus,Rupert Street,Chinese,Renfrew-Collingwood,49.2479372,-123.0338846
Rose Garden,3415 Kingsway,Chinese,Renfrew-Collingwood,49.2324432,-123.0320058
Pizza by the Slice,3388 Vanness Ave,Pizza,Renfrew-Collingwood,49.2383461,-123.0323181
Donair Land,3384 Vanness Ave,Falafel,Renfrew-Collingwood,49.2384585,-123.032642
Cucina Manila,5179 Joyce St,Asian,Renfrew-Collingwood,49.2377809,-123.0326363
Mcgavins bread basket,Kingsway & slocan,Food,Renfrew-Collingwood,49.2400416,-123.0539837
Dragon House Restaurant,3293 Kingsway,Chinese,Renfrew-Collingwood,49.2344273,-123.0360543
品一品秘製香辣鍋 Chef Pin,3292 Kingsway,Szechuan,Killarney,49.23383399999999,-123.03582
Beijiang Restaurant,3281 Kingsway,Chinese,Renfrew-Collingwood,49.2344793,-123.036161
Domino's Pizza,5522 Joyce St,Pizza,Killarney,49.23344460000001,-123.0360016
Pine House Bread & Cake Shop,3396 Kingsway,Bakery,Killarney,49.2327319,-123.033529
So Hyang Korean Cuisine,6345 Fraser Street,Korean,Sunset,49.227,-123.0909235
Roots Cafe,6502 Main Street,Café,Sunset,49.2254629,-123.1012332
Deer Garden Signatures,6270 Fraser Street,Chinese,Sunset,49.2276714,-123.0903203
Ho Yuen Kee Restaurant,6236 Fraser St,Chinese,Sunset,49.22796030000001,-123.0903879
BAKER & TABLE Cafe,6414 Fraser St.,Bakery,Sunset,49.2263292,-123.0905774
Dosa Corner,8248 Fraser St.,Indian,Sunset,49.2097506,-123.0908287
Church's Chicken,5704 Fraser St,Fried Chicken,Sunset,49.232573,-123.0901219
All India Sweets & Restaurant,6507 Main St,Indian,Sunset,49.22553569999999,-123.1018538
Subway,6191 Fraser St,Sandwiches,Sunset,49.2284157,-123.0908629
89 Inn,6390 Fraser Street,Japanese,Sunset,49.2266159,-123.0904656
Pho Hong,6348 Fraser St.,Vietnamese,Sunset,49.2268627,-123.0903511
Subway,610 SE Marine Dr,Sandwiches,Sunset,49.2105361,-123.0926764
New Bhaia,5740 Fraser Street,Indian,Sunset,49.2324493,-123.0904074
Pinpin Restaurant,6113 Fraser St,Asian,Sunset,49.2289761,-123.0909249
Good Choice Restaurant,6007 Fraser Street,Chinese,Sunset,49.2299962,-123.0908133
Wendy’s,10 S E Marine Dr,Fast Food,Sunset,49.21188730000001,-123.1061557
Subway,7289 Knight Street,Sandwiches,Sunset,49.2183554,-123.0774499
Dockers Family Restaurant,6094 Fraser St,Diner,Sunset,49.2292835,-123.0904266
Yu Xiang Yuan,6591 Fraser St,Chinese,Sunset,49.2246746,-123.0910083
White Spot,1126 SE Marine Dr,Burgers,Sunset,49.2105107,-123.0833322
Pizza Hut,6082 Fraser Street,Pizza,Sunset,49.2293879,-123.0903305
Triple O's,196 SE Marine Dr,Burgers,Sunset,49.2108687,-123.102592
Subway,"350 SE Marine Dr, Unit #5",Sandwiches,Sunset,49.20915189999999,-123.1004858
Himalaya Restaurant,6587 Main Street,Indian,Sunset,49.2248792,-123.1018768
Kalai's Dosa Hut,7233 Fraser Street,South Indian,Sunset,49.21899370000001,-123.0911392
Saigon Fare Cafe,203 SE Marine Dr,Vietnamese,Sunset,49.2113019,-123.1018701
Taste Good Wonton Seafood Restaurant,620 SE Marine Dr,Chinese,Sunset,49.2105987,-123.092406
Sartaj Sweets & Restaurant,6665 Fraser street,Indian,Sunset,49.2239973,-123.0911232
Dhaliwal Sweets,6555 Fraser St,Indian,Sunset,49.224886,-123.091114
Best Quality Sweets & Restaurant,7260 Main St,Indian,Sunset,49.21879999999999,-123.101596
Tandoori King,8017 Fraser St.,Indian,Sunset,49.212444,-123.0914419
Tandoori Raj Restaurant,689 East 65 Avenue,Indian,Sunset,49.2119569,-123.0915718
Lian Hong Chinese Food & Bakery,6400 Fraser St,Chinese,Sunset,49.2264827,-123.0903596
Freshslice Pizza,6374 Fraser St,Pizza,Sunset,49.2266807,-123.0905333
Fraser BBQ & Fresh Meat,6340 Fraser St,BBQ,Sunset,49.2269313,-123.0904264
Angel Cake & Cafe,5995 Fraser St,Chinese,Sunset,49.2302215,-123.0908067
Indochine Kitchen + Bar,6231 Fraser Street,Asian,Sunset,49.2279744,-123.0910328
Kabab Hut,"219 East, 49th Avenue",Indian,Sunset,49.225753,-123.1012355
Gia Minh Restaurant,6181 Fraser Street,Vietnamese,Sunset,49.2285587,-123.0908461
Hometown Pizza,1408 57 Ave. E,Pizza,Victoria-Fraserview,49.2179351,-123.0767191
Moon Café,6181 Fraser St,Chinese,Sunset,49.2285587,-123.0908461
Wo's Chinese Restaurant,8166 Main St,Chinese,Sunset,49.21142099999999,-123.1017591
Tukasa Japanese Restaurant,8197 Main St,Japanese,Sunset,49.2114286,-123.1025054
Al Watan Tandoori,6804 Fraser St.,Indian,Sunset,49.22269439999999,-123.0908313
Quiznos,1306 SE Marine Drive,Sandwiches,Sunset,49.2106886,-123.0805584
Triple O's,100 W 49th Ave,Burgers,Oakridge,49.224025,-123.108032
Chicken World,1412 E 49th Ave,Fried Chicken,Victoria-Fraserview,49.2250473,-123.0768414
Papa Dave's pizza and indian cuisine,Knight St,Indian,Sunset,49.2141986,-123.0771115
Little Caesars Pizza,5927 Fraser St.,Pizza,Sunset,49.2307429,-123.0908638
Quiznos,100 W. 49th Ave,Sandwiches,Oakridge,49.224025,-123.108032
Wakame Sushi,5830 Fraser St.,Japanese,Sunset,49.231671,-123.0904117
Dewan-E-Khass,5750 Fraser St.,Indian,Sunset,49.23227300000001,-123.0903934
Pho Ngan,5744 Fraser St,Vietnamese,Sunset,49.232366,-123.090393
Camy's Pizza,5688 Fraser Street,Pizza,Kensington-Cedar Cottage,49.2331627,-123.0900096
KFC,6487 Knight Street,Fast Food,Sunset,49.2256662,-123.0778129
Takumi Japanese Restaurant,4422 W 10th Ave,Japanese,West Point Grey,49.26361439999999,-123.2067299
The Galley Patio & Grill,1300 Discovery Street,Burgers,West Point Grey,49.2756037,-123.2015089
Mix the Bakery,4430 W 10th Ave,Bakery,West Point Grey,49.26363800000001,-123.206997
Sun Sushi,4512 W 10th Ave.,Japanese,West Point Grey,49.26369589999999,-123.2095971
Hime Sushi,4480 W 10th Ave.,Japanese,West Point Grey,49.2636149,-123.2085421
Subway,4367 W 10th Ave,Sandwiches,West Point Grey,49.2639068,-123.2049784
Pizza Hut,4540 West 10th Avenue,Pizza,West Point Grey,49.2636288,-123.2103871
The Kitchen Homemade Korean Restaurant,2620 Sasamat street,Korean,West Point Grey,49.2634428,-123.2089752
Gold Train Express,4530 West 10th Ave,Vietnamese,West Point Grey,49.2636417,-123.2101416
Ginger and Chili,4423 West 10th Ave,Asian,West Point Grey,49.2639227,-123.2067629
T Room Bakery & Kitchenware,4445 West 10th Ave,Bakery,West Point Grey,49.2639742,-123.2074662
Dentry's Irish Grill,4450 West 10 Ave.,Irish,West Point Grey,49.26366110000001,-123.2076873
Thai Spicy,4530 W 10th St,Vietnamese,West Point Grey,49.2636417,-123.2101416
The Diner,4556 10th Ave W,Diner,West Point Grey,49.2636064,-123.2108682
Everyday Sushi,4572 W 10th Ave.,Japanese,West Point Grey,49.2637021,-123.211343
Candia Taverna,4510 W. 10th Ave.,Greek,West Point Grey,49.263669,-123.2095599
Locarno Beach Cafe,4445 NW Marine Dr,Café,West Point Grey,49.2751382,-123.2062934
Crépe Café,3500 W 41 Ave,Café,Dunbar-Southlands,49.2346206,-123.1822017
Red Tuna,3592 W 41st Ave,Japanese,Dunbar-Southlands,49.2345003,-123.1845455
Handi Cuisine of India,4432 Dunbar St.,Indian,Dunbar-Southlands,49.24679339999999,-123.1848907
Minerva's Pizza & Steakhouse,2411 41st ave,Italian,Arbutus-Ridge,49.23486579999999,-123.1615716
Sofra Mediterannean Kitchen,2277 W 41st Ave,Mediterranean,Arbutus-Ridge,49.2348041,-123.1591358
Subway,4490 Dunbar St,Sandwiches,Dunbar-Southlands,49.24629030000001,-123.1848153
Sushi Inn,4414 Dunbar St.,Japanese,Dunbar-Southlands,49.246963,-123.185055
Sushi Hachi,2255 W 41st Ave.,Japanese,Arbutus-Ridge,49.2348048,-123.1587418
Mexicali,4424 Dunbar St.,Mexican,Dunbar-Southlands,49.2468257,-123.1848584
Cosy Inn Café,4455 Dunbar St,Diner,Dunbar-Southlands,49.24656960000001,-123.1854609
Wild Sushi,4288 Dunbar St.,Japanese,Dunbar-Southlands,49.2483133,-123.1850191
Beantown Coffee House,Dunbar,Café,Dunbar-Southlands,49.249951,-123.185194
Asa Sushi,2178 West 41st Ave.,Japanese,Kerrisdale,49.234509,-123.1580221
Orange Corner Crepe House,2257 West 41st Avenue,Asian,Arbutus-Ridge,49.2347804,-123.1587608
Dunbar Pizza,3348 Dunbar St,Indian,Dunbar-Southlands,49.2570142,-123.1847986
41 Noodle & Rice Pot House,2279 West 41st Avenue,Cantonese,Arbutus-Ridge,49.2348021,-123.1591685
COBS Bread,2174 W 41st Ave,Bakery,Kerrisdale,49.2345035,-123.1578179
Ajisai Sushi Bar,2081 W 42nd Ave.,Japanese,Kerrisdale,49.233934,-123.1536816
Nando's,2064 W 41st Ave,Portuguese,Kerrisdale,49.2342436,-123.1540599
Golden Ocean Seafood Restaurant,2046 W 41 Ave.,Chinese,Kerrisdale,49.2343419,-123.1533765
Faubourg Bistro,2156 W 41st Ave,Café,Kerrisdale,49.2343768,-123.1574157
Pho Tan Vietnamese Beef Noodle Soup & Bubble Tea,2076 West 41st Ave.,Vietnamese,Kerrisdale,49.2344534,-123.1544022
BBT Cafe,5979 West Blvd,Chinese,Kerrisdale,49.2321709,-123.1558937
Ramen Jinya,2129 W 41st Ave,Noodles,Arbutus-Ridge,49.2348065,-123.1563953
Senova,1864 W. 57th Avenue,Spanish,Kerrisdale,49.2192004,-123.1493047
Subway,5623 West Boulevard,Sandwiches,Arbutus-Ridge,49.2351915,-123.1557238
Bean Around The World,1846 W 57th Ave,Café,Kerrisdale,49.21923280000001,-123.1492104
Modern City Chinese Restaurant,2106 West 41st Ave,Chinese,Kerrisdale,49.2344108,-123.1561078
Kerrisdale Kitchen,6055 West Blvd.,Chinese,Kerrisdale,49.23135,-123.1559366
Legato Tea & Coffee,2299 West 41st Ave,Café,Arbutus-Ridge,49.2347705,-123.159587
Lok's Chinese Restaurant,2436 West 41st Avenue,Chinese,Kerrisdale,49.234479,-123.1618424
My Cup,2098 W. 41st Ave,Snacks,Kerrisdale,49.234297,-123.1547419
Kerrisdale Nakamura,2055 W 41st Ave.,Japanese,Shaughnessy,49.2347027,-123.1535489
New Chongqing Restaurant,2044 W41st Ave,Chinese,Kerrisdale,49.2344122,-123.1533619
Sweet E's Pastries & Sweets,2032 W41 ave,Bakery,Kerrisdale,49.2343209,-123.1530873
Sushi King House,5333 West Blvd.,Japanese,Arbutus-Ridge,49.2378207,-123.1556788
Kinemi's Kitchen,7751 Champlain Crescent,Pizza,Killarney,49.2149295,-123.0304365
A&W,7092 Kerr Street,Fast Food,Killarney,49.2192674,-123.0408866
Romer's Burger Bar,8683 Kerr St,Burgers,Killarney,49.2058825,-123.0426519
Sushi Go,7026 Kerr St,Japanese,Killarney,49.2195921,-123.0410176
Subway,7172 Kerr Street,Sandwiches,Killarney,49.2189764,-123.040185
Subway,"3490 Kingsway Ave, #1",Sandwiches,Killarney,49.2317297,-123.0299525
54th Ave Restaurant,7088 Kerr St,Chinese,Killarney,49.2192575,-123.0411135
Max's Restaurant,3546 Kingsway,Filipino,Killarney,49.23195399999999,-123.0273921
Bubble Waffle Cafe,2639 East 49th Ave,Asian,Victoria-Fraserview,49.2255119,-123.053541
Wally's Burgers,2661 E 49th Ave,Burgers,Victoria-Fraserview,49.2253486,-123.0535419
Tasty Wok,7190 Kerr St,Chinese,Killarney,49.2188279,-123.0398271
Bonnie's Bread Bakery,7180 Kerr St,Bakery,Killarney,49.2188426,-123.039869
Mt. Fuji Japanese Restaurant,106 - 2607 E 49th Ave,Japanese,Victoria-Fraserview,49.2252764,-123.054468
Columbus Restaurant,2639 East 49th Avenue,Italian,Victoria-Fraserview,49.2255119,-123.053541
Sushi Mura,3545 Sawmill Cres.,Japanese,Killarney,49.2059612,-123.0299039
Pho Thai Ha,2653 E 49th Ave,Vietnamese,Victoria-Fraserview,49.225388,-123.053545
Wing Wah Bakery,2607 E 49th Av,Bakery,Victoria-Fraserview,49.22536119999999,-123.0544384
Papa John's Pizza,#300-3320 Kingsway,Pizza,Killarney,49.2333626,-123.0348768
The Only Cafe,2678 W 4th Ave,Café,Kitsilano,49.26809009999999,-123.1657071
Terra Breads,2380 W 4th Ave,Bakery,Kitsilano,49.26803899999999,-123.1592661
Raisu,2340 West 4th Ave.,Japanese,Kitsilano,49.26801649999999,-123.158373
Guanaco Salvadoran Cuisine food truck,Down town Vancouver,Food Truck,Downtown,49.281954,-123.1170744
Au Comptoir,2278 W 4th Ave,French,Kitsilano,49.2679582,-123.1570401
Maria's Taverna,W. 4th Ave,Greek,Kitsilano,49.2685059,-123.177719
The Naam Restaurant,2724 W 4th Ave,Vegetarian,Kitsilano,49.268152,-123.1670302
Burgoo Bistro,2272 W 4th Ave,Mac & Cheese,Kitsilano,49.2679804,-123.1568339
Linh Cafe,2836 West 4th Ave,Breakfast,Kitsilano,49.2682348,-123.1690502
Market Meats,2326 West 4th Ave,Deli,Kitsilano,49.26797080000001,-123.1581359
Chewie’s Biscuit Co,2822 W 4th Ave,Southern / Soul,Kitsilano,49.2682406,-123.1687859
Nat's New York Pizzeria,2684 West Broadway,Pizza,Kitsilano,49.2638609,-123.1659229
Sunshine Diner,2649 W Broadway,Diner,Kitsilano,49.2642347,-123.1654094
Mr. Red Cafe,2680 W. Broadway,Vietnamese,Kitsilano,49.2638617,-123.1658286
Sophie’s Cosmic Cafe,2095 W 4th Ave,American,Kitsilano,49.2682476,-123.1526039
Feastro,100-298 Thurlow St,Food Truck,Downtown,49.2888138,-123.1184011
Edible Flours,2280 W Broadway,Vegetarian,Kitsilano,49.2636572,-123.1566597
MAK N MING,1629 Yew Street,Asian,Kitsilano,49.2712175,-123.1551643
Parthenon Supermarket,3080 W Broadway,Greek,Kitsilano,49.2640197,-123.1735506
Nick Sushi,2953 West 4th Ave.,Japanese,Kitsilano,49.2685582,-123.1706353
Chewies Steam & Oyster Bar Kitsilano,2201 W 1st Ave,Seafood,Kitsilano,49.27097269999999,-123.1552829
COBS Bread,2320 West 4th Ave,Bakery,Kitsilano,49.2680397,-123.1579916
White Spot,2518 W Broadway,Burgers,Kitsilano,49.263791,-123.1632683
The Indian Oven,2006 W 4th Ave,Indian,Kitsilano,49.2678849,-123.1506642
Turf,W. 4th Avenue,Salad,Kitsilano,49.2685059,-123.177719
Their There,2042 W 4th Ave.,Bakery,Kitsilano,49.2679152,-123.1514302
Tera V Burger,2961 West Broadway,Vegetarian,Kitsilano,49.2642995,-123.1717091
Cartems Donuterie,3040 W Broadway,Donuts,Kitsilano,49.2640281,-123.1728983
Maenam,1938 W 4th Ave,Thai,Kitsilano,49.2678675,-123.1488949
Solly’s Bagelry,2873 W Broadway,Bagels,Kitsilano,49.2642882,-123.1697737
Nook,1525 Yew St.,Italian,Kitsilano,49.2722315,-123.155229
East is East,3243 W Broadway,Middle Eastern,Kitsilano,49.2643611,-123.1767176
Nelly's Grill,2061 4th Ave W,Breakfast,Kitsilano,49.2682215,-123.1518528
Fresh is Best,2972 W. Broadway Street,Mexican,Kitsilano,49.2639283,-123.1715746
La Cigale French Bistro,1961 W 4th Ave,French,Kitsilano,49.2682732,-123.1494515
Viva Fine Foods,1555 Yew St,Bakery,Kitsilano,49.272037,-123.1551658
Green Leaf,3416 West Broadway,Japanese,Kitsilano,49.264136,-123.180152
Romer's Burger Bar,1873 W 4th Ave,Burgers,Kitsilano,49.26827420000001,-123.1472529
Bistro Pastis,2153 W 4th Ave,French,Kitsilano,49.268274,-123.154001
Ramen Danbo,1833 W. 4th Ave.,Noodles,Kitsilano,49.2682861,-123.146425
Iki Japanese Restaurant,2756 W Broadway,Japanese,Kitsilano,49.26385459999999,-123.1674147
Nuba,3116 W Broadway,Middle Eastern,Kitsilano,49.2639376,-123.1745701
Sejuiced,1958 W 4th Ave.,Vegetarian,Kitsilano,49.2678865,-123.1492145
Rocky Mountain Flatbread Company,1876 West 1st Ave,Pizza,Kitsilano,49.2704812,-123.1472846
Blue Star Japanese Bistro,1935 W 4th Ave,Japanese,Kitsilano,49.2682575,-123.1488595
Local Kitsilano,2210 Cornwall Ave,New American,Kitsilano,49.27232490000001,-123.1553524
Tractor,1903 W 4th Ave,Café,Kitsilano,49.2682452,-123.1481382
Simpatico Greek Restaurant,2222 W 4th Ave,Greek,Kitsilano,49.2680623,-123.1558358
Al Basha,3143 W Broadway,Middle Eastern,Kitsilano,49.26431909999999,-123.1749915
Sushi Bella,2059 W 4th Ave.,Japanese,Kitsilano,49.268278,-123.1517448
Gypsy Rose Cafe,2017 4th Avenue West,Café,Kitsilano,49.2683163,-123.1508418
Notte's Bon Ton Pastry,3150 Broadway W,Bakery,Kitsilano,49.2639265,-123.1752229
Bangkok City Cafe,2-2953 W 4th Ave,Thai,Kitsilano,49.2681344,-123.1676349
Las Margaritas,1999 W 4th Ave,Mexican,Kitsilano,49.2683213,-123.1501626
Kibune Sushi,1508 Yew St,Japanese,Kitsilano,49.2723871,-123.1548029
Harvest Deli,2963 West Broadway,Deli,Kitsilano,49.2642872,-123.1717761
Yuwa Japanese Cuisine,2775 W 16th Ave,Japanese,Kitsilano,49.2579886,-123.1678342
Temaki Sushi,2-2156 W Broadway,Japanese,Mount Pleasant,49.2628186,-123.104995
Gyo Para Gyoza & Ramen Bar,2120 West Broadway,Japanese,Kitsilano,49.2637073,-123.1534552
Banana Leaf,3005 West Broadway,Malay,Kitsilano,49.2643597,-123.1723017
Pane from Heaven,1670 cypress street,Bakery,Kitsilano,49.2709603,-123.1476327
Cafe Zen,1631 Yew St,Breakfast,Kitsilano,49.2711495,-123.1551892
Octopus Garden,1995 Cornwall Avenue,Japanese,Kitsilano,49.27262990000001,-123.1498174
Noodlebox,1867 West 4th Avenue,Asian,Kitsilano,49.2683131,-123.1471669
Baguette & Co,3273 West Broadway,Bakery,Kitsilano,49.264415,-123.1772303
Mamalee,3144 W. Broadway,Malay,Kitsilano,49.26407440000001,-123.1750357
Lucky Taco,1635 Yew St,Mexican,Kitsilano,49.2711044,-123.1552032
Burrito Bros.,2209 W 1st Ave,Mexican,Kitsilano,49.2709401,-123.155482
Deacon's Corner,3189 W Broadway,Diner,Kitsilano,49.2643674,-123.1757517
Mr. Shawarma Cafe,1859 W 4th Ave.,Middle Eastern,Kitsilano,49.2683119,-123.1470673
Hitoe Sushi,3347 W 4th Ave.,Japanese,Kitsilano,49.26865429999999,-123.1787084
Thai Basil,3271 W Broadway,Thai,Kitsilano,49.2644159,-123.1772831
Akbar's Own Dining Lounge,1905 West Broadway,Indian,Kitsilano,49.2640234,-123.1484033
Trattoria Italian Kitchen,1850 W 4th Ave,Italian,Kitsilano,49.2678378,-123.1466983
Al Basha,1937 Cornwall Ave,Falafel,Kitsilano,49.2726108,-123.1485271
Juliet’s Café,1905 Cornwall Ave,Café,Kitsilano,49.2726708,-123.1481185
Panne Rizo,1939 Cornwall ave,Gluten-free,Kitsilano,49.2726649,-123.1486586
The Sushi Bar,1822 W 4th Ave.,Japanese,Kitsilano,49.267819,-123.1462231
Tandoori Fusion Indian Cusine,2872 West Broadway,Indian,Kitsilano,49.2639536,-123.169567
Blaq Sheep Coffee House,2959 W 4th Ave,Café,Kitsilano,49.2686552,-123.1708359
Uncle Fatih's Pizza,2778 W Broadway,Pizza,Kitsilano,49.2639585,-123.1677051
Strike,3217 West Broadway,Asian,Kitsilano,49.2643567,-123.1765489
Subway,"3090 W Broadway St, Unit 3",Sandwiches,Kitsilano,49.2640154,-123.1737889
Jolly's Indian Bistro,2928 West 4th Ave,Indian,Kitsilano,49.268272,-123.1707281
Olympia Pizza,3205 West Broadway,Greek,Kitsilano,49.2643345,-123.1760455
Subway,1-2801 West 16th Avenue,Sandwiches,Kitsilano,49.258004,-123.168589
The Boathouse Restaurant,1305 Arbutus St,Seafood,Kitsilano,49.2742939,-123.1536698
Pizza Hut,1829 West 4th Avenue,Pizza,Kitsilano,49.2682212,-123.1463332
Flying Wedge Pizza Co,1935 Cornwall Ave,Pizza,Kitsilano,49.2726111,-123.1485125
Kits Sushi,1518 Yew St.,Japanese,Kitsilano,49.27222709999999,-123.1548526
Lemonade Gluten Free Bakery,3385 Cambie St,Bakery,South Cambie,49.2552193,-123.1154132
Corduroy Pie Company,758 W16th Ave,Pizza,South Cambie,49.2569247,-123.1212866
BierCraft,3307 Cambie St.,Belgian,South Cambie,49.2558009,-123.1153763
Sorella,3369 Cambie Street,Italian,South Cambie,49.2553882,-123.1154401
Tandem Bike Cafe,3195 Heather St,Café,Fairview,49.2571248,-123.1202393
JJ Bean,3399 Cambie St.,Café,South Cambie,49.2551248,-123.115465
Dutch Wooden Shoe Cafe,3292 Cambie St.,Breakfast,Riley Park,49.2560013,-123.1148992
Hachibei,778 W. 16th Ave,Japanese,South Cambie,49.256928,-123.1215673
Pho Xe Lua 24,3346 Cambie St,Vietnamese,Riley Park,49.2554106,-123.1149547
New Town Bakery,3484 Cambie Street,Bakery,Riley Park,49.2542084,-123.1148856
Viet House,3420 Cambie St,Vietnamese,Riley Park,49.2546251,-123.1149973
Mimibuloveme,5556 Cambie St.,Café,Riley Park,49.2348617,-123.1158336
Las Tortas,3353 Cambie St,Mexican,South Cambie,49.2555349,-123.1153982
Café Gloucester 告羅士打餐廳,3338 Cambie St.,Chinese,Riley Park,49.2555333,-123.1147493
Tokyo John Sushi,3349 Cambie St.,Japanese,South Cambie,49.2555815,-123.11537
Trixi's Crepe & Coffeehaus,3306 Cambie St,Creperie,Riley Park,49.255692,-123.1149243
Wang's Beef Noodle House,3250 Cambie St,Chinese,Riley Park,49.256271,-123.1148358
Potluck Hawker Eatery,3424 Cambie Street,Malay,Riley Park,49.2545787,-123.1148931
Thai Away Home,3315 Cambie St,Thai,South Cambie,49.2557391,-123.1153778
Anna's Cake House (Cambie & 39th Ave),5510 Cambie St,Bakery,Riley Park,49.23521780000001,-123.1158082
Soho Sushi,789 West 16th Ave,Japanese,Fairview,49.2572176,-123.1215122
Huang's Beef Noodle House,6940 Victoria Drive,Noodles,Victoria-Fraserview,49.22084719999999,-123.0656879
Mui Garden Restaurant,5797 Victoria Dr.,Chinese,Victoria-Fraserview,49.2317383,-123.0657785
Tibisti Foods & Grill,6990 Victoria Dr.,Middle Eastern,Victoria-Fraserview,49.2204869,-123.0655142
Neighbour's Restaurant & Pizza House,6493 Victoria Dr,Pizza,Victoria-Fraserview,49.2254343,-123.0659526
Thai Son Restaurant,6447 Victoria Dr.,Vietnamese,Victoria-Fraserview,49.2257741,-123.0660876
The Soup House,5763 Victoria Dr.,Chinese,Victoria-Fraserview,49.2319791,-123.0659269
Nishiki Sushi,6501 Victoria Dr,Japanese,Victoria-Fraserview,49.2250574,-123.0659426
Church's Chicken,6471 Victoria Dr.,Fried Chicken,Victoria-Fraserview,49.2257118,-123.0660246
Victoria Restaurant,1088 Melville St,Café,Downtown,49.2853331,-123.1206795
Subway,6402 Victoria Drive,Sandwiches,Victoria-Fraserview,49.2261757,-123.0654783
Jun Yuan Restaurant,5728 Victoria Street,Hotpot,Victoria-Fraserview,49.2324182,-123.0652523
Pine House Bread & Cake House,5870 Victoria Dr.,Bakery,Victoria-Fraserview,49.230707,-123.0651918
Hei Lum Mun Seafood Restaurant 喜臨門海鮮酒家,5822 Victoria Dr,Asian,Victoria-Fraserview,49.2309756,-123.0652542
Li Garden Seafood Restaurant,5822 Victoria Dr.,Chinese,Victoria-Fraserview,49.2309756,-123.0652542
Bon Bon Bakery,5807 Victoria Drive,Bakery,Victoria-Fraserview,49.2316235,-123.0659286
Kim Phung,5764 Victoria Dr,Vietnamese,Victoria-Fraserview,49.2318753,-123.0653781
Pho Thai Hoa,5763 Victoria Dr,Vietnamese,Victoria-Fraserview,49.2319791,-123.0659269
Sushi Nara,5755 Victoria Dr.,Japanese,Victoria-Fraserview,49.2320912,-123.065792
Happy Sushi,5632 Victoria Drive,Japanese,Kensington-Cedar Cottage,49.2335229,-123.0653115
Benss Cafe,5628 Victoria Drive,Chinese,Kensington-Cedar Cottage,49.23358409999999,-123.0653705
