name,address,cuisine,lat,lng,region
41 Noodle & Rice Pot House,2279 W 41st Ave,Chinese,49.2348021,-123.1591685,Arbutus-Ridge
A&W,"4255 Arbutus Street, #104",Fast Food,49.2485248,-123.1540053,Arbutus-Ridge
Barra 41,2407 W 41st Ave,Bar,49.2347594,-123.1615035,Arbutus-Ridge
Bufala Kerrisdale,5395 West Blvd,Fast Food,49.2374814,-123.1556462,Arbutus-Ridge
China Lan Lanzhou Beef Noodle,5555 West Blvd,Noodle,49.2360333,-123.1557741,Arbutus-Ridge
Finest At Sea,4675 Arbutus St,Seafood,49.2444905,-123.1539172,Arbutus-Ridge
La Buca Restaurant,4025 Macdonald St,Italian,49.2506204,-123.1679983,Arbutus-Ridge
Legato Tea & Coffee,2299 West 41st Ave,Cafe,49.2347705,-123.159587,Arbutus-Ridge
Minerva Restaurant,2411 W 41st Ave,Greek,49.2348658,-123.1615716,Arbutus-Ridge
Moki's Pizza,4027 Macdonald St,Fast Food,49.2506063,-123.1680174,Arbutus-Ridge
Nana's Green Tea,2135 W 41st Ave,Japanese,49.2348484,-123.1565687,Arbutus-Ridge
Orange Corner,2257 W 41st Ave,Chinese,49.2347804,-123.1587608,Arbutus-Ridge
Ridge Garden Restaurant,4009 Macdonald St,Chinese,49.2508491,-123.1679997,Arbutus-Ridge
Seasons in the Park,West 33rd Avenue,Seafood,49.2421528,-123.1566311,Arbutus-Ridge
Shota Sushi & Grill,5688 Yew St,Japanese,49.2349524,-123.1575019,Arbutus-Ridge
Sip Bowl,2255 W 41st Ave,Noodle,49.2348048,-123.1587418,Arbutus-Ridge
Sofra Mediterranean Kitchen,2277 W 41st Ave,Lebanese,49.2348041,-123.1591358,Arbutus-Ridge
Subway,5623 West Blvd,Sandwich,49.2351915,-123.1557238,Arbutus-Ridge
Subway,4665 Arbutus Street,Sandwich,49.2439795,-123.1539879,Arbutus-Ridge
Subway,4665 Arbutus St,Sandwich,49.2439795,-123.1539879,Arbutus-Ridge
Sushi King House,5333 West Blvd,Japanese,49.2378207,-123.1556788,Arbutus-Ridge
The Patty Shop,4019 Macdonald St,Caribbean,49.2507667,-123.1680264,Arbutus-Ridge
White Spot Kerrisdale,5367 West Blvd,Family-friendly,49.2376685,-123.1556307,Arbutus-Ridge
ZUBU Ramen - Kerrisdale,2129 W 41st Ave,Japanese,49.2348065,-123.1563953,Arbutus-Ridge
24 Train Express Noodle House,550 Nelson St,Noodle,49.278306,-123.1218399,Downtown
49th Parallel & Lucky's Doughnuts,689 Thurlow,Donut,49.2860839,-123.1229468,Downtown
6 Degrees Eatery,1590 Coal Harbour Quay,Breakfast,49.2916482,-123.128495,Downtown
A&W Canada,1399 Main St #110,Fast Food,49.2731373,-123.10036,Downtown
A&W Canada,603 Dunsmuir St,Fast Food,49.2831921,-123.1154539,Downtown
A&W Canada,550 Bute St,Fast Food,49.2880603,-123.1236062,Downtown
Al Porto Ristorante,321 Water St,Italian,49.2846566,-123.1093607,Downtown
Ancora Waterfront Dining and Patio - False Creek,1600 Howe St #2,Seafood,49.2738114,-123.1325984,Downtown
Angus T,1036 Mainland Street,Café,49.2759375,-123.1197949,Downtown
Autostrada Osteria Downtown,350 W Pender St,Italian,49.2825512,-123.112021,Downtown
BAUHAUS,1 Cordova,German,49.2826974,-123.1046195,Downtown
Ba Le Sandwich Shop,633 Main St,Sandwich,49.2788545,-123.100179,Downtown
Bacchus Restaurant & Lounge,845 Hornby St,European,49.2823626,-123.1228112,Downtown
Baghdad Cafe,548 Seymour St.,Middle Eastern,49.2834649,-123.1144324,Downtown
Bao Bei,163 Keefer St,Chinese,49.2796534,-123.1006157,Downtown
Bar One,1088 Burrard St North Tower Lobby,Bar,49.2801681,-123.1271342,Downtown
Basil Pasta Bar,636 Davie St,Italian,49.2767546,-123.1259051,Downtown
Bellaggio Cafe,773 Hornby St,Italian,49.2829809,-123.1215702,Downtown
Bestie,105 E Pender St,German,49.2804289,-123.1020179,Downtown
Bibiko,530 Hornby St,Korean,49.2854132,-123.1172916,Downtown
Big Bowl Rice,505 Dunsmuir St,Chinese,49.2825233,-123.1145022,Downtown
Birds & The Beets,55 Powell St,Cafe,49.2834553,-123.1028539,Downtown
Bistro Sakana,1123 Mainland St,Japanese,49.2753816,-123.1211273,Downtown
Black Rice Izakaya,782 Cambie St,Japanese,49.2783603,-123.1142376,Downtown
Blarney Stone,216 Carrall St,Irish,49.282772,-123.1039827,Downtown
Blue Water Cafe,1095 Hamilton St,Seafood,49.276155,-123.1211291,Downtown
Boston Pizza,808 Beatty St,Fast Food,49.2771786,-123.1140883,Downtown
Boston Pizza,869 Hornby St,Fast Food,49.2818577,-123.1234686,Downtown
Botanist,1038 Canada Pl,Pacific Northwest,49.2880938,-123.1165232,Downtown
Breka Bakery & Cafe,855 Davie St,Café,49.2784376,-123.1278992,Downtown
Brioche Urban Eatery,401 W Cordova St,Italian,49.2842375,-123.1099282,Downtown
Browns Crafthouse Seymour St.,580 W Pender St,Grill,49.2837833,-123.1138739,Downtown
Brunch,1147 Granville St,Mexican,49.2778708,-123.1256128,Downtown
Burger King,612 W Pender St,Fast Food,49.2841199,-123.1142664,Downtown
Cactus Club Cafe,588 Burrard St,American,49.2854558,-123.118732,Downtown
Cadeaux Bakery,172 Powell St,Dessert,49.2830853,-123.100481,Downtown
Cafe Medina,780 Richards St,Brunch,49.280408,-123.1168648,Downtown
Caff√É¬® Artigiano,763 Hornby St,Cafe,49.2831088,-123.1214374,Downtown
Caf√É¬© One,1000 Burrard St,American,49.280314,-123.1264736,Downtown
Calabash Bistro,428 Carrall St.,Caribbean,49.2810337,-123.1041914,Downtown
Cardero's Restaurant,1583 Coal Harbour Quay,Seafood,49.2916101,-123.1274816,Downtown
Cartems Donuterie,534 W Pender St,Donut,49.2835993,-123.113811,Downtown
Catch 122 Cafe Bistro,122 W Hastings St,Bistro,49.2818442,-123.1081617,Downtown
Catfe,UNIT #2035 √¢¬Ä¬ì SECOND FLOOR INTERNATIONAL VILLAGE MALL 88 W Pender St,Cafe,49.2799755,-123.1071426,Downtown
Chambar,568 Beatty St,Belgian,49.2801598,-123.109912,Downtown
Chancho Tortilleria,560 Davie St,Mexican,49.2761398,-123.1249744,Downtown
Chang'An,1661 Granville St,Chinese,49.273313,-123.1326809,Downtown
Charisma Cafe & Dessert House,197 Keefer Pl,Dessert,49.2799406,-123.1087145,Downtown
Chewies Steam & Oyster Bar - Coal Harbour,1055 W Hastings St,Bar,49.2877332,-123.1182842,Downtown
Chinatown BBQ,130 E Pender St,Chinese,49.28016,-123.1015139,Downtown
Chipotle Mexican Grill,818 Howe St,Mexican,49.2815125,-123.1210674,Downtown
Chopped Leaf,488 Robson St,Salad,49.279823,-123.1178853,Downtown
Cibo Trattoria,900 Seymour St,Italian,49.2793994,-123.1204307,Downtown
Cioppino's Mediterranean Grill,1133 Hamilton St,Mediterranean,49.2757752,-123.121939,Downtown
Congee Noodle Delight,88 W Pender St,Chinese,49.2804064,-123.1069714,Downtown
Copper Branch,280 Nelson St,Vegan,49.2763873,-123.1188118,Downtown
Copper Chimney Restaurant - Indian Grill & Bar,567 Hornby St,Indian,49.2853097,-123.1182573,Downtown
Coquille,181 Carall Street,Seafood,49.2837862,-123.1044645,Downtown
Crave India,1019 Granville St.,Indian,49.279099,-123.1235367,Downtown
Cr√É¬™pe Delicious,595 595 Burrard Street #502 inside Bentall Centre Tower III Vancouver BC V7X 1J1 502 Burrard St #502,Creperie,49.2860303,-123.1195685,Downtown
Curry Fusion,542 Robson St,Indian,49.2802354,-123.1183171,Downtown
DALINA,687 Main St,Cafe,49.2787627,-123.1003603,Downtown
DD MAU Chinatown,145 E Pender St,Vietnamese,49.2805781,-123.1008037,Downtown
Dae Ji,519 Dunsmuir St,Korean,49.2826601,-123.11472,Downtown
De Dutch,1055 Canada Pl #60,Brunch,49.2886624,-123.1168056,Downtown
Deacon's Corner,101 Main St,Diner,49.2839947,-123.099882,Downtown
Delicious Pho,255 Robson St,Vietnamese,49.2786512,-123.115353,Downtown
Devil's Elbow Ale and Smoke House,562 Beatty St,BBQ,49.2802264,-123.1098262,Downtown
Di Beppe Restaurant,8 W Cordova St,Italian,49.282365,-123.104637,Downtown
Eat Chicken Wraps,800 Howe Street,Fast Food,49.2819092,-123.1208845,Downtown
Ebar,799 Robson Street,Cafe,49.2819563,-123.120054,Downtown
Edo Japan,CF Pacific Centre 701 W Georgia St,Fast Food,49.2833319,-123.1183909,Downtown
Einstein Wrap House,516 Abbott St,Falafel,49.2806226,-123.1074519,Downtown
Elisa,1109 Hamilton St,Steak,49.2759238,-123.1214577,Downtown
Elysian Coffee (Burrard & Helmcken,1100 Burrard St,Coffee,49.2798451,-123.1276538,Downtown
Famous Wok,200 Burrard St,Chinese,49.2876106,-123.1150993,Downtown
Fanny Bay Oyster Bar,762 Cambie St,Seafood,49.2786079,-123.1141059,Downtown
Faubourg Paris,769 Hornby St,Cafe,49.2830662,-123.1214307,Downtown
Field & Social,415 Dunsmuir St,Salad,49.2820832,-123.1136857,Downtown
Finch√¢¬Ä¬ôs Tea & Coffee House,353 W Pender St,Sandwich,49.2827746,-123.1116823,Downtown
Firecrust Neapolitan Pizzeria,808 Davie St,Fast Food,49.2777222,-123.1278294,Downtown
Five Guys,635 Robson St,Fast Food,49.2810806,-123.119066,Downtown
Five Sails Restaurant,999 Canada Pl,Continental,49.2886946,-123.1111906,Downtown
Frankie's Italian Kitchen & Bar,765 Beatty St,Italian,49.2781484,-123.1134225,Downtown
Fresh Donair,1009 Granville St,Fast Food,49.2792049,-123.123509,Downtown
Fresh Sushi,909 Expo Blvd.,Japanese,49.2756851,-123.1154129,Downtown
Freshii,1291 Howe St,Health Food,49.2769971,-123.1286647,Downtown
Freshii,1185 W Georgia St,Health Food,49.2872573,-123.1247192,Downtown
Freshslice Pizza,663 Abbott St,Fast Food,49.2792139,-123.1078386,Downtown
Freshslice Pizza,549 W Pender St,Fast Food,49.2838187,-123.1131301,Downtown
Fritz European Fry House,718 Davie St,Fast Food,49.2773086,-123.1266618,Downtown
Frying Pan,505 Burrard St,Chicken,49.2866046,-123.118327,Downtown
Frying Pan Kitchen & Bar Gastown,60 W Cordova St,Canadian,49.2826445,-123.1060592,Downtown
Gallery Caf√É¬©,750 Hornby St,Cafe,49.2830077,-123.1208179,Downtown
Giardino Restaurant,1328 Hornby St,Tuscan,49.2769782,-123.1300609,Downtown
Glowbal,590 W Georgia St,Fusion,49.2811002,-123.1177713,Downtown
Golden Garden Vietnamese Cuisine,509 Main St,Vietnamese,49.2801171,-123.1001592,Downtown
Goldstone Bakery & Restaurant,139 Keefer St.,Chinese,49.2797519,-123.1009488,Downtown
Gotham Steakhouse & Cocktail Bar,615 Seymour St,Steak,49.2828825,-123.1159646,Downtown
Gringo,27 Blood Alley Sq,Mexican,49.2833607,-123.1053151,Downtown
Guanaco Salvadoran Cuisine food truck,Down town Vancouver,Salvadoran,49.281954,-123.1170744,Downtown
Guu Garden,M101 - 888 Nelson St,Japanese,49.2800364,-123.1252786,Downtown
Guu with Otokomae,375 Water St #105,Japanese,49.2847191,-123.1103983,Downtown
Gyoza Bar,622 W Pender St,Japanese,49.2841504,-123.114433,Downtown
Gyu-Kaku Japanese BBQ,888 Nelson St g3,Japanese,49.2800583,-123.1252306,Downtown
Ha Long Bay Restaurant,430 W Pender St,Vietnamese,49.2830164,-123.1127467,Downtown
Hai Phong Kitchen,186 Keefer Pl,Vietnamese,49.2796087,-123.108583,Downtown
Hakone Sushi,82 Keefer St.,Japanese,49.2792432,-123.1044569,Downtown
Hapa Izakaya Yaletown,1193 Hamilton St,Japanese,49.2751446,-123.1225872,Downtown
Haru Korean Kitchen,324 Cambie St,Korean,49.2829075,-123.1091588,Downtown
Heirs Pears,605 Nelson St,Health Food,49.2788773,-123.1221668,Downtown
HiFive,22 East Cordova,Sandwich,49.2822651,-123.1036529,Downtown
Holts Caf√É¬© Vancouver,Holt Renfrew Vancouver 737 Dunsmuir St,Canadian,49.2840148,-123.1165937,Downtown
Honey Salt,39 Smithe St,Family-friendly,49.2753742,-123.1128477,Downtown
Honjin Yaletown Sushi Restaurant,138 Davie St,Japanese,49.273145,-123.1210885,Downtown
Hubbub Sandwiches,859 Hornby St,Sandwich,49.2819932,-123.1230964,Downtown
Hy's Steakhouse & Cocktail Bar,637 Hornby St,Steak,49.2846711,-123.1193051,Downtown
Ignite Pizzeria Express,508 W Cordova St,Fast Food,49.284739,-123.111158,Downtown
Incognito Coffee,School Of Music 843 Seymour Street Atrium of VSO,Coffee,49.2803288,-123.1196634,Downtown
India Gate Restaurant,616 Robson St,Indian,49.2808576,-123.1194517,Downtown
Indian Delicacy,1130 W Pender St Unit 105,Indian,49.2874843,-123.1216047,Downtown
Indigo Age,436 Richard St,Vegetarian,49.283463,-123.1125294,Downtown
Italian Kitchen,860 Burrard St,Italian,49.2824321,-123.1234913,Downtown
JOEY Burrard,820 Burrard St,American,49.282606,-123.1231879,Downtown
JOS,1190 W Cordova St,Fast Food,49.2888993,-123.1222175,Downtown
Jako Sushi,656 Davie St,Japanese,49.2767858,-123.1259462,Downtown
Jam Cafe,556 Beatty St.,Breakfast,49.280155,-123.1095422,Downtown
Jinya Ramen Bar,541 Robson St.,Japanese,49.2803288,-123.1179083,Downtown
Johnnie Fox's Irish Snug,1033 Granville St,Irish,49.2789617,-123.1237552,Downtown
Johnny Rockets,755 Nelson St,Fast Food,49.2797997,-123.1235319,Downtown
Joyeaux Caf√É¬© & Restaurant,551 Howe St,Vietnamese,49.2848652,-123.1170502,Downtown
Juke,180 Keefer Street,Fast Food,49.2791047,-123.1007624,Downtown
Jules Bistro,216 Abbott St,French,49.2834427,-123.1064141,Downtown
Kaide Sushi Bar,1375 Richards St,Japanese,49.274238,-123.1270952,Downtown
Kamei Baru,990 Smithe St,Japanese,49.281905,-123.1241268,Downtown
Kingston Taphouse & Grille,755 Richards St,Grill,49.2808173,-123.1172019,Downtown
Koala Kebabs Donairs,519 West Pender,Falafel,49.2837542,-123.1130544,Downtown
Kobob Burger,1019 Main St,Korean,49.2754652,-123.1001595,Downtown
Kokoro Tokyo Mazesoba,551 Seymore St,Noodle,49.2834164,-123.1150628,Downtown
L'Abattoir,217 Carrall St,Pacific Northwest,49.2831234,-123.1044431,Downtown
La Cantina Tacos,722 Nelson St,Mexican,49.2794339,-123.1235357,Downtown
La Casita - Gastown,101 W Cordova St,Mexican,49.2831085,-123.1069497,Downtown
La Mezcaleria (Gastown),68 E Cordova St,Mexican,49.2821404,-123.1028426,Downtown
La Taqueria,322 W Hastings St,Mexican,49.282903,-123.1105901,Downtown
La Taqueria Pinche Taco Shop,586 Hornby Street,Mexican,49.2850412,-123.1178533,Downtown
La Terrazza,1088 Cambie St,Italian,49.2749917,-123.1186413,Downtown
Le Petit Belge,340 Robson St,Breakfast,49.2788987,-123.1164103,Downtown
Lift Bar Grill View - Downtown Vancouver,333 Menchion Mews,Grill,49.2936737,-123.1296952,Downtown
Little Saigon Yaletown,1263 Pacific Blvd,Vietnamese,49.2737966,-123.1232233,Downtown
Local Gastown,3 Alexander St,New American,49.2836149,-123.1040021,Downtown
Lost + Found,33 W Hastings St,Cafe,49.2818618,-123.1057791,Downtown
Lupo,869 Hamilton St,Italian,49.278193,-123.1173485,Downtown
Mangos Lounge,1180 Howe St,Mexican,49.2782904,-123.1260684,Downtown
Manoush'eh,620 Davie St.,Lebanese,49.2766788,-123.1256815,Downtown
Marutama Ra-men Canada Central Library,270 Robson St,Japanese,49.2785153,-123.1158076,Downtown
McDonald's,275 Robson St #211,Fast Food,49.2788171,-123.1154121,Downtown
Mean Poutine,718 Nelson S,Fast Food,49.2793909,-123.1234558,Downtown
Meat & Bread,1033 W Pender St,Sandwich,49.2873207,-123.1188383,Downtown
Meet in Gastown,12 Water St,Vegetarian,49.2834276,-123.1048588,Downtown
Meinhardt,Granville,Deli,49.2827291,-123.1207375,Downtown
Miku Vancouver,200 Granville St #70,Japanese,49.2868259,-123.112583,Downtown
Minami,1118 Mainland St,Japanese,49.2752011,-123.1207259,Downtown
Mink Chocolates Cafe,863 W Hastings St,Cafe,49.286592,-123.1152091,Downtown
Moltaqa,51 W Hastings,Moroccan,49.2820023,-123.1064116,Downtown
Momo Sushi,6-375 Water St,Japanese,49.284686,-123.110254,Downtown
Mosaic Grille & Bar,655 Burrard St,Grill,49.2853096,-123.1207679,Downtown
Mott 32 Vancouver,1161 W Georgia St,Chinese,49.2868699,-123.1241293,Downtown
Moxie's Grill & Bar,180 W Georgia St,Grill,49.2788916,-123.1130907,Downtown
Mr Greek Donair Town,1173 Granville St,Middle Eastern,49.277553,-123.1259781,Downtown
Nando's Davie & Howe (Downtown,828 Davie St,Chicken,49.2778637,-123.1276568,Downtown
Nelson the Seagull,315 Carrall St,Breakfast,49.2821489,-123.1044755,Downtown
Nero waffles,1002 Seymour St,Dessert,49.2782787,-123.1219729,Downtown
New Amsterdam Cafe,301 W Hastings,Cafe,49.2829108,-123.1099049,Downtown
New Town Bakery & Restaurant,148 E Pender St,Chinese,49.2803095,-123.1011943,Downtown
Nicli Antica Pizzeria,62 E Cordova St,Fast Food,49.2821792,-123.1028313,Downtown
Nightingale,1017 W Hastings St,Canadian,49.287432,-123.1175609,Downtown
Noodlebox,839 Homer St,Asian,49.2791466,-123.1177574,Downtown
Noodlebox,108 W Hastings St,Asian,49.2816859,-123.1077569,Downtown
Nuba in Gastown,207 W Hastings St,Health Food,49.282786,-123.1097021,Downtown
Nuba in Yaletown,508 Davie St,Lebanese,49.2759072,-123.1246107,Downtown
Number e food,1308 Burrard St,Sandwich,49.2777097,-123.1309215,Downtown
Numero Uno Pizza,708 Davie St,Fast Food,49.2772034,-123.1265675,Downtown
OEB Breakfast Co.,1137 Marinaside Crescent,Breakfast,49.2734565,-123.119265,Downtown
Odo Sushi,82 Keefer Place,Japanese,49.2794112,-123.1070016,Downtown
One Saigon,979 Hornby St,Vietnamese,49.2808056,-123.1248433,Downtown
Pacifico Pizzeria Ristorante,970 Smithe St.,Italian,49.2818429,-123.1240315,Downtown
Pacific~Poke,625 Main Street,Poke,49.2790547,-123.1000169,Downtown
Panago Pizza,1267 Pacific Blvd,Fast Food,49.2737585,-123.1232841,Downtown
Panago Pizza,1199 W Pender St #101,Fast Food,49.288316,-123.1226686,Downtown
Paramount Fine Foods,560 Robson St,Lebanese,49.2803212,-123.1185948,Downtown
Patron Tacos & Cantina,265 Robson St,Mexican,49.2786425,-123.1153525,Downtown
Patterson Chinese Restaurant,917 Davie Street,Chinese,49.2787832,-123.1282499,Downtown
Peaceful Restaurant,602 Seymour St,Chinese,49.28282,-123.1154086,Downtown
Peckinpah BBQ,2 Water St,BBQ,49.2833357,-123.1046377,Downtown
Per Se Social Corner,891 Homer St.,Cafe,49.2786163,-123.1184615,Downtown
Pholicious,550 W Hastings St,Vietnamese,49.2841432,-123.1126064,Downtown
PiDGiN Restaurant,350 Carrall St,Asian,49.281881,-123.104145,Downtown
Pita Wrap Cafe,565 Dunsmuir St,Middle Eastern,49.2828269,-123.1149952,Downtown
Pizza Garden,675 Smithe St.,Fast Food,49.280165,-123.1209115,Downtown
Pizzeria Farina,915 Main St,Fast Food,49.2765892,-123.1000905,Downtown
Pizzeria Ludica,189 Keefer Place,Fast Food,49.2800443,-123.1086181,Downtown
Pokerrito,Hornby St,American,49.2805474,-123.1250074,Downtown
Pokerrito,558 Dunsmuir St,American,49.282647,-123.1151179,Downtown
Prado Cafe,117 Water St,Cafe,49.2841362,-123.1069093,Downtown
Provence Marinaside Seafood Restaurant Bar & Grill,1177 Marinaside Crescent,French,49.2733234,-123.119583,Downtown
Ramen Gojiro,501 Dunsmuir St,Japanese,49.2824997,-123.1144563,Downtown
Revel Room Supper Club & Live Music Restaurant,238 Abbott St,Southern,49.2830791,-123.1065521,Downtown
Revolver,325 Cambie St,Cafe,49.283191,-123.1094521,Downtown
Robba da Matti,1127 Mainland St,Italian,49.2754729,-123.1213374,Downtown
Rodney's,52 Powell St.,Seafood,49.2830499,-123.1030463,Downtown
Rodney's Oyster House,1228 Hamilton St,Bar,49.2743299,-123.1231956,Downtown
Roxy Burger,910 Granville St,Fast Food,49.2798685,-123.1215208,Downtown
Rue 909 Sushi,909 Dunsmuir St,Japanese,49.2852649,-123.1187474,Downtown
SMAK Healthy Fast Food,840 Howe St,Health Food,49.2810497,-123.1217849,Downtown
SMAK Healthy Fast Food,545 Granville St,Fast Food,49.2843619,-123.1159252,Downtown
SMAK Healthy Fast Food,1139 W Pender St,Health Food,49.28799,-123.1214007,Downtown
Sai Woo,158 E Pender St,Asian,49.2801505,-123.1009936,Downtown
Sala Thai,888 Burrard St #102,Thai,49.2822067,-123.1238037,Downtown
Sala Thai,102-888 Burrard St,Thai,49.2881028,-123.1159761,Downtown
Sardine Can,26 Powell,Tapas,49.2830875,-123.1035221,Downtown
Save On Meats,43 Hastings St W,Diner,49.2820917,-123.1059682,Downtown
Say Hey Cafe,156 E Pender St,Sandwich,49.2801715,-123.1010566,Downtown
Scoozis,445 Howe St.,Mediterranean,49.2859071,-123.115404,Downtown
Shizen Ya,985 Hornby St,Japanese,49.2807787,-123.1248703,Downtown
Shizenya,965 Hornby St,Japanese,49.2812366,-123.1250519,Downtown
Silk Dinner Lounge and Restaurant,132 Powell St,Indian,49.2831042,-123.1010731,Downtown
Simply Thai,1211 Hamilton St,Thai,49.2748962,-123.1230955,Downtown
Six Acres,203 Carrall St,Pub,49.283339,-123.1044456,Downtown
Small Victory Bakery,1088 Homer St,Coffee,49.2765395,-123.1211149,Downtown
Steamworks Brewpub,375 Water St,Pub,49.2848666,-123.1105007,Downtown
Straight Outta Brooklyn NYC Pizzeria,350 Robson St,Fast Food,49.2791013,-123.1166285,Downtown
Street Auntie Aperitivo House,1039 Granville St,Asian,49.2789784,-123.1238471,Downtown
Subway,1109 Main St,Sandwich,49.2747686,-123.1002541,Downtown
Subway,139 W Hastings St,Sandwich,49.2823976,-123.10852,Downtown
Subway,510 W Hastings St #110,Sandwich,49.2839875,-123.1124277,Downtown
Sushi Coen,1306 Burrard St.,Japanese,49.2777307,-123.1308646,Downtown
Sushi Den,609 Abbott St,Japanese,49.2794272,-123.1078154,Downtown
Sushi Maro Japanese Restaurant,1168 Mainland St #101,Japanese,49.2749058,-123.1218909,Downtown
Sushi Mugen,903 Davie St,Japanese,49.2787454,-123.1282384,Downtown
TAKO - Taqueria Korean,601 Expo Blvd,Korean,49.2788834,-123.1082574,Downtown
TWB - The Wine Bar,1167 Marinaside Crescent,Grill,49.2733765,-123.1194802,Downtown
Tableau Bar Bistro,1181 Melville St,Bistro,49.287549,-123.12347,Downtown
TacoTime Royal Center Mall,1055 West Georgia St Royal Centre Mall Unit 216 Lower Level,Mexican,49.2853894,-123.1218372,Downtown
Tacofino,1025 Mainland St,Mexican,49.2764711,-123.1195878,Downtown
Tacofino Taco Bar,15 W Cordova St,Mexican,49.2827731,-123.1047979,Downtown
Take Five Cafe Gastown,62 W Cordova St.,Cafe,49.2826806,-123.1061775,Downtown
Take Five Caf√É¬©,683 Nicola St,Cafe,49.2903139,-123.1289148,Downtown
Tasty Indian Bistro | Yaletown,1261 Hamilton St,Indian,49.2742853,-123.1239474,Downtown
Thai Away Home on Granville,1081 Granville St,Thai,49.2785035,-123.1245091,Downtown
The Cambie Bar & Grill,300 Cambie St,Grill,49.2831142,-123.109,Downtown
The Edge Social Grille & Lounge,1100 Granville St,Grill,49.2778204,-123.1246014,Downtown
The Flying Pig Gastown,102 Water St,Canadian,49.2837739,-123.1067002,Downtown
The Greek By Anatoli,1043 Mainland St,Greek,49.2762117,-123.1198819,Downtown
The Irish Heather,212 Carrall St,Irish,49.2828401,-123.1041375,Downtown
The Irish Heather,210 Carrall St,Irish,49.2828842,-123.1041375,Downtown
The Juice Truck Yaletown,1022 Mainland St,Cafe,49.2760723,-123.1194564,Downtown
The Keefer Bar,135 Keefer St,Bar,49.27961,-123.1013292,Downtown
The Living Room,654 Nelson St,Bar,49.2789643,-123.1228775,Downtown
The Mexican,1049 Granville St,Mexican,49.2788282,-123.1240439,Downtown
The Old Spaghetti Factory,53 Water Street,Italian,49.2837374,-123.1052117,Downtown
The Parlour,1011 Hamilton St.,Italian,49.276721,-123.1201634,Downtown
The Pawn Shop,1117 Granville Street,Mexican,49.2781493,-123.1252321,Downtown
The Poke Guy,420 Richards St,Poke,49.2837704,-123.1120424,Downtown
The Templeton,1087 Granville St.,Diner,49.278481,-123.124598,Downtown
Top Of Vancouver Revolving Restaurant,555 W Hastings St,Continental,49.2846966,-123.1119349,Downtown
Tractor,335 Burrard Street,Health Food,49.2875834,-123.1167499,Downtown
Tractor Foods,547 Robson St,Health Food,49.2804996,-123.118019,Downtown
Triple O's,800 Griffiths Way,Fast Food,49.2777744,-123.1085205,Downtown
Triple O's,700 Hamilton St. (inside CBC Vancouver),Fast Food,49.2795288,-123.1138787,Downtown
Triple O's Bentall Center,1055 Dunsmuir St Unit 407B,Fast Food,49.2864943,-123.1214363,Downtown
Triple O's CBC,700 Hamilton St #10,Fast Food,49.2796085,-123.1143842,Downtown
Tsuki Sushi Bar,509 Abbott St,Japanese,49.2808984,-123.107827,Downtown
Tutto Restaurant & Bar,901 Homer St,Italian,49.2784079,-123.1187385,Downtown
Twisted Fork Bistro,213 Carrall St,Brunch,49.2831834,-123.1044482,Downtown
Two Parrots Bar & Grill,1202 Granville St,Grill,49.2769294,-123.1261553,Downtown
Vegan Cave Cafe,415 Abbott St,Vegan,49.2818235,-123.1075054,Downtown
Vegan Pudding & Co.,422 Richards St,Vegetarian,49.2836682,-123.1121414,Downtown
Victoria Chinese Restaurant,1055 W Georgia St,Chinese,49.2853911,-123.1215501,Downtown
Victoria Restaurant,1088 Melville St,Cafe,49.2853331,-123.1206795,Downtown
Viet Sub Vietnamese Cuisine,520 Robson St,Vietnamese,49.2802009,-123.1182521,Downtown
Virtuous Pie,583 Main St,Fast Food,49.279734,-123.0999725,Downtown
Wakwak Burger,511 Granville St,Fast Food,49.2845236,-123.1150798,Downtown
Water St. Caf√É¬©,300 Water St,Canadian,49.2841708,-123.1090542,Downtown
White Spot,405 Dunsmuir St,Fast Food,49.2819406,-123.1135203,Downtown
White Spot Granville & Drake,718 Drake St,Family-friendly,49.2761619,-123.1282952,Downtown
WildTale Coastal Grill,1079 Mainland,Seafood,49.2759291,-123.1203252,Downtown
Wildebeest,120 W Hastings St,Pacific Northwest,49.2819194,-123.1080066,Downtown
Yagger's Downtown Restaurant & Sports Bar,433 W Pender St,Bar,49.2831764,-123.1122509,Downtown
Yah Yah Ya Ramen Downtown,570 Robson St,Japanese,49.280471,-123.1187675,Downtown
Yamato Sushi,616 Davie St,Japanese,49.2766291,-123.125616,Downtown
Yolk's Breakfast,110 Dunsmuir St,Breakfast,49.2790424,-123.1095277,Downtown
Yui Japanese Bistro,102-1185 W Georgia St,Japanese,49.287177,-123.124666,Downtown
ZAC√¢¬Ä¬¢ZAC Japanese Curry House,590 Robson Street,Japanese,49.2805271,-123.1187971,Downtown
arturosmexico2go,777 W Cordova St,Mexican,49.2865036,-123.1134803,Downtown
hungry guys,988 Granville St,Mexican,49.2792922,-123.1226648,Downtown
Beantown Coffee House,Dunbar,Cafe,49.249951,-123.185194,Dunbar-Southlands
Bento Sushi,4221 Dunbar St,Japanese,49.2486793,-123.1854813,Dunbar-Southlands
Cosy Inn Cafe,4455 Dunbar St,Breakfast,49.2465696,-123.1854609,Dunbar-Southlands
Cr√É¬©pe Caf√É¬©,3500 W 41 Ave,Cafe,49.2346206,-123.1822017,Dunbar-Southlands
Domino's Pizza,4298 Dunbar St,Fast Food,49.2558103,-123.1848639,Dunbar-Southlands
Dunbar Pizza & Indian Food,3348 Dunbar St,Fast Food,49.2570142,-123.1847986,Dunbar-Southlands
Dunbar Sushi,3626 W 16th Ave,Japanese,49.2576598,-123.1857399,Dunbar-Southlands
Handi Cuisine of India,4432 Dunbar St.,Indian,49.2467934,-123.1848907,Dunbar-Southlands
Kuma Japanese Restaurant,Dunbar St,Japanese,49.249012,-123.185207,Dunbar-Southlands
La Notte Restaurant,3307 Dunbar St,Italian,49.2572246,-123.1853608,Dunbar-Southlands
Mexicali,4424 Dunbar St.,Mexican,49.2468257,-123.1848584,Dunbar-Southlands
Moon Sushi Japanese Restaurant,4385 Dunbar St,Japanese,49.2472936,-123.1855754,Dunbar-Southlands
Q Coffee,5607 Dunbar St,Coffee,49.235643,-123.1856148,Dunbar-Southlands
Red Tuna Japanese Restaurant,3592 W 41st Ave,Japanese,49.2345003,-123.1845455,Dunbar-Southlands
Subway,4490 Dunbar St,Sandwich,49.2462903,-123.1848153,Dunbar-Southlands
Sushi Inn,4414 Dunbar St.,Japanese,49.246963,-123.185055,Dunbar-Southlands
The Cheese Inn,4585 Dunbar St,British,49.2454594,-123.1854706,Dunbar-Southlands
Wild Sushi,4288 Dunbar St,Japanese,49.2483133,-123.1850191,Dunbar-Southlands
5 Spice Vietnamese Cuisine,1513 W Broadway,Vietnamese,49.2638171,-123.1391631,Fairview
A Bread Affair,1680 Johnston St,Sandwich,49.2724853,-123.1358648,Fairview
A Taste of Vietnam,1016 W Broadway,Vietnamese,49.2631256,-123.1270799,Fairview
A&W Canada,555 12th Ave W Unit 25,Fast Food,49.2609881,-123.1164951,Fairview
A&W Canada,777 W Broadway,Fast Food,49.2635975,-123.1213494,Fairview
Afghan Horsemen Restaurant,1833 Anderson St #202,Middle Eastern,49.2693903,-123.1389283,Fairview
Apollonia,1830 Fir Street,Greek,49.2694416,-123.1406537,Fairview
B-Bin,3098 Oak Street,Japanese,49.2577393,-123.1267423,Fairview
Banana Leaf Broadway & Willow,820 W Broadway,Malaysian,49.2631202,-123.1224844,Fairview
Bean Around the World Coffees,820 W 10th Ave,Coffee,49.2622318,-123.1222947,Fairview
Beaucoup Bakery,2150 Fir St,Cafe,49.2664597,-123.1407911,Fairview
Bella Pizza,2525 Hemlock St,Fast Food,49.263255,-123.136615,Fairview
Benkei Ramen Noodle Shop,545 W Broadway,Japanese,49.2634328,-123.1164873,Fairview
Bin 4 Burger Lounge,2996 Granville St,Fast Food,49.2590704,-123.1384745,Fairview
Blenz Coffee,695 W Broadway,Cafe,49.2634756,-123.1196689,Fairview
Blue Hat Bakery at Pacific Institute of Culinary Arts,1505 W 2nd Ave #101,Dessert,49.2698875,-123.1379948,Fairview
Bob Likes Thai Food,1521 W Broadway,Thai,49.2637902,-123.1393566,Fairview
Branas Mediterranean Grill,617 Stamps Landing,Mediterranean,49.2685005,-123.1187213,Fairview
Breakfast Table,3014 Granville St,Breakfast,49.258568,-123.1385172,Fairview
Breakfast Table,1481 West Broadway,Breakfast,49.2637878,-123.1377917,Fairview
Bridges Restaurant,1696 Duranleau St,Seafood,49.272817,-123.1364204,Fairview
Broadway Chinese,1410 W Broadway,Chinese,49.2632491,-123.1365386,Fairview
Cactus Club Cafe,1530 W Broadway,American,49.2634387,-123.1395482,Fairview
Cactus Club Cafe,575 West Broadway,American,49.2634554,-123.1171839,Fairview
Caff√É¬® Cittadella,2310 Ash St,Cafe,49.264775,-123.117217,Fairview
Caff√É¬© Barney,2975 Granville St.,Breakfast,49.2591801,-123.1391536,Fairview
Caf√É¬© Salade de Fruits,1555 W 7th Ave,French,49.2655966,-123.1400696,Fairview
Caf√É¬© Salade de Fruits,1551 W 7th Ave,French,49.2655967,-123.1400538,Fairview
Carlos O'Bryan's Neighborhood Pub,1774 W 7th Ave,Irish,49.265325,-123.1452,Fairview
Chipotle Mexican Grill,532 Broadway W Unit 100,Mexican,49.2630941,-123.116148,Fairview
DALINA Broadway,992 W Broadway,Cafe,49.2632501,-123.1262879,Fairview
De Dutch Pannekoek House,3192 Oak St,Breakfast,49.2572642,-123.1270022,Fairview
Deja Brew Coffeehouse + Fresh Food Cafe,943 W Broadway,Cafe,49.2637023,-123.1250172,Fairview
Denny's,1759 West Broadway,Breakfast,49.2638717,-123.1448243,Fairview
Dockside Restaurant,1253 Johnston St,Seafood,49.269486,-123.131177,Fairview
Domino's Pizza,1312 Broadway W,Fast Food,49.2633879,-123.1342236,Fairview
Donair Spot,806 W Broadway,Kebab,49.2630496,-123.1222281,Fairview
Dynasty Seafood Restaurant,108-777 W Broadway,Chinese,49.2637681,-123.1216281,Fairview
Earls,1601 W Broadway,American,49.2639631,-123.1414827,Fairview
Ebisu on Broadway,601 12 W Broadway #12,Japanese,49.2637363,-123.1180045,Fairview
Edible Canada at the Market,1596 Johnston St.,Pub,49.2716722,-123.1348861,Fairview
Elysian Coffee,1778 W 5th Ave,Coffee,49.2669122,-123.1452342,Fairview
Elysian Coffee - Broadway,590 W Broadway,Coffee,49.2631075,-123.1172915,Fairview
Express Pho,1455 W Broadway,Vietnamese,49.2637238,-123.1373524,Fairview
Fiore - South Granville,1485 W 12th Ave,Italian,49.2608974,-123.1382242,Fairview
Flying Swan Coffeehouse,1724 West 4th Avenue,Breakfast,49.2678694,-123.143856,Fairview
Freshii,561 W Broadway,Health Food,49.2634909,-123.1170326,Fairview
Freshslice Pizza,2418 Granville St,Fast Food,49.2642232,-123.1382236,Fairview
Fuf√É¬∫ Caf√É¬©,1266 W Broadway,Dessert,49.2633334,-123.1327888,Fairview
Go Fish,1505 W 1st Ave,Fast Food,49.2724945,-123.1404146,Fairview
Gyu-Kaku Japanese BBQ,950 W Broadway #201,Japanese,49.2632584,-123.1257975,Fairview
Happy Lamb Hot Pot Vancouver √•¬ø¬´√§¬π¬ê√•¬∞¬è√ß¬æ¬ä,1788 W Broadway,Chinese,49.2634447,-123.1454275,Fairview
Heirloom Vegetarian Restaurant,1509 W 12th Ave,Vegetarian,49.2609126,-123.1391689,Fairview
Hokkaido Ramen Santouka,558 W Broadway,Japanese,49.2630882,-123.1168634,Fairview
IHOP,200-950 W Broadway,Breakfast,49.2630333,-123.1255056,Fairview
Ichibankan Express,750 West Broadway,Japanese,49.2630111,-123.1211867,Fairview
Indian Roti Kitchen,2961 Cambie St,Indian,49.2590241,-123.1153551,Fairview
Jitlada,1459 Broadway West,Thai,49.2637441,-123.1373983,Fairview
Johnny Rockets,2538 Oak St,Fast Food,49.2630639,-123.1263056,Fairview
Joon's Kitchen,3093 Oak St,Korean,49.2580519,-123.1271478,Fairview
Kathy's Sandwich House,1505 W Broadway,Sandwich,49.2637785,-123.1390622,Fairview
Kaya Malay Bistro,1063 West Broadway,Asian,49.2636018,-123.1280703,Fairview
Kisokoma Japanese Restaurant,805 W Broadway #112,Japanese,49.2635695,-123.1220303,Fairview
Lee's Donuts,1689 Johnston St,Donut,49.2727014,-123.1352146,Fairview
Lin Chinese Cuisine and Tea House,1537 W Broadway,Chinese,49.2637731,-123.1397224,Fairview
Lotus Seed vegan,736 W Broadway,Vegan,49.263078,-123.1210049,Fairview
Market Cafe,898 W Broadway,Cafe,49.2630831,-123.1234943,Fairview
Masa Japanese Restaurant,1414 West Broadway,Japanese,49.2634203,-123.1366112,Fairview
Masa Japanese Restaurant Vancouver,1418 W Broadway,Japanese,49.263342,-123.1368041,Fairview
Max's Bakery & Delicatessen,3105 Oak Street,Bakery,49.2575721,-123.1275238,Fairview
McDonald's,1482 W Broadway,Fast Food,49.2634253,-123.1379808,Fairview
McDonald's,537 W Broadway,Fast Food,49.2635339,-123.1163501,Fairview
Mellowbite Pizza,106 1833 Anderson St # 106,Fast Food,49.2693126,-123.1385521,Fairview
Minato Sushi Restaurant (Vancouver BC,1001 W Broadway #102,Japanese,49.2636471,-123.1270408,Fairview
Mixx Bao Taiwanese Street Food,1426 W 8th Ave,Chinese,49.2642942,-123.1367416,Fairview
Moderne Burger,865 W Broadway,Fast Food,49.2635355,-123.1233966,Fairview
Murchie's Fine Tea,1501 W Broadway #110,Coffee,49.2637625,-123.1388684,Fairview
My Forno Pizza,1630 W Broadway,Fast Food,49.2635028,-123.1417719,Fairview
New India Buffet & Restaurant,#105 - 805 West Broadway,Indian,49.2637957,-123.1221784,Fairview
New India Buffet + Bar & Restaurant,901 W Broadway,Indian,49.2635544,-123.124491,Fairview
Novo Pizzeria & Wine Bar,2118 Burrard St,Italian,49.2666178,-123.1454221,Fairview
Off the Tracks Espresso Bar & Bistro,1363 Railspur Alley,Cafe,49.2704673,-123.1337891,Fairview
Old Beijing Roast Duck,1643 W Broadway,Chinese,49.2638967,-123.1421012,Fairview
Ooh La La Cappuccino Bar,1333 W Broadway #150,Coffee,49.2638235,-123.1342848,Fairview
Osaka Teppanyaki,1788 W Broadway #103,Seafood,49.2634652,-123.1452407,Fairview
Panago Pizza,1278 W Broadway,Fast Food,49.2633586,-123.1328321,Fairview
Patisserie Lebeau,1728 W 2nd Ave,Patisserie,49.2696338,-123.1440298,Fairview
Paul's Omelettery Restaurant,2211 Granville St,Breakfast,49.2659984,-123.1387561,Fairview
Peaceful Restaurant,532 W Broadway #110,Chinese,49.2630874,-123.1160779,Fairview
Pedro√¢¬Ä¬ôs Organic Coffee House,60-1550 Anderson St,Cafe,49.2702253,-123.1364457,Fairview
Pepper Lunch,2323 Cambie St,Japanese,49.2646119,-123.1150465,Fairview
Pokedoki - Poke,693 W Broadway,American,49.2634971,-123.1195716,Fairview
Prado Cafe,1809 Fir Street,Cafe,49.2694391,-123.1409639,Fairview
QQ Sushi,1640 W Broadway,Japanese,49.2634926,-123.1419998,Fairview
Raga Restaurant,1177 W Broadway,Indian,49.2637614,-123.1305469,Fairview
Rayhan,3170 Oak St,Mediterranean,49.2574073,-123.1269061,Fairview
Red Ginger Asian Cuisine,967 W Broadway,Asian,49.2635515,-123.1256451,Fairview
Ro Sushi Japanese Bistro,678 W Broadway,Asian,49.2631001,-123.1192423,Fairview
Royal Seoul House Korean Restaurant,100 - 1215 W Broadway,Korean,49.2635592,-123.1450448,Fairview
Royal Seoul House Restaurant,1215 W Broadway,Korean,49.2636516,-123.1318882,Fairview
Saku Broadway,548 W Broadway,Japanese,49.2631006,-123.1166394,Fairview
Salad Loop,2775 Laurel St,Salad,49.261199,-123.1260659,Fairview
Salmon n' Bannock,1128 W Broadway #7,Pacific Northwest,49.263303,-123.1297697,Fairview
Shanghai Lu Restaurant,705 W Broadway,Chinese,49.2636126,-123.1200751,Fairview
Shi Zen Ya,1102 West Broadway,Japanese,49.2633113,-123.1292396,Fairview
Shizenya Restaurant on Broadway,1333 W Broadway #160,Japanese,49.2638726,-123.1342629,Fairview
Siegel√¢¬Ä¬ôs Bagels,1698 Johnston St,Bagel,49.2726696,-123.1359137,Fairview
Slickity Jim's Chat & Choux,1387 West 7th Ave,Breakfast,49.2654301,-123.1357879,Fairview
Small Victory,3070 Granville street,Bakery,49.2583008,-123.1385395,Fairview
Soho Sushi,789 West 16th Ave,Japanese,49.2572176,-123.1215122,Fairview
Stages Restaurant & Lounge,711 W Broadway,Bistro,49.263578,-123.120284,Fairview
Subway,1288 W Broadway,Sandwich,49.2633442,-123.1329176,Fairview
Subway,102-1595 W Broadway,Sandwich,49.2638018,-123.1406688,Fairview
Subway,"700 West 6th Avenue, Retail Unit D",Sandwich,49.265551,-123.1199986,Fairview
Suika Japanese Restaurant,1626 W Broadway,Japanese,49.2634105,-123.1416899,Fairview
Sushi Dragon,614 W Broadway,Japanese,49.2630952,-123.1182667,Fairview
Sushi HANABI,1542 W 2nd Ave,Japanese,49.269572,-123.1400543,Fairview
Sushivan,2566 Granville St,Japanese,49.2629632,-123.1383187,Fairview
Szechuan Chili,804 W 6th Ave,Sichuan,49.265607,-123.121984,Fairview
Szechuan Chongqing Seafood Restaurant,#205-1668 W Broadway,Chinese,49.2634294,-123.1423828,Fairview
Tandem Bike Cafe,3195 Heather St,Cafe,49.2571248,-123.1202393,Fairview
The Liberty Distillery,1494 Old Bridge St,Distillery,49.270394,-123.134551,Fairview
The Market Grill,104 - 1689 Johnston St,Fast Food,49.2715205,-123.1341702,Fairview
The Marquis,2666 Granville St,Pub,49.2621327,-123.1383634,Fairview
The Sandbar Seafood Restaurant,1536 Johnston St.,Seafood,49.2712072,-123.1343241,Fairview
The Sandbar Seafood Restaurant,1535 Johnston Street Creekhouse #102,Seafood,49.2715164,-123.134276,Fairview
The Stable House Bistro,1520 W 13th Ave,Bistro,49.259699,-123.139316,Fairview
The Vancouver Fish Company,1517 Anderson St,Seafood,49.2705997,-123.1365764,Fairview
The Wicklow Pub,610 Stamps Landing,Pub,49.2687333,-123.118775,Fairview
Tojo's Restaurant,1133 W Broadway,Japanese,49.2636964,-123.1297159,Fairview
Tomokazu,201-1128 W Broadway,Japanese,49.2633333,-123.13,Fairview
Tony's Coffee,805 west broadway,Cafe,49.2638294,-123.1222828,Fairview
Tony's Fish & Oyster Cafe,1511 Anderson St,Seafood,49.2707061,-123.1364206,Fairview
Tropika,2975 Cambie St,Malaysian,49.2589021,-123.1153024,Fairview
Vivanty's,802 West Broadway,Sandwich,49.2631709,-123.1221441,Fairview
Wicked Cafe,1399 W 7th Ave,Cafe,49.265429,-123.135845,Fairview
Yanaki Sushi,816 W 6th Ave.,Japanese,49.26572,-123.1223239,Fairview
Yanaki Sushi,816 W 6th Ave,Japanese,49.26572,-123.1223239,Fairview
Yolks,546 W Broadway,Breakfast,49.2631116,-123.1165845,Fairview
YuShang Hot Pot √•¬æ¬°√§¬∏¬ä√ß¬Å¬´√©¬î¬Ö,950 W Broadway #202,Chinese,49.263169,-123.125569,Fairview
Zaccary's Pizza,3150 Oak St,Fast Food,49.2574657,-123.1270033,Fairview
delhi6 Indian bistro,1766 W 7th Ave,Indian,49.2652347,-123.1449676,Fairview
i-Cafe,2525 Heather St,Chinese,49.2630104,-123.1200936,Fairview
liquids+solids,1550 W Broadway,Cafe,49.2634672,-123.1400913,Fairview
4 Brothers Pizza,1914 Commercial Dr,Fast Food,49.2674189,-123.0694534,Grandview-Woodland
A&W Canada,1715 E Broadway,Fast Food,49.2627265,-123.0694772,Grandview-Woodland
A&W Canada,2033 E Hastings St,Fast Food,49.2813825,-123.0630549,Grandview-Woodland
A. Bosa And Company Ltd. Import Euro,562 Victoria Drive,Deli,49.2792444,-123.0654808,Grandview-Woodland
Absinthe Bistro,1260 Commercial Dr,French,49.27338,-123.0693298,Grandview-Woodland
Absinthe Bistro,952 Commercial Dr,French,49.2759736,-123.0693516,Grandview-Woodland
Addis Cafe,2017 Commercial Dr,Ethiopian,49.2665329,-123.0699021,Grandview-Woodland
Aleph Eatery,1889 Powell St,Vegan,49.2848444,-123.0659429,Grandview-Woodland
Arriva Ristorante Ltd,1537 Commercial Dr,Italian,49.2709212,-123.0698917,Grandview-Woodland
B House Restaurant,2270 Commercial Dr,Asian,49.2644738,-123.0695334,Grandview-Woodland
Babylon Cafe,1605 Commercial Dr,Middle Eastern,49.2703839,-123.069814,Grandview-Woodland
Bar Corso,1566 Commercial Dr,Tapas,49.2707543,-123.069445,Grandview-Woodland
Belgian Fries,1885 Commercial Dr,Diner,49.267933,-123.0698877,Grandview-Woodland
Best Falafel Commercial Drive,2013 Commercial Dr,Middle Eastern,49.2665809,-123.0698983,Grandview-Woodland
BierCraft Tap and Tapas,1191 Commercial Dr,Tapas,49.2740611,-123.0697946,Grandview-Woodland
Bistro Wagon Rouge,1869 Powell St,French,49.284784,-123.0662582,Grandview-Woodland
Black Rook Bakehouse,2141 East Hastings,Cafe,49.2813702,-123.0606091,Grandview-Woodland
Bombay Kitchen and Bar,1018 Commercial Dr,Indian,49.2753791,-123.0692183,Grandview-Woodland
Bon's Off Broadway,2451 Nanaimo St,Breakfast,49.2626943,-123.0571017,Grandview-Woodland
Booster Juice,under renovation 2430 Commercial Dr,Juice,49.2628728,-123.0694766,Grandview-Woodland
Britannia Sushi,1016 Commercial Dr,Japanese,49.2754328,-123.0693353,Grandview-Woodland
CHOMP vegan eatery,2234 E Hastings St,Vegan,49.2810132,-123.0591164,Grandview-Woodland
Cafe Calabria,1731 Commercial Dr,Italian,49.2691029,-123.0698355,Grandview-Woodland
Cafe Deux Soleils,2096 Commercial Dr,Breakfast,49.2660509,-123.0694337,Grandview-Woodland
Cafe Du Soleil,1393 Commercial Dr,Breakfast,49.272438,-123.069862,Grandview-Woodland
Cafe Rosemary,1497 Franklin St,Breakfast,49.2823482,-123.0742956,Grandview-Woodland
Caff√É¬© La Tana,635 Commercial Dr,Cafe,49.2787798,-123.0706068,Grandview-Woodland
Carthage Cafe,1851 Commercial Dr,French,49.2681986,-123.0698366,Grandview-Woodland
Church's Chicken,2304 E Hastings St,Chicken,49.2809743,-123.0574231,Grandview-Woodland
Continental Coffee,1806 Commercial Dr,Coffee,49.2685765,-123.0694461,Grandview-Woodland
Culinary Capers Catering,620 Clark Dr,Caterer,49.2792272,-123.0767164,Grandview-Woodland
DUNDAS Eat + Drink - six o pho,2077 Dundas St,Fusion,49.285105,-123.062289,Grandview-Woodland
Delish Gluten Free Bakery,2166 E Hastings St,Health Food,49.2810138,-123.0602546,Grandview-Woodland
Dolce Amore,1588 Commercial Dr,Ice Cream,49.2706945,-123.0694244,Grandview-Woodland
Domino's Pizza,2083 Dundas St,Fast Food,49.2851202,-123.0621365,Grandview-Woodland
Downlow Chicken Shack,905 Commercial Dr,Chicken,49.276327,-123.069732,Grandview-Woodland
Eternal Abundance Organic Market & Eatery,1025 Commercial Dr,Vegan,49.275432,-123.0698104,Grandview-Woodland
Euro Cafe,1468 Commercial Dr.,Breakfast,49.271535,-123.069451,Grandview-Woodland
Famoso Neapolitan Pizzeria - Commercial Drive,1380 Commercial Dr,Fast Food,49.2722609,-123.0692191,Grandview-Woodland
Far Out Coffee Post,2173 Dundas St,Cafe,49.2849236,-123.0600312,Grandview-Woodland
Fets Whisky Kitchen,1230 Commercial Dr,Grill,49.2735267,-123.0692475,Grandview-Woodland
Fire Pizza,1918 Commercial Dr,Fast Food,49.2674084,-123.0694962,Grandview-Woodland
Five Elements Cafe,1046 Commercial Dr,Asian,49.2749731,-123.0693852,Grandview-Woodland
Fujiya,912 Clark Dr.,Japanese,49.2765541,-123.0768797,Grandview-Woodland
Ginger Sushi,1437 Commercial Dr,Japanese,49.2717096,-123.0697506,Grandview-Woodland
Golden Seafood Restaurant,2425 Nanaimo St,Chinese,49.2628705,-123.057018,Grandview-Woodland
Golden Spring Restaurant,2461 Nanaimo St,Chinese,49.2625788,-123.0570363,Grandview-Woodland
Hanai Family Table,1370 E Georgia St,American,49.278305,-123.0755801,Grandview-Woodland
Harambe Ethiopian Restaurant,2149 Commercial Dr,Ethiopian,49.2655668,-123.0699715,Grandview-Woodland
Harbour Oyster + Bar,1408 Commercial Dr,Bar,49.2718947,-123.0691815,Grandview-Woodland
Havana,1212 Commercial Dr,Cuban,49.2737034,-123.0692115,Grandview-Woodland
Hon's Wonton House - Broadway Station,1661 E Broadway,Chinese,49.2624895,-123.0707019,Grandview-Woodland
"J, N & Z Deli",1729 Commercial Dr.,Deli,49.2691136,-123.0698261,Grandview-Woodland
JJ Bean Coffee Roasters,2206 Commercial Dr,Cafe,49.2649474,-123.0694113,Grandview-Woodland
Jackalopes Neighbourhood Dive,2257 E Hastings St,Pub,49.2812947,-123.0589523,Grandview-Woodland
Jamjar Canteen,2290 Commercial Dr,Lebanese,49.264293,-123.0695535,Grandview-Woodland
Joe's Cafe Bar,1150 Commercial Dr,Cafe,49.274132,-123.069351,Grandview-Woodland
Junior√¢¬Ä¬ôs Pub & Grill,1601 Commercial Dr,Pub,49.2704278,-123.0699551,Grandview-Woodland
Kin Kao Thai Kitchen,903 Commercial Dr,Thai,49.2763558,-123.0696924,Grandview-Woodland
Kishimoto Japanese Restaurant,2054 Commercial Dr,Japanese,49.2667364,-123.0694112,Grandview-Woodland
Kojima Sushi,1836 Commercial Dr,Japanese,49.2681034,-123.0694691,Grandview-Woodland
Koko Japanese Restaurant Ltd,2053 E Hastings St,Japanese,49.2813178,-123.0625702,Grandview-Woodland
Kulinarya Filipino Eatery,1134 Commercial Dr,Filipino,49.274386,-123.0694047,Grandview-Woodland
La Grotta Del Formaggio,1791 Commercial Dr,Deli,49.2688489,-123.0699837,Grandview-Woodland
La Mezcaleria,1622 Commercial Dr,Mexican,49.2700977,-123.0692773,Grandview-Woodland
La Pache Pizza,2082 Commercial Dr,Fast Food,49.2661816,-123.0694772,Grandview-Woodland
Le Do Restaurant,2292 E Hastings St,Vietnamese,49.2809537,-123.0581034,Grandview-Woodland
Little Caesars Pizza,2080 HASTINGS STREET EAST,Fast Food,49.2808696,-123.0622011,Grandview-Woodland
Livia Bakery,1399 Commercial Dr,Bakery,49.2722878,-123.0697787,Grandview-Woodland
Loku Japanese Cuisine,2280 Commercial Dr,Japanese,49.2643741,-123.0693441,Grandview-Woodland
Lombardo's Pizzeria & Ristorante,1641 Commercial Dr,Italian,49.2700044,-123.0698928,Grandview-Woodland
Marcello Ristorante & Pizzeria,1404 Commercial Dr,Italian,49.2720501,-123.0694232,Grandview-Woodland
McDonald's,1965 Powell St,Fast Food,49.2851561,-123.0640259,Grandview-Woodland
Memphis Blues Barbeque House,1342 Commercial Dr,BBQ,49.2724944,-123.0692524,Grandview-Woodland
Miyako Sushi,2341 E Hastings St,Japanese,49.2813655,-123.0573113,Grandview-Woodland
Moja Coffee,1102 Commercial Dr,Cafe,49.2746993,-123.0691711,Grandview-Woodland
Mr Red Cafe,2131 E Hastings St,Vietnamese,49.2813021,-123.0608714,Grandview-Woodland
Mr. Greek Donair Store,2285 Commercial Dr,Middle Eastern,49.2640533,-123.0699273,Grandview-Woodland
Neptune Express,2450 Commercial Dr,Chinese,49.2627422,-123.0695455,Grandview-Woodland
Nonna's Table Pizzeria & Restaurant,1489 E Hastings St,Italian,49.2814968,-123.0745067,Grandview-Woodland
On Lok Restaurant & Wun Tun House,2010 E Hastings St,Noodle,49.2808579,-123.0633045,Grandview-Woodland
Pacific Poke,1268 Commercial Dr,Seafood,49.2733176,-123.0692174,Grandview-Woodland
Park Drive,1815 Commercial Dr,Bar,49.2683534,-123.070115,Grandview-Woodland
Pelican Seafood Restaurant,1891 E Hastings St,Asian,49.2814592,-123.0661649,Grandview-Woodland
Pelican Seafood Restaurant,1895 E Hastings St,Seafood,49.2815691,-123.0662004,Grandview-Woodland
Penny Restaurant √©¬å¬¢√®¬®¬ò,2060 E Hastings St,Chinese,49.2808968,-123.0624938,Grandview-Woodland
Pennyroyal Coffee,2263 E Hastings St E,Cafe,49.2812987,-123.0586762,Grandview-Woodland
Pepino's Spaghetti House,631 Commercial Dr,Italian,49.2788717,-123.0706063,Grandview-Woodland
Pho Win Vietnamese restaurant,2138 E Hastings St,Vietnamese,49.2810297,-123.060808,Grandview-Woodland
Pizza Garden,1042 Commercial Dr,Fast Food,49.2750233,-123.0692198,Grandview-Woodland
Platform 7 Coffee,2331 E Hastings St,Cafe,49.2813613,-123.0574624,Grandview-Woodland
Poke Five,2247 Commercial Dr,Seafood,49.264394,-123.0699988,Grandview-Woodland
Portuguese Club Of Vancouver,1144 Commercial Dr,Portuguese,49.274256,-123.0691892,Grandview-Woodland
Prado Cafe,1938 Commercial Dr,Cafe,49.2671958,-123.0692565,Grandview-Woodland
Red Burrito,1700 Commercial Dr,Mexican,49.2694662,-123.0693077,Grandview-Woodland
Renzo's Cafe,1301 Commercial Dr,Cafe,49.272939,-123.069784,Grandview-Woodland
Riddim & Spice,1945 Commercial Dr,Jamaican,49.267405,-123.0699372,Grandview-Woodland
Rinconcito Salvadoreno,2062 Commercial Dr,Salvadoran,49.2666037,-123.0695021,Grandview-Woodland
Sake Maki,1414 Commercial Dr,Japanese,49.2718997,-123.0694427,Grandview-Woodland
Santa Barbara Market,1322 Commercial Dr,Deli,49.2726167,-123.0692175,Grandview-Woodland
Scandilicious,25 Victoria Dr,Scandinavian,49.2843937,-123.065746,Grandview-Woodland
Siddhartha's Indian Kitchen,2066 Commercial Dr,Indian,49.2665657,-123.0695155,Grandview-Woodland
Sitar Restaurant,8 Powell St,Indian,49.2850084,-123.0643792,Grandview-Woodland
Song Huong Restaurant,1613 Nanaimo St,Vietnamese,49.2701941,-123.0569066,Grandview-Woodland
Sopra Sotto Pizzeria,1550 Commercial Dr,Italian,49.2707941,-123.069405,Grandview-Woodland
Sopra Sotto Pizzeria,1510 Commercial Dr,Italian,49.271035,-123.0692425,Grandview-Woodland
St. Augustine's,2360 Commercial Dr,Pub,49.2638567,-123.0694135,Grandview-Woodland
Starbucks,1502 E Hastings St,Coffee,49.2810692,-123.0739561,Grandview-Woodland
Subway,2499 Nanaimo St,Sandwich,49.2624079,-123.0570455,Grandview-Woodland
Sula Indian Restaurant - Commercial Drive,1128 Commercial Dr,Indian,49.2744339,-123.0691883,Grandview-Woodland
Sunrise Pizza & Steak House,949 Commercial Dr,Fast Food,49.2758896,-123.0696667,Grandview-Woodland
Sushi Ninja,1861 Commercial Dr,Japanese,49.2680581,-123.0698162,Grandview-Woodland
Sushi Ville,2068 Commercial Dr,Japanese,49.2663588,-123.0695003,Grandview-Woodland
Swissbakery Artisan Bread Specialist,1831 Pandora St,Bakery,49.2831636,-123.0670959,Grandview-Woodland
THE PIZZA CASTLE & INDIAN CURRY,1110 Commercial Dr,Vegan,49.2745941,-123.0692425,Grandview-Woodland
Tacofino Commissary,2327 E Hastings St,Mexican,49.2812842,-123.0575022,Grandview-Woodland
Take Thai Home Restaurants,1736 Commercial Dr,Thai,49.2689969,-123.0692568,Grandview-Woodland
Tandoori Palace,1439 Commercial Dr,Indian,49.2716292,-123.0699829,Grandview-Woodland
Tangent Cafe,2095 Commercial Dr,Pub,49.2660675,-123.0699631,Grandview-Woodland
Tatsu Japanese Bistro,1441 Commercial Dr,Japanese,49.2716228,-123.0698886,Grandview-Woodland
Thai Basil Restaurant,1179 Commercial Dr,Thai,49.2741724,-123.0698629,Grandview-Woodland
The Cannibal Cafe,1818 Commercial Dr,Fast Food,49.2683788,-123.0694713,Grandview-Woodland
The Charlatan,1447 Commercial Dr,Pub,49.2715434,-123.0697684,Grandview-Woodland
The Daily Catch,1418 Commercial Drive,Seafood,49.2718176,-123.0693452,Grandview-Woodland
The Dime,1565 Commercial Dr,Grill,49.2708234,-123.0699196,Grandview-Woodland
The Drive Coffee Bar,1670 Commercial Dr,Bar,49.2699198,-123.0692781,Grandview-Woodland
The Narcissus,Powell St 1701 Powell St #109,Cafe,49.2840267,-123.0701132,Grandview-Woodland
The Princeton Pub,1901 Powell St,Pub,49.2850084,-123.064968,Grandview-Woodland
The Red Wagon,2296 E Hastings St,Breakfast,49.2810265,-123.0580193,Grandview-Woodland
Timbertrain Coffee Depot,551 McLean Dr,Cafe,49.2797772,-123.0742899,Grandview-Woodland
Toscani,1321 Commercial Dr,Bar,49.2725609,-123.0697294,Grandview-Woodland
Tsolias Taverna,2277 East Hastings Street,Greek,49.2813001,-123.0584768,Grandview-Woodland
Ugly Dumpling,1590 Commercial Dr,Asian,49.2706489,-123.0694667,Grandview-Woodland
Uncle Fatih's Pizza - COMMERCIAL,1685 E Broadway,Fast Food,49.2624865,-123.0701321,Grandview-Woodland
Van Dragon Seafood Restaurant,2163 E Hastings St,Seafood,49.281302,-123.0601107,Grandview-Woodland
Vancity Fried Chicken,1678 Commercial Dr,Fast Food,49.2698887,-123.0694615,Grandview-Woodland
Vera's On The Drive,1438 Commercial Dr,Fast Food,49.2716434,-123.0694547,Grandview-Woodland
Via Tevere Pizzeria,1190 Victoria Dr,Fast Food,49.2738774,-123.0653991,Grandview-Woodland
Vietnam House Restaurant,2122 E Hastings St,Vietnamese,49.2809485,-123.0612294,Grandview-Woodland
Volcano Sushi & Grill,1991 E Hastings St,Japanese,49.281528,-123.063824,Grandview-Woodland
Windjammer Restaurant,937 Commercial Dr,British,49.2760328,-123.0696455,Grandview-Woodland
X-site East Van,2270 Hastings Street East,Latin,49.2810272,-123.0585509,Grandview-Woodland
Yama Cafe,2007 E Hastings St,Cafe,49.2814297,-123.0633912,Grandview-Woodland
Yan Bakery,2070 E Hastings St.,Bakery,49.280906,-123.0623788,Grandview-Woodland
Yolks,1598 E Hastings St,Breakfast,49.2811259,-123.072895,Grandview-Woodland
Zazie Vancouver,1859 Commercial Dr,Indian,49.2681046,-123.0699447,Grandview-Woodland
Bai Bua Thai Cuisine,1-2443 E Hastings St,Thai,49.2812869,-123.0556328,Hastings-Sunrise
Bao Chau,2717 E. Hastings St.,Vietnamese,49.2812747,-123.0489068,Hastings-Sunrise
Basil Garden,2889 E Broadway,Vietnamese,49.2622722,-123.0448569,Hastings-Sunrise
BeaverTails,2901 E Hastings St,Fast Food,49.2860651,-123.036971,Hastings-Sunrise
Bianca-Maria Italian Foods,2469 E Hastings St,Italian,49.2812849,-123.0553114,Hastings-Sunrise
Black Rook Bakehouse,2474 E Hastings St,Bakery,49.2809432,-123.0552077,Hastings-Sunrise
Blowfish Sushi & Japanese Food,2828 E Hastings St #107,Japanese,49.280817,-123.0459715,Hastings-Sunrise
Cindys Palace,1796 Nanaimo St,Chinese,49.2686838,-123.0562864,Hastings-Sunrise
Dairy Queen Grill & Chill,2805 E Hastings St E,Fast Food,49.2812091,-123.0466884,Hastings-Sunrise
East Cafe,2401 E Hastings St,Cafe,49.2813462,-123.0562671,Hastings-Sunrise
El Pulgarcito Restaurant,2522 E Hastings St,Salvadoran,49.281029,-123.0537945,Hastings-Sunrise
Fortune Court Seafood House,3555 E Hastings St,Seafood,49.2814873,-123.0270545,Hastings-Sunrise
Freshslice Pizza,2529 E Hastings St,Fast Food,49.2812847,-123.0538249,Hastings-Sunrise
Fuku Ramen,2800 E 1st Ave #114,Japanese,49.2687407,-123.0456402,Hastings-Sunrise
Giants Den,Pacific Coliseum,American,49.2858056,-123.0427306,Hastings-Sunrise
Hong Hong Bakery,2449 E Hastings St,Bakery,49.2812861,-123.0554932,Hastings-Sunrise
Indian Village Eatery,2745 E Hastings St #130,Indian,49.2813652,-123.0479261,Hastings-Sunrise
James on Hastings,2683 E Hastings St.,Chinese,49.2814925,-123.0498771,Hastings-Sunrise
Jiro Sushi & Ramen,1801 Renfrew St,Japanese,49.2683178,-123.0445229,Hastings-Sunrise
Johny's Shop,1375 Boundary Rd,Snack bar,49.2722689,-123.0242779,Hastings-Sunrise
Laksa King Restaurant,2546 East Hastings Street,Malay,49.2810252,-123.0533381,Hastings-Sunrise
Le Petit Saigon,2783 E Hastings,Vietnamese,49.281355,-123.0472672,Hastings-Sunrise
Le Pho Vietnamese Cuisine,2503 E Hastings St,Vietnamese,49.2812758,-123.0543241,Hastings-Sunrise
McDonald's,3695 Lougheed Highway,Fast Food,49.2659225,-123.0243296,Hastings-Sunrise
McDonald's,3444 E Hastings St,Fast Food,49.2808895,-123.0305558,Hastings-Sunrise
Mordimi bite of italy,2638 E Hastings St,Fast Food,49.2810072,-123.0509476,Hastings-Sunrise
Motonobu Udon,3501 E Hastings St,Japanese,49.2812657,-123.0280715,Hastings-Sunrise
New Brighton Pool Concession,3201 New Brighton Rd,Fast Food,49.2891534,-123.0344965,Hastings-Sunrise
Panago Pizza,1386 Nanaimo St,Fast Food,49.272479,-123.0561534,Hastings-Sunrise
Parker Street Caf√É¬©,985 Windermere St,Cafe,49.2755254,-123.0365055,Hastings-Sunrise
Pho Don,2838 E Hastings St #109,Vietnamese,49.2809719,-123.0451099,Hastings-Sunrise
Pine House Bakery Hastings,2462 E Hastings St,Bakery,49.2808969,-123.0554208,Hastings-Sunrise
Polonia Sausage House,2434 E Hastings St,Butcher,49.2810275,-123.0557606,Hastings-Sunrise
Poor Italian Trattoria,3296 E 1st Ave,Italian,49.2690821,-123.0341384,Hastings-Sunrise
PressBox Pub,2889 E Hastings St,Pub,49.2812958,-123.0453205,Hastings-Sunrise
RIB&CHICKEN,1660 Renfrew St,Korean,49.2698492,-123.0439297,Hastings-Sunrise
Riz Sushi Bar & Catering,2887 E. Broadway,Japanese,49.2622132,-123.0447988,Hastings-Sunrise
Roaming Dragon,100 Renfrew St,Asian,49.285843,-123.0426334,Hastings-Sunrise
Roundel Cafe,2465 E Hastings St,Cafe,49.2812781,-123.0553772,Hastings-Sunrise
Silks,188 N Renfrew St,Buffet,49.285492,-123.0401347,Hastings-Sunrise
Stickions Bistro,2679 E Hastings St,Bistro,49.2812897,-123.0500427,Hastings-Sunrise
Sushi Nanaimo,350 Nanaimo St,Japanese,49.2815242,-123.0562663,Hastings-Sunrise
Sushiholic,3311 East Broadway,Japanese,49.262059,-123.0332862,Hastings-Sunrise
Tamam Fine Palestinian Cuisine,2616 E Hastings St,Middle Eastern,49.2809355,-123.051436,Hastings-Sunrise
Tentatsu,2430 E Hastings St,Japanese,49.2809765,-123.0558969,Hastings-Sunrise
Thailicious,2404 E Hastings St,Thai,49.2810006,-123.0563166,Hastings-Sunrise
The Laughing Bean Coffee Co.,2695 E Hastings St,Coffee,49.2814832,-123.0496297,Hastings-Sunrise
Vallarta's Mexican Restaurant,2991 E. Broadway,Mexican,49.2621438,-123.0418284,Hastings-Sunrise
Vallarta's Mexican Restaurant,2891 E Broadway,Mexican,49.2623245,-123.0448669,Hastings-Sunrise
Vancity Pizza,2411 E Hastings St,Italian,49.2813327,-123.0562333,Hastings-Sunrise
Vietnamese tea house,2526 E Hastings St,Vietnamese,49.2810284,-123.0536915,Hastings-Sunrise
What's Up? Hot Dog!,2481 E Hastings St,Hot Dog,49.2812846,-123.0550644,Hastings-Sunrise
Whiskey Six BBQ,826 Renfrew St,BBQ,49.2770139,-123.0438715,Hastings-Sunrise
Yook Korean Grilled BBQ & Bistro (√¨¬ú¬° √¨¬Ω¬î√´¬¶¬¨√¨¬ï¬à √´¬∞¬î√´¬≤¬†√≠¬Å¬ê,2408 Nanaimo St,Korean,49.2627316,-123.0563706,Hastings-Sunrise
Adelitas Mexican Food,4180 Victoria Dr,Mexican,49.2478543,-123.0647838,Kensington-Cedar Cottage
Adelitas Restaurant,5178 Victoria Dr,Mexican,49.2377146,-123.0651428,Kensington-Cedar Cottage
Amay√¢¬Ä¬ôs House,5076 Victoria Dr,Burmese,49.238338,-123.0650596,Kensington-Cedar Cottage
Ananda Bhavan,2269 Kingsway,Indian,49.242527,-123.0588043,Kensington-Cedar Cottage
Aree Thai,1150 Kingsway,Thai,49.2524171,-123.0810365,Kensington-Cedar Cottage
Ashiana Tandoori,1440 Kingsway,Indian,49.2492719,-123.0745971,Kensington-Cedar Cottage
BT Cafe Ltd,920 Kingsway,Cafe,49.2542716,-123.0851632,Kensington-Cedar Cottage
Bakery Sate,2879 Commercial Drive,Bakery,49.2589765,-123.0700724,Kensington-Cedar Cottage
Bandidas Taqueria,2781 Commercial Dr,Vegetarian,49.259773,-123.0700275,Kensington-Cedar Cottage
Banh Mi Saigon,5397 Victoria Dr,Vietnamese,49.235361,-123.0657601,Kensington-Cedar Cottage
Banner's Restaurant,1680 E. 12th Ave,Diner,49.2592806,-123.0702968,Kensington-Cedar Cottage
Bee Kim Heng,4194 Fraser St,Chinese,49.2477076,-123.0898537,Kensington-Cedar Cottage
Benss Cafe,5628 Victoria Drive,Chinese,49.2335841,-123.0653705,Kensington-Cedar Cottage
Bonjour Vietnam Bistro,3944 Fraser St,Vietnamese,49.249656,-123.0899331,Kensington-Cedar Cottage
Boteco Brasil Restaurant,2545 Nanaimo St,Brazilian,49.2615824,-123.05697,Kensington-Cedar Cottage
Broadway Station Sushi,1638 E Broadway #101,Japanese,49.2621869,-123.0708126,Kensington-Cedar Cottage
Bun Cha Ca Hoang Yen,5083 Victoria Dr,Vietnamese,49.2385267,-123.0655737,Kensington-Cedar Cottage
B√É¬¢tard Boulangerie & Cafe Moderne,3958 Fraser St,Cafe,49.2495562,-123.0898771,Kensington-Cedar Cottage
Cafe Dang Anh,1C9 5186 Victoria Dr,Vietnamese,49.2376066,-123.0651502,Kensington-Cedar Cottage
Cafe Lu Quan,1279 Kingsway,Vietnamese,49.2516689,-123.0783846,Kensington-Cedar Cottage
Cafe Xu Hue,2226 Kingsway,Vietnamese,49.2427614,-123.0604391,Kensington-Cedar Cottage
Camy's Pizza | Best Pizza Shop in Vancouver | Indian Cuisine TakeOut | Best Butter Chicken Pizza and Shahi Paneer Pizza,5688 Fraser St,Fast Food,49.2331627,-123.0900096,Kensington-Cedar Cottage
Cedar Cottage Neighbourhood Pub,3728 Clark Dr,Pub,49.2513767,-123.0775691,Kensington-Cedar Cottage
Cedar Cottage Pub,1261 Kingsway,American,49.2516836,-123.0786553,Kensington-Cedar Cottage
Chau Veggie Express,5052 Victoria Dr,Vietnamese,49.2385526,-123.0651974,Kensington-Cedar Cottage
Cheo Leo,1330 Kingsway,Vietnamese,49.2505903,-123.0773857,Kensington-Cedar Cottage
Circus Play Cafe,1650 East 12th Ave,Cafe,49.2593198,-123.0705747,Kensington-Cedar Cottage
Commercial Street Cafe,3599 Commercial St,Cafe,49.2526241,-123.0682933,Kensington-Cedar Cottage
Commercial Sushi,2575 Commercial Dr,Japanese,49.2616204,-123.0700627,Kensington-Cedar Cottage
Dai Tung Chinese Seafood Restaurant,1050 Kingsway,Chinese,49.2531346,-123.0830035,Kensington-Cedar Cottage
Dairy Queen Grill & Chill,4990 Victoria Dr,Fast Food,49.239075,-123.0650184,Kensington-Cedar Cottage
De Dutch Pannekoek House,4003 Knight Street,Breakfast,49.2488652,-123.0766036,Kensington-Cedar Cottage
Deutsches Haus (Vancouver Alpen Club,4875 Victoria Dr,German,49.2405004,-123.0656204,Kensington-Cedar Cottage
Do Chay,1392 Kingsway,Vietnamese,49.2500602,-123.0764991,Kensington-Cedar Cottage
Dong Phuong Vietnamese Restaurant,1188 Kingsway,Vietnamese,49.2519365,-123.080312,Kensington-Cedar Cottage
Duffin's Donuts,1391 E 41st Ave.,Desert,49.2329912,-123.0776955,Kensington-Cedar Cottage
Earnest Ice Cream,3992 Fraser St,Ice Cream,49.2493709,-123.0899236,Kensington-Cedar Cottage
El Caracol Cafe,5190 Victoria Dr,Salvadoran,49.2375504,-123.065129,Kensington-Cedar Cottage
European Breads Bakery,4324 Fraser St.,Bakery,49.2463266,-123.0900346,Kensington-Cedar Cottage
European Breads Bakery,4320 Fraser St,Bakery,49.2463688,-123.0900345,Kensington-Cedar Cottage
Falafel Caf√É¬©,1385 Kingsway,Falafel,49.250537,-123.076518,Kensington-Cedar Cottage
Fatty Cow Seafood Hotpot,5108 Victoria Dr,Chinese,49.2380136,-123.0651025,Kensington-Cedar Cottage
Float On Bakeshop & Cafe,4384 Fraser St,Cafe,49.2457271,-123.0898687,Kensington-Cedar Cottage
Flourist,Free Delivery + Pickup Only 3433 Commercial St,Bakery,49.2539102,-123.0682543,Kensington-Cedar Cottage
Freshslice Pizza,2582 Commercial Dr,Fast Food,49.2615741,-123.0695128,Kensington-Cedar Cottage
Gojo Cafe,2838 Commercial Drive,African,49.2591178,-123.0695691,Kensington-Cedar Cottage
Golden Eats Seafood Restaurant,2141 Kingsway,Chinese,49.244215,-123.062803,Kensington-Cedar Cottage
Golden Joy Restaurant,4288 Fraser St,Filipino,49.2468257,-123.0899546,Kensington-Cedar Cottage
Golden Swan Restaurant,5380 Victoria Street,Chinese,49.2361564,-123.0650787,Kensington-Cedar Cottage
Golden Swan Restaurant,5380 Victoria Dr,Chinese,49.2361844,-123.0649258,Kensington-Cedar Cottage
Got Pho Thien Kim,2523 Nanaimo St,Vietnamese,49.2618001,-123.0568296,Kensington-Cedar Cottage
Grace of India,1284 Kingsway,Indian,49.2511311,-123.0785381,Kensington-Cedar Cottage
Green Lemongrass,1086 Kingsway,Vietnamese,49.2529471,-123.0822846,Kensington-Cedar Cottage
Green Lettuce,1949 Kingsway,South Asian,49.2457947,-123.0659378,Kensington-Cedar Cottage
Hai Phong,1246 Kingsway,Vietnamese,49.2511628,-123.0790452,Kensington-Cedar Cottage
Hanoi Old Quarter Restaurant,5207 Victoria Dr,Vietnamese,49.2373775,-123.0656173,Kensington-Cedar Cottage
Hapag Ihaw-Ihaw Restaurant,5432 Victoria Dr,Filipino,49.2355374,-123.0652908,Kensington-Cedar Cottage
Happy Family Restaurant,2178 Kingsway,Chinese,49.2435351,-123.0624268,Kensington-Cedar Cottage
Happy Sushi,5632 Victoria Dr,Japanese,49.2335229,-123.0653115,Kensington-Cedar Cottage
Hoang Yen,5338 Victoria Dr.,Vietnamese,49.2364522,-123.0652317,Kensington-Cedar Cottage
Hoi An Cafe,5002 Victoria Dr,Vietnamese,49.2388048,-123.0651262,Kensington-Cedar Cottage
House Of Dosas,1391 Kingsway,Indian,49.250466,-123.0763303,Kensington-Cedar Cottage
Hoy's Won Ton House,1202 Kingsway,Chinese,49.2516103,-123.0796002,Kensington-Cedar Cottage
Icy Bar Knight √•¬à¬©√¶¬∫¬ê√•¬Ü¬∞√•¬∫¬ó,1475 Kingsway,Dessert,49.2494794,-123.0739148,Kensington-Cedar Cottage
Indian Bay Leaf,4890 Victoria Dr,Indian,49.2401042,-123.0649584,Kensington-Cedar Cottage
J.R Taste Of Ceylon,3929 Knight St,Sri Lankan,49.2494185,-123.0763349,Kensington-Cedar Cottage
John Hendry Park (Trout Lake Park,3300 Victoria Dr,Park,49.2568665,-123.0660147,Kensington-Cedar Cottage
KFC,2190 Kingsway,Fast Food,49.2434777,-123.0622015,Kensington-Cedar Cottage
Kalvin's Restaurant,5225 Victoria Dr,Chinese,49.2372789,-123.0656188,Kensington-Cedar Cottage
Ken's Chinese Restaurant,1097 kingsway,Chinese,49.2534996,-123.0821913,Kensington-Cedar Cottage
Kent's Kitchen √¶¬¨¬ä√®¬®¬ò,5659 Victoria Dr,Chinese,49.2331219,-123.0658535,Kensington-Cedar Cottage
Kings Cafe,2223 Kingsway,Cafe,49.2430909,-123.0603443,Kensington-Cedar Cottage
Kokoro Ramen,5695 Victoria Dr,Japanese,49.2328812,-123.0657482,Kensington-Cedar Cottage
Koon Bo Restaurant √•¬Ü¬†√•¬Ø¬∂√ß¬æ¬é√©¬£¬ü√§¬π¬ã√•¬Æ¬∂,5682 Fraser St,Seafood,49.2332615,-123.0901367,Kensington-Cedar Cottage
Kyle's Cafe,2627 Commercial Drive,Chinese,49.2609735,-123.0700354,Kensington-Cedar Cottage
LE BL CAF√É¬â,5088 Victoria Dr,Vietnamese,49.2382751,-123.0652076,Kensington-Cedar Cottage
La Maison Da Nang,5195 Victoria Dr,Vietnamese,49.2376466,-123.0658125,Kensington-Cedar Cottage
Lam Hoa Quan,5073 Victoria Drive,Vietnamese,49.2386698,-123.0655885,Kensington-Cedar Cottage
Masayoshi,4376 Fraser St,Japanese,49.2457987,-123.0900391,Kensington-Cedar Cottage
McDonald's,5661 Victoria Dr,Fast Food,49.2331558,-123.0658793,Kensington-Cedar Cottage
McDonald's,2021 Kingsway,Fast Food,49.2452244,-123.0641417,Kensington-Cedar Cottage
McDonald's,2570 Commercial Dr,Fast Food,49.2617391,-123.0695017,Kensington-Cedar Cottage
Mui Ngo Gai Restaurant,2052 Kingsway,Vietnamese,49.2445738,-123.0645772,Kensington-Cedar Cottage
My Chau Restaurant,1715 Kingsway,Vietnamese,49.2472777,-123.0693067,Kensington-Cedar Cottage
Nammos Estiatorio,3980 Fraser St,Greek,49.2494546,-123.0898053,Kensington-Cedar Cottage
Naruto Sushi,2763 Commercial Drive,Japanese,49.2599555,-123.0700561,Kensington-Cedar Cottage
Ngon Vancouver,2228 Kingsway,Sandwich,49.2427359,-123.0603826,Kensington-Cedar Cottage
Nooru Mahal,4354 Fraser St,Indian,49.2460302,-123.08996,Kensington-Cedar Cottage
OKA-SAN KITCHEN,3578 Fraser St,Japanese,49.2531662,-123.0896209,Kensington-Cedar Cottage
Penang Bistro,3960 Fraser St,Malay,49.2495413,-123.0899132,Kensington-Cedar Cottage
Penang Bistro Fine Malaysian Cuisine,3932 Fraser St,Malaysian,49.24975,-123.089928,Kensington-Cedar Cottage
Pho Duy Restaurant,1996 Kingsway,Vietnamese,49.2450747,-123.0653764,Kensington-Cedar Cottage
Pho Ga VnChicken Noodles,5026 Victoria Dr,Vietnamese,49.238702,-123.065214,Kensington-Cedar Cottage
Pho Hoa + Jazen Tea - Kingsway,2257 Kingsway,Vietnamese,49.2426317,-123.0592661,Kensington-Cedar Cottage
Pho Long Restaurant,3370 Fraser St,Vietnamese,49.2549583,-123.0895353,Kensington-Cedar Cottage
Pho Quyen Restaurant,3916 Fraser St,Vietnamese,49.2498702,-123.0896868,Kensington-Cedar Cottage
Pho Thai Hang 2 Restaurant,1962 Kingsway,Vietnamese,49.2452153,-123.0657358,Kensington-Cedar Cottage
Pho Thai Hoa Restaurant,1625 Kingsway,Thai,49.2481213,-123.071125,Kensington-Cedar Cottage
Pho Thuan An,789 Kingsway,Vietnamese,49.2558079,-123.0875334,Kensington-Cedar Cottage
Pho hue,5497 Victoria Dr,Vietnamese,49.2346282,-123.0656954,Kensington-Cedar Cottage
Pink Peppercorn Seafood House,1486 Kingsway St,Seafood,49.2489809,-123.0739238,Kensington-Cedar Cottage
Pink Peppercorn Seafood House,1485 Kingsway,Seafood,49.2493907,-123.0736372,Kensington-Cedar Cottage
Po Kong,1334 Kingsway,Vegetarian,49.2505555,-123.0773747,Kensington-Cedar Cottage
Quiznos,2580 Commercial Dr,Sandwich,49.2616352,-123.0694952,Kensington-Cedar Cottage
Sandy La Chinese Restaurant,5257 Victoria Dr,Chinese,49.2370473,-123.0656135,Kensington-Cedar Cottage
Seoul Doogbaegi House,1031 Kingsway,Korean,49.2537375,-123.0830987,Kensington-Cedar Cottage
Shima-Ya Sushi,5589 Victoria Dr,Japanese,49.2337864,-123.0657079,Kensington-Cedar Cottage
Shiok Singaporean Cuisine,1716 Kingsway,Singaporean,49.2469252,-123.0695155,Kensington-Cedar Cottage
Starbucks,2517 Commercial Dr,Coffee,49.2619462,-123.0701175,Kensington-Cedar Cottage
Subway,1773 Kingsway,Sandwich,49.246797,-123.0682872,Kensington-Cedar Cottage
Subway,4108 Fraser Street,Sandwich,49.2484391,-123.0898488,Kensington-Cedar Cottage
Sun Bo Kong,1363 Kingsway,Vegetarian,49.250878,-123.0769121,Kensington-Cedar Cottage
Sun Tin Day Cafe,5137 Victoria Dr,Chinese,49.2379826,-123.0658152,Kensington-Cedar Cottage
Sushi By Yuji,2252 Kingsway,Japanese,49.2424827,-123.0598354,Kensington-Cedar Cottage
Szechuan Chongqing Restaurant,2808 Commercial Drive,Chinese,49.2593024,-123.0695171,Kensington-Cedar Cottage
Thanh Thanh,775 Kingsway,Vietnamese,49.2560047,-123.0878382,Kensington-Cedar Cottage
The Pizza King,1464 E Broadway,Fast Food,49.2621968,-123.0742766,Kensington-Cedar Cottage
The Tipper,2066 Kingsway,American,49.2444802,-123.0644541,Kensington-Cedar Cottage
Tim Hortons,5698 Victoria Dr,Fast Food,49.2330736,-123.065215,Kensington-Cedar Cottage
Trung Nguyen Cafe,1441 Kingsway,Vietnamese,49.2497387,-123.0747372,Kensington-Cedar Cottage
Truong Thanh Restaurant,2096 Kingsway,Vietnamese,49.2443598,-123.0641388,Kensington-Cedar Cottage
Tung Hing Bakery,1196 Kingsway,Vietnamese,49.2519633,-123.0801494,Kensington-Cedar Cottage
Vegan Pizza House,2119 Kingsway,Fast Food,49.2443956,-123.0631994,Kensington-Cedar Cottage
Veggiebowl,2222 Kingsway,Vegetarian,49.2428328,-123.0605746,Kensington-Cedar Cottage
Viet Mama Cafe,5118 Victoria Dr,Vietnamese,49.23796,-123.0652168,Kensington-Cedar Cottage
Viva Sushi Bar,CA BC Vancouver 1947 Kingsway,Japanese,49.2458048,-123.0660097,Kensington-Cedar Cottage
Western Lake Chinese Seafood Restaurant,4989 Victoria Dr,Chinese,49.239343,-123.0655693,Kensington-Cedar Cottage
White Spot,1476 Kingsway,Fast Food,49.2489856,-123.0742081,Kensington-Cedar Cottage
Zamzam Grill,2128 Kingsway,Middle Eastern,49.2441049,-123.0633754,Kensington-Cedar Cottage
Zofia Polish Store,4007 Knight St,Polish,49.2487759,-123.0766026,Kensington-Cedar Cottage
√¶¬ô¬Ç√§¬ª¬£√¶¬ñ¬á√®¬è¬Ø√¶¬µ¬∑√©¬Æ¬Æ√©¬Ö¬í√•¬Æ¬∂ New Mandarin Seafood Restaurant,4650 Gladstone St,Chinese,49.2431012,-123.0620071,Kensington-Cedar Cottage
ASA Sushi,2178 W 41st Ave,Japanese,49.234509,-123.1580221,Kerrisdale
Ajisai 2 Go,2087 W 42nd Ave,Japanese,49.2337368,-123.154002,Kerrisdale
BBT Caf¬é,5979 West Blvd,Chinese,49.2321709,-123.1558937,Kerrisdale
Baoguette Vietnamese Bistro,2114 W 41st Ave,Vietnamese,49.234477,-123.1561885,Kerrisdale
Bean Around The World,1846 W 57th Ave,Cafe,49.2192328,-123.1492104,Kerrisdale
Burrata Pizzeria,2104 W 41st Ave,Fast Food,49.2344827,-123.1559335,Kerrisdale
COBS Bread,2174 W 41st Ave,Bakery,49.2345035,-123.1578179,Kerrisdale
Caffe Artigiano,2154 W 41st Ave,Cafe,49.2344246,-123.1573023,Kerrisdale
Chef Hung Taiwanese Beef Noodle,2028 W 41st Ave,Chinese,49.2344053,-123.1529635,Kerrisdale
Chi Noodle Bar,6019 West Blvd,Noodle,49.2316206,-123.1558541,Kerrisdale
Faubourg Bistro,2156 W 41st Ave,Cafe,49.2343768,-123.1574157,Kerrisdale
George's Pizza,6109 West Blvd,Fast Food,49.2306249,-123.1558819,Kerrisdale
Golden Ocean Seafood Restaurant,2046 W 41st Ave,Chinese,49.2343419,-123.1533765,Kerrisdale
Grand Honour Restaurant √©¬ò¬ø√§¬∏¬Ä√©¬≤¬ç√ß¬ø¬Ö,5701 Granville St B1,Chinese,49.2341451,-123.140103,Kerrisdale
Hikari Cafe,5701 Granville St,Japanese,49.2340907,-123.14012,Kerrisdale
Irashai Sushi,2260 W 41st Ave,Japanese,49.2344862,-123.1593285,Kerrisdale
Jiu Jiang Japanese Restaurant,5707 Balsam St,Japanese,49.2343872,-123.1615111,Kerrisdale
Khao Thai by Legato Cafe,2248 W 41st Ave,Thai,49.2344901,-123.1592032,Kerrisdale
Kyuzo Japanese Restaurant,5701 Granville St #112,Japanese,49.2338988,-123.1400315,Kerrisdale
Lok's Chinese Restaurant,2436 W 41st Ave,Chinese,49.234479,-123.1618424,Kerrisdale
Maple Grove Park Concession,6875 Yew St,Fast Food,49.2231011,-123.159651,Kerrisdale
Me + Crepe,5971 West Blvd,Diner,49.2322068,-123.1558017,Kerrisdale
Michele Cake Shop,6033 West Blvd,Bakery,49.2314497,-123.1558396,Kerrisdale
Modern City Chinese Restaurant,2106 West 41st Ave,Chinese,49.2344108,-123.1561078,Kerrisdale
My Cup,2098 W. 41st Ave,Dessert,49.234297,-123.1547419,Kerrisdale
Nando's Kerrisdale,2064 W 41st Ave,Chicken,49.2342436,-123.1540599,Kerrisdale
New Chong Qing Restaurant,2044 W 41st Ave,Chinese,49.2344122,-123.1533619,Kerrisdale
Pho Tan Vietnamese Restaurant Beef Noodle Soup & Bubble Tea,2076 W 41st Ave,Vietnamese,49.2344534,-123.1544022,Kerrisdale
Senova,1864 W. 57th Avenue,Spanish,49.2192004,-123.1493047,Kerrisdale
Shannon Mews Park,43 W 57th Ave,Park,49.2194824,-123.1414575,Kerrisdale
Southern Delicacy,6055 West Blvd,Chinese,49.23135,-123.1559366,Kerrisdale
Sushi Bar Ajisai,2081 W 42nd Ave,Japanese,49.233934,-123.1536816,Kerrisdale
Sweet E's Pastries & Sweets,2032 W41 ave,Bakery,49.2343209,-123.1530873,Kerrisdale
Tao's Kitchen,5701 Granville St #110,Chinese,49.2339553,-123.1399271,Kerrisdale
√ß¬É¬´WORLD √©¬∫¬ª√®¬æ¬£√ß¬É¬´,East Blvd CA BC Vancouver,Chinese,49.2327901,-123.1550412,Kerrisdale
54th Ave Cafe,7088 Kerr St,Chinese,49.2192575,-123.0411135,Killarney
A&W Canada,7092 Kerr St,Fast Food,49.2192674,-123.0408866,Killarney
Booster Juice,3555 Sawmill Crescent,Juice,49.2059154,-123.0297006,Killarney
Chosun Korean BBQ,3486 Kingsway,Korean,49.2317416,-123.0303984,Killarney
Domino's Pizza,5522 Joyce St,Fast Food,49.2334446,-123.0360016,Killarney
Futian Dumpling Restaurant,3490 Kingsway #7,Chinese,49.2317297,-123.0299525,Killarney
Happy Day Cafe (Vancouver,3312 Kingsway,Chinese,49.2335577,-123.0353925,Killarney
Happy Tree House BBQ Kingsway,3502 Kingsway,Chinese,49.2318634,-123.0289157,Killarney
Honolulu Cafe,3340 Kingsway,Chinese,49.2331602,-123.0345164,Killarney
Kinemi's Kitchen,7751 Champlain Cres,Italian,49.2149295,-123.0304365,Killarney
Kung Fu Noodle Kingsway√¢¬Ä¬ìJoyce,5615 Harold St,Noodle,49.2334472,-123.0353403,Killarney
Little Caesars Pizza,7052 Kerr St,Fast Food,49.2196088,-123.0407749,Killarney
Love for Pho,3524 Kingsway,Vietnamese,49.2317099,-123.0281859,Killarney
Max's Restaurant Cuisine of the Philippines Vancouver,3546 Kingsway,Filipino,49.231954,-123.0273921,Killarney
Panago Pizza,3458 Sawmill Crescent,Fast Food,49.2058552,-123.0318989,Killarney
Panago Pizza,5738 Tyne St,Fast Food,49.2314324,-123.0315171,Killarney
Papa John's Pizza,#300-3320 Kingsway,Fast Food,49.2333626,-123.0348768,Killarney
Pine House Bread & Cake Shop,3396 Kingsway,Bakery,49.2327319,-123.033529,Killarney
Romer's Burger Bar,8683 Kerr St,Fast Food,49.2058825,-123.0426519,Killarney
Starbucks,3410 Kingsway,Coffee,49.2321398,-123.0332299,Killarney
Subway,7172 Kerr St,Sandwich,49.2189764,-123.040185,Killarney
Sushi Go,7026 Kerr St,Japanese,49.2195921,-123.0410176,Killarney
Sushi Mura,3545 Sawmill Cres.,Japanese,49.2059612,-123.0299039,Killarney
Tasty Wok,7190 Kerr St,Chinese,49.2188279,-123.0398271,Killarney
Tasty Wok,7180 Kerr St,Chinese,49.2188426,-123.039869,Killarney
Todak Todak,3510 Kingsway,Korean,49.2317509,-123.0287484,Killarney
Village Pub,7725 Champlain Cres,Pub,49.2152249,-123.030586,Killarney
Wang's Shanghai Cuisine,3328 Kingsway #110,Chinese,49.2331241,-123.0344459,Killarney
√•¬à¬©√¶¬∫¬ê√•¬Ü¬∞√•¬∫¬ó Icy Bar Boundary,3618 Kingsway,Dessert,49.2320601,-123.0260584,Killarney
√•¬ì¬Å√§¬∏¬Ä√•¬ì¬Å√ß¬ß¬ò√®¬£¬Ω√©¬¶¬ô√®¬æ¬£√©¬ç¬ã Chef Pin,3292 Kingsway,Chinese,49.233834,-123.03582,Killarney
√©¬í¬¢√ß¬Æ¬°√•¬é¬Ç√§¬∫¬î√•¬å¬∫√•¬∞¬è√©¬É¬°√®¬Ç¬ù√ß¬Å¬´√©¬î¬Ö√§¬∏¬≤√§¬∏¬≤√©¬¶¬ô HOT POT Master,5737 Battison St,Chinese,49.2315968,-123.0308143,Killarney
7seas Fish Market on Fourth,2328 W 4th Ave,Seafood,49.2680209,-123.1582218,Kitsilano
Ah Long Sushi,2697 W Broadway,Japanese,49.2641934,-123.1662771,Kitsilano
Ajiya Sushi,1822 W 4th Ave,Japanese,49.267819,-123.1462231,Kitsilano
Akbar's Own Indian Restaurant,1905 W Broadway,Indian,49.2640234,-123.1484033,Kitsilano
Al Basha,3143 W Broadway,Middle Eastern,49.2643191,-123.1749915,Kitsilano
Al Basha,1937 Cornwall Ave,Halal,49.2726108,-123.1485271,Kitsilano
AnnaLena,1809 W 1st Ave,Canadian,49.2708261,-123.1467714,Kitsilano
Aperture Coffee Bar,W Broadway,Coffee,49.2637646,-123.14866,Kitsilano
Aphrodite's Organic Cafe,3605 W 4th Ave,Health Food,49.2687759,-123.1838257,Kitsilano
Arbutus Coffee,2200 Arbutus St,Cafe,49.2662302,-123.1526576,Kitsilano
Au Comptoir,2278 W 4th Ave,French,49.2679582,-123.1570401,Kitsilano
Banana Leaf in Kitsilano,3005 W Broadway,Malaysian,49.2643597,-123.1723017,Kitsilano
Bangkok City Cafe,2-2953 W 4th Ave,Thai,49.2681344,-123.1676349,Kitsilano
Bangkok City Cafe,2953 W 4th Ave,Thai,49.2685582,-123.1706353,Kitsilano
Best Falafel Kitsilano,1859 W 4th Ave,Middle Eastern,49.2683119,-123.1470673,Kitsilano
Beyond Bread,3686 W 4th Ave,Bakery,49.2684702,-123.1852714,Kitsilano
BiBo Pizzeria con Cucina,1835 W 4th Ave,Fast Food,49.2682628,-123.1465315,Kitsilano
Bishop's,2183 W 4th Ave,Pacific Northwest,49.2683236,-123.1547032,Kitsilano
Bistro Pastis,2153 W 4th Ave,French,49.268274,-123.154001,Kitsilano
Blaq Sheep Coffee House,2959 W 4th Ave,Cafe,49.2686552,-123.1708359,Kitsilano
Burgoo Bistro,2272 W 4th Ave,Mac & Cheese,49.2679804,-123.1568339,Kitsilano
Burrito Bros.,2209 W 1st Ave,Mexican,49.2709401,-123.155482,Kitsilano
COBS Bread,2320 West 4th Ave,Bakery,49.2680397,-123.1579916,Kitsilano
Cafe Zen On Yew,1631 Yew St,Breakfast,49.2711495,-123.1551892,Kitsilano
Caff√É¬© W,3646 W Broadway,Cafe,49.2642173,-123.1847424,Kitsilano
Cartems Donuts,3040 W Broadway,Donuts,49.2640281,-123.1728983,Kitsilano
Charqui,1955 Cornwall Ave,Grill,49.2726202,-123.1492414,Kitsilano
Chewies Smoke & Oyster Bar Kitsilano,2201 W 1st Ave,Bar,49.2709727,-123.1552829,Kitsilano
Chewie√¢¬Ä¬ôs Biscuit Co,2822 W 4th Ave,Fast Food,49.2682406,-123.1687859,Kitsilano
Chi Vegan,1935 W 4th Ave,Vegan,49.2682575,-123.1488595,Kitsilano
Connie's Cook House,2135 W 4th Ave,Chinese,49.2682704,-123.1536883,Kitsilano
Coppertank Grill,3162 W Broadway,Grill,49.2640026,-123.1753383,Kitsilano
Dairy Queen,2601 Broadway W,Fast Food,49.2642205,-123.1648956,Kitsilano
Deacon's Corner Kits,3189 W Broadway,Diner,49.2643674,-123.1757517,Kitsilano
Dharma Kitchen,3667 W Broadway,Vegan,49.26458,-123.1852558,Kitsilano
Dijon Kitchen - Vietnamese Street Food,3648 W Broadway,Vietnamese,49.2641979,-123.1848604,Kitsilano
Domino's Pizza,2958 Broadway W,Fast Food,49.2639972,-123.1713726,Kitsilano
Donair Dude,3209 W Broadway,Fast Food,49.264334,-123.176389,Kitsilano
Double DD Pizza,3510 W 4th Ave,Greek,49.2684317,-123.1821449,Kitsilano
D√É¬∂ner Kebab,1956 W 4th Ave,Middle Eastern,49.2679155,-123.1492544,Kitsilano
East Is East,3035 W Broadway,Middle Eastern,49.2643887,-123.1726934,Kitsilano
East is East,3243 W Broadway,Middle Eastern,49.2643611,-123.1767176,Kitsilano
Edible Flours,2280 W Broadway,Vegetarian,49.2636572,-123.1566597,Kitsilano
Evelyn's Cafe & Bistro,2176 W Broadway,Bistro,49.2636815,-123.154618,Kitsilano
Fiore Famiglia,2603 W 16th Ave,Italian,49.2578287,-123.1651169,Kitsilano
Flying Wedge Pizza Co,1935 Cornwall Ave,Fast Food,49.2726111,-123.1485125,Kitsilano
Fresh Ideas Start Here,2959 W Broadway,Seafood,49.2643885,-123.1715941,Kitsilano
Fresh is Best,2972 W. Broadway Street,Mexican,49.2639283,-123.1715746,Kitsilano
Glory Juice Co.,2186 W 4th Ave,Juice,49.2686151,-123.1846764,Kitsilano
Gramercy Grill,Arbutus St,Canadian,49.2572832,-123.1529867,Kitsilano
Great Wall Mongolian B.B.Q,2897 W Broadway,BBQ,49.2642309,-123.1703606,Kitsilano
Green Leaf Sushi,3416 W Broadway,Japanese,49.264136,-123.180152,Kitsilano
Gyo Para Gyoza & Ramen Bar,2120 W Broadway,Japanese,49.2637073,-123.1534552,Kitsilano
Gypsy Rose Cafe,2017 4th Avenue West,Cafe,49.2683163,-123.1508418,Kitsilano
Handi Grill,3618 W Broadway,Indian,49.2642143,-123.1840813,Kitsilano
Harvest Deli,2963 W Broadway,Sandwich,49.2642872,-123.1717761,Kitsilano
Healthy Noodle House,2716 W 4th Ave,Noodle,49.2682121,-123.1668536,Kitsilano
Hi-Nippon Japanese Restaurant,2274 W 4th Ave,Japanese,49.268006,-123.1569265,Kitsilano
Hitoe Sushi gluten free,3347 W 4th Ave,Japanese,49.2686543,-123.1787084,Kitsilano
Hu Tong Kao Ya,2942 W Broadway,Chinese,49.2638571,-123.1712447,Kitsilano
Iki Japanese Restaurant,2756 W Broadway,Japanese,49.2638546,-123.1674147,Kitsilano
Indian Oven,2006 W 4th Ave,Indian,49.2678849,-123.1506642,Kitsilano
Irori Sushi,3692 W 4th Ave,Japanese,49.2683828,-123.1853562,Kitsilano
Jinya Express Ramen,153 W 4th Ave,Japanese,49.2685059,-123.177719,Kitsilano
Jitters Caffe,1966 W 4th Ave,Cafe,49.2679326,-123.1494249,Kitsilano
Jolly's Indian Bistro,2928 W 4th Ave,Indian,49.268272,-123.1707281,Kitsilano
Juliet√¢¬Ä¬ôs Caf√É¬©,1905 Cornwall Ave,Cafe,49.2726708,-123.1481185,Kitsilano
Jun Sushi Japanese Restaurant,3309 W Broadway,Japanese,49.2645071,-123.1783067,Kitsilano
Kibune Sushi Restaurant,1508 Yew St,Japanese,49.2723871,-123.1548029,Kitsilano
Kits Sushi,1518 Yew St.,Japanese,49.2722271,-123.1548526,Kitsilano
Kokomo,2028 Vine St,Vegan,49.2678921,-123.1573825,Kitsilano
L'ufficio,3687 W 4th Ave,Italian,49.2687419,-123.1853333,Kitsilano
La Baguette et Compagnie,3273 W Broadway,Bakery,49.264415,-123.1772303,Kitsilano
La Cigale Bistro,1961 W 4th Ave,French,49.2682732,-123.1494515,Kitsilano
La Quercia,3689 W 4th Ave,Italian,49.2687506,-123.1854023,Kitsilano
Las Margaritas,1999 W 4th Ave,Mexican,49.2683213,-123.1501626,Kitsilano
Linh Caf√É¬©,2836 W 4th Ave,Vietnamese,49.2682348,-123.1690502,Kitsilano
Little Bird Dim Sum + Craft Beer,2958 W 4th Ave,Chinese,49.2683013,-123.1715524,Kitsilano
Local Kitsilano,2210 Cornwall Ave,American,49.2723249,-123.1553524,Kitsilano
Lucky Taco,1685 Yew St,Mexican,49.2710205,-123.1551751,Kitsilano
Lucky Taco,1635 Yew St,Mexican,49.2711044,-123.1552032,Kitsilano
MAK N MING,1629 Yew Street,Asian,49.2712175,-123.1551643,Kitsilano
Maenam,1938 W 4th Ave,Thai,49.2678675,-123.1488949,Kitsilano
Mamalee,3144 W Broadway,Malaysian,49.2640744,-123.1750357,Kitsilano
Maria's Taverna,2324 W 4th Ave,Greek,49.2679886,-123.158081,Kitsilano
Market Meats,2326 West 4th Ave,Deli,49.2679708,-123.1581359,Kitsilano
Mazuya Sushi Restaurant,2355 Burrard St,Japanese,49.265004,-123.145892,Kitsilano
McDonald's,3308 W Broadway,Fast Food,49.2640213,-123.1781943,Kitsilano
McDonald's,2391 W 4th Ave,Fast Food,49.2683903,-123.1594164,Kitsilano
Mi Casa Mexicana,2015 Burrard St,Mexican,49.2678281,-123.1459089,Kitsilano
Mi Mary's Noodle and Liquor Bar √¶¬≤¬≥√•¬ç¬ó√ß¬É¬©√©¬ù¬¢,3188 Macdonald St,Chinese,49.2579641,-123.1682216,Kitsilano
Midam Cafe - Vancouver,3211 W Broadway,Korean,49.2644249,-123.1764298,Kitsilano
Mr. Falafel,3685 W 10th Ave,Middle Eastern,49.2637593,-123.1854072,Kitsilano
Mr. Red Cafe,2680 W Broadway,Vietnamese,49.2638617,-123.1658286,Kitsilano
Napoletana,2576 Arbutus St,Fast Food,49.2630191,-123.1527858,Kitsilano
Nat's New York Pizzeria,2684 W Broadway,Fast Food,49.2638609,-123.1659229,Kitsilano
Nelly's Grill,2061 W 4th Ave,Breakfast,49.2682215,-123.1518528,Kitsilano
Noodlebox,1867 W 4th Ave,Asian,49.2683131,-123.1471669,Kitsilano
Nook,1525 Yew St,Italian,49.2722315,-123.155229,Kitsilano
Notte's Bon Ton Pastry,3150 Broadway W,Bakery,49.2639265,-123.1752229,Kitsilano
Nuba in Kitsilano,3116 W Broadway,Health Food,49.2639376,-123.1745701,Kitsilano
Octopus's Garden Restaurant,1995 Cornwall Ave,Japanese,49.2726299,-123.1498174,Kitsilano
Oddfish Restaurant,1889 W 1st Ave,Seafood,49.270894,-123.147586,Kitsilano
Olympia Pizza Kits,3205 W Broadway,Fast Food,49.2643345,-123.1760455,Kitsilano
Panago Pizza,2905 W Broadway,Fast Food,49.2642903,-123.1705284,Kitsilano
Pane from Heaven,1670 cypress street,Bakery,49.2709603,-123.1476327,Kitsilano
Papa John's Pizza,Store #10392 2030 Alma St,Fast Food,49.2683594,-123.185491,Kitsilano
Papaya Hut Restaurant,2435 Burrard St,Thai,49.2641591,-123.1459617,Kitsilano
Paradiso Italian Gelato,1520 Yew St,Italian,49.2721881,-123.154819,Kitsilano
Parthenon Supermarket,3080 W Broadway,Greek,49.2640197,-123.1735506,Kitsilano
Peaceful Restaurant,2394 W 4th Ave,Chinese,49.2680246,-123.1596199,Kitsilano
Pho Japolo,2807 W Broadway,Vietnamese,49.2643858,-123.1686467,Kitsilano
Pizza Hut,1829 W 4th Ave,Fast Food,49.2682212,-123.1463332,Kitsilano
Pizza Pizza,1893 Cornwall Ave,Fast Food,49.2727797,-123.1475462,Kitsilano
Plaisir Sucr√É¬©,2668 Arbutus St,Bakery,49.262238,-123.1528213,Kitsilano
Platform 7 Coffee,2300 W Broadway,Coffee,49.2636345,-123.1579133,Kitsilano
Pokay Vancouver,2965 W Broadway,American,49.2644,-123.171859,Kitsilano
Pure Delight Caf√É¬©,3236 W Broadway,Vietnamese,49.2640653,-123.1766864,Kitsilano
Rain or Shine Ice Cream,1926 W 4th Ave,Ice Cream,49.267893,-123.148713,Kitsilano
Raisu,2340 W 4th Ave,Japanese,49.2680165,-123.158373,Kitsilano
Ramen Danbo,1833 W 4th Ave,Japanese,49.2682861,-123.146425,Kitsilano
RedBeef Noodle Kitchen,1947 W 4th Ave,Chinese,49.2682489,-123.1490825,Kitsilano
Rocky Mountain Flatbread,1876 W 1st Ave,Fast Food,49.2704812,-123.1472846,Kitsilano
Romer's Burger Bar,1873 W 4th Ave,Fast Food,49.2682742,-123.1472529,Kitsilano
Sahel Market & Restaurant,3207 W Broadway,Persian,49.2643375,-123.1762379,Kitsilano
Sazon Mexican Cuisine,2698 W 4th Ave,Mexican,49.268204,-123.166196,Kitsilano
Sejuiced,1958 W 4th Ave.,Vegetarian,49.2678865,-123.1492145,Kitsilano
Siegel's Bagels,1883 Cornwall Ave,Bagel,49.272701,-123.1473384,Kitsilano
Simpatico Ristorante,2222 W 4th Ave,Greek,49.2680623,-123.1558358,Kitsilano
Solly√¢¬Ä¬ôs Bagelry,2873 W Broadway,Bagel,49.2642882,-123.1697737,Kitsilano
Sophie's Cosmic Cafe,2095 W 4th Ave,Diner,49.2682476,-123.1526039,Kitsilano
Strike√ß¬†¬¥√•¬∫¬ó,3217 W Broadway,Asian,49.2643567,-123.1765489,Kitsilano
Subway,1-2801 West 16th Avenue,Sandwich,49.258004,-123.168589,Kitsilano
Subway,2640 Arbutus St,Sandwich,49.2625438,-123.1527909,Kitsilano
Subway,3090 W Broadway St Unit 3,Sandwich,49.2640154,-123.1737889,Kitsilano
Subway,1807 Burrard St #101,Sandwich,49.2696547,-123.1460958,Kitsilano
Sunshine Diner,2649 W Broadway,Diner,49.2642347,-123.1654094,Kitsilano
Super Hiro's Restaurant,2585 W Broadway,Japanese,49.2641789,-123.1644463,Kitsilano
Sushi Bella,2059 W 4th Ave.,Japanese,49.268278,-123.1517448,Kitsilano
Sweet Obsession,2611 W 16th Ave,Dessert,49.2578712,-123.1651783,Kitsilano
Tacofino - Kitsilano,1909 W 4th Ave,Mexican,49.2682619,-123.1483231,Kitsilano
Tandoori Fusion,2872 W Broadway,Indian,49.2639536,-123.169567,Kitsilano
Taste of Thai,3629 W Broadway,Thai,49.2645956,-123.184452,Kitsilano
Temaki Sushi,2156 W Broadway,Japanese,49.2635615,-123.153939,Kitsilano
Tera V Burger,2961 W Broadway,Fast Food,49.2642995,-123.1717091,Kitsilano
Terra Breads,2380 W 4th Ave,Bakery,49.268039,-123.1592661,Kitsilano
Thai Basil Restaurant,3271 W Broadway,Thai,49.2644159,-123.1772831,Kitsilano
Thai Basil Restaurant,2184 Cornwall Ave,Thai,49.2724915,-123.1545326,Kitsilano
The Boathouse Restaurant,1305 Arbutus St,Seafood,49.2742939,-123.1536698,Kitsilano
The Cove Neighbourhood Pub,3681 W 4th Ave,Pub,49.2688197,-123.1852077,Kitsilano
The Eatery,3431 W Broadway,Japanese,49.2644072,-123.180761,Kitsilano
The Naam,2724 W 4th Ave,Vegetarian,49.268152,-123.1670302,Kitsilano
The Only Cafe,2678 W 4th Ave,Cafe,49.2680901,-123.1657071,Kitsilano
The Wolf & Hound,3617 W Broadway,Pub,49.2644908,-123.1842908,Kitsilano
The hoke poke,1834 W 4th Ave,American,49.2678911,-123.1465334,Kitsilano
Their There,2042 W 4th Ave,Sandwich,49.2679152,-123.1514302,Kitsilano
Thomas Haas,2539 W Broadway,Dessert,49.2641781,-123.1633024,Kitsilano
Tim Kee Kitchen Cantonese & Szechuan Cuisine,2365 Burrard St,Sichuan,49.2649321,-123.1458967,Kitsilano
Tractor Everyday Healthy Foods - Kitsilano,1903 W 4th Ave,Health Food,49.2682452,-123.1481382,Kitsilano
Trattoria,1850 W 4th Ave,Italian,49.2678378,-123.1466983,Kitsilano
Trees Organic Coffee Kitsilano,2655 Arbutus St,Coffee,49.2623654,-123.153205,Kitsilano
Triple O's,1881 Cornwall Ave,Fast Food,49.2727768,-123.1473684,Kitsilano
Unchai Restaurant,2351 Burrard St,Thai,49.2650115,-123.1459642,Kitsilano
Uncle Fatih's Pizza - KITSLANO,2778 W Broadway,Fast Food,49.2639585,-123.1677051,Kitsilano
Uncle Pu's Sichuan Taste,3132 W Broadway,Chinese,49.2639725,-123.1748966,Kitsilano
Uno Gelato,2579 W Broadway,Dessert,49.2641603,-123.1641623,Kitsilano
Vera's Burger Shack,1925 Cornwall Ave,Fast Food,49.2725945,-123.148281,Kitsilano
Viet Flavour Restaurant,1822 W Broadway,Vietnamese,49.2635596,-123.1464248,Kitsilano
Viva Cafe & Bakery,1555 Yew St,Cafe,49.272037,-123.1551658,Kitsilano
White Spot Kitsilano,2518 W Broadway,Family-friendly,49.263791,-123.1632683,Kitsilano
Yagger's Kitsilano Restaurant,2884 W Broadway,Bar,49.2638702,-123.169692,Kitsilano
Yagoto Sushi,2180 W Broadway,Japanese,49.2636627,-123.1546171,Kitsilano
Yu Noodle House,2445 Burrard St,Noodle,49.2640931,-123.1460681,Kitsilano
Yuwa Japanese Cuisine,2775 W 16th Ave,Japanese,49.2579886,-123.1678342,Kitsilano
Z&W Shanghai Kitchen √©¬æ¬ô√©¬§¬ê√©¬¶¬Ü - √©¬æ¬ç√§¬∏¬ä√¶¬µ¬∑√®¬è¬ú,2126 W Broadway,Chinese,49.263687,-123.1535823,Kitsilano
A&W Canada,468 SW Marine Dr,Fast Food,49.209364,-123.116783,Marpole
Applause Japanese Restaurant,8269 Oak St,Japanese,49.2109319,-123.1305183,Marpole
Bubbletopia,7974 Granville Street,Cafe,49.2134317,-123.1401162,Marpole
Cafe Mai-Mai,8636 Granville St,Vietnamese,49.2080893,-123.1400808,Marpole
Cafe de l'Orangerie,1320 W 73rd Ave,Japanese,49.204004,-123.1352808,Marpole
Chuan Yue,8329 Oak St,Chinese,49.2104311,-123.1305624,Marpole
Cravings Restaurant + Lounge,8808 Osler St,American,49.2055267,-123.1313388,Marpole
Denny's,622 SW Marine Dr,Fast Food,49.2087907,-123.1193511,Marpole
Donair Spot,8616 Granville St,Mediterranean,49.2082537,-123.1401242,Marpole
Dublin Crossing - Vancouver,466 SW Marine Dr,Irish pub,49.2100079,-123.1157887,Marpole
Freshslice Pizza,8618 Granville St,Fast Food,49.2082081,-123.1401279,Marpole
Freshslice Pizza,498 SW Marine Dr,Fast Food,49.2099567,-123.1168429,Marpole
Friends Cafe,1750 W 75th Ave,Diner,49.2068314,-123.1486499,Marpole
Gigi Blin,1400 W 70th Ave,Cafe,49.208429,-123.1379116,Marpole
Golden Pair Vietnamese Asian Cuisine,8167 Granville St,Vietnamese,49.211983,-123.140896,Marpole
Ikura Sushi,8646 Granville St,Japanese,49.2079003,-123.1403017,Marpole
Japan Sky Dining Ltd.,8855 Laurel St #102,Catering food and drink supplier,49.2051111,-123.1253076,Marpole
Jasmine Flower Shanghai Cuisine,8532 Granville St,Chinese,49.2092328,-123.1401842,Marpole
Johnny's Pizza Factory,7970 Granville St,Fast Food,49.2134436,-123.1399566,Marpole
Kuy's Lechon,660 W 71st Ave,Filipino,49.2072015,-123.1196878,Marpole
Kyo Korean BBQ & Sushi,2-2993 Granville St.,Korean,49.2101605,-123.1408864,Marpole
Marpole Guest House,8573 Selkirk St,Lodging,49.2090198,-123.1332547,Marpole
Marpole Museum & Historical Society,8743 MARINE DR SW,Museum,49.2003176,-123.1354051,Marpole
McDonald's,830 SW Marine Dr,Fast Food,49.20607,-123.1255132,Marpole
McDonald's,160 SW Marine Dr,Fast Food,49.2118921,-123.1091875,Marpole
Mirchi Restaurant,7964 Granville St,Indian,49.2135408,-123.1401398,Marpole
Neptune BBQ House √©¬≥¬≥√©¬≥¬¥√ß¬á¬í√®¬á¬ò (Vancouver,8175 Granville St,Chinese,49.2119397,-123.1408327,Marpole
Neptune Palace Seafood Restaurant,470 SW Marine Dr Unit 308,Chinese,49.210048,-123.116603,Marpole
Oriole Cafe,1200 west 73rd avenue,Cafe,49.2041247,-123.1332583,Marpole
Panago Pizza,120-511 SW Marine Dr,Fast Food,49.2100905,-123.1178353,Marpole
Panago Pizza,8333 Granville St,Fast Food,49.2111805,-123.1408436,Marpole
Papa's Eatery,8091 Granville St.,Sandwich,49.212435,-123.1405946,Marpole
Parm'z Pizza Factory,8319 Oak St,Fast Food,49.2105495,-123.1304717,Marpole
Penang Delight Cafe,1316 W 73rd Ave,Malay,49.2040797,-123.1352609,Marpole
Pho Ever,8178 Granville St,Vietnamese,49.2117182,-123.1399784,Marpole
Pink Elephant Thai,434 SW Marine Dr,Thai,49.2101841,-123.1161936,Marpole
Pizza Hut,8155 Granville Street,Fast Food,49.2121552,-123.1409273,Marpole
Red Star Seafood Restaurant,8298 Granville St,Chinese,49.2111772,-123.1401991,Marpole
Sakuranbo,8051 Granville St,Japanese,49.2126887,-123.1405975,Marpole
Snackshot √ß¬≥¬ñ√ß¬ô¬æ√•¬∫¬ú,7980 Granville St,Dessert,49.2133748,-123.1400326,Marpole
Solo Pasta,8620 Granville St,Italian,49.2081592,-123.1401636,Marpole
Starbucks,Avery and W 70th Ave,Coffee,49.2084589,-123.1309027,Marpole
Starbucks,8475 Granville St,Coffee,49.2094569,-123.1410799,Marpole
Starbucks,8002 Granville St,Coffee,49.2130177,-123.1400089,Marpole
Subway,644 SW Marine Dr Unit 101,Sandwich,49.2085891,-123.1197921,Marpole
Subway,474 South West Marine Drive,Sandwich,49.2098602,-123.1165335,Marpole
Subway,8347 Granville St,Sandwich,49.211083,-123.1406811,Marpole
Sushi King House,8176 Granville St,Japanese,49.2116627,-123.1401882,Marpole
Sushi Wow,8273 Granville,Japanese,49.2116562,-123.1407218,Marpole
Sushi Wow,8273 Granville St,Japanese,49.2116601,-123.1407641,Marpole
Tai Tung Chinese Seafood Restaurant,8012 Granville St,Chinese,49.2129022,-123.1400916,Marpole
Talay Thai Restaurant,8369 Granville St,Thai,49.2107897,-123.140745,Marpole
Thai Son Restaurant,1450 SW Marine Dr,Vietnamese,49.2042456,-123.1395324,Marpole
The Meat Up,7994 Granville St,Chinese,49.2132843,-123.1400589,Marpole
The Place Restaurant,8028 Granville Street,Chinese,49.2128045,-123.1401193,Marpole
The Yard Cafe,8482 Granville St,Pub,49.209577,-123.1400906,Marpole
Wang's Taiwan Beef Noodle House,8390 Granville St,Chinese,49.2102056,-123.1400582,Marpole
White Spot (Coast Hotel,1041 SW Marine Dr,Family-friendly,49.2048294,-123.130886,Marpole
Wicks Cafe,1300 W 73rd Ave,Cafe,49.2040721,-123.1349289,Marpole
Ming Tak Hong Kong Style Restaurant,8363 Granville St,Chinese,49.2108334,-123.1407047,Marpole
mazing Spicy Hotpot,8542 Granville St,Chinese,49.2090918,-123.1401744,Marpole
33 Brewing Experiment,25 W 8th Ave,Pub,49.2640094,-123.1055426,Mount Pleasant
A&W Canada,467 W Broadway,Fast Food,49.2633988,-123.1144605,Mount Pleasant
AJ's Brooklyn Pizza Joint,325 E Broadway,Fast Food,49.2629661,-123.0983789,Mount Pleasant
Anna's Cake House,606 East Broadway,Bakery,49.2622123,-123.0907685,Mount Pleasant
Argo Cafe,1836 Ontario St,Diner,49.268574,-123.104545,Mount Pleasant
BNS Cafe,691 East Broadway,Cafe,49.2626746,-123.0894313,Mount Pleasant
Bale Deli & bakery,25 kingsway,Bakery,49.2640258,-123.1001869,Mount Pleasant
Bean Around The World,2528 Main St,Coffee,49.2624596,-123.1007721,Mount Pleasant
Best Burrito,15 W. Broadway,Mexican,49.263173,-123.1053799,Mount Pleasant
Billy Button Dessert Bar,144 E Broadway,Dessert,49.262807,-123.1017956,Mount Pleasant
Bonchaz Bakery Cafe,189 E Broadway,Cafe,49.2630872,-123.1013081,Mount Pleasant
Boston Pizza,190 - 1333 W Broadway,Fast Food,49.2631207,-123.1093472,Mount Pleasant
Budgies Burritos,44 Kingsway,Vegetarian,49.263639,-123.1004686,Mount Pleasant
Burdock & Co,2702 Main St,Amercian,49.260986,-123.100708,Mount Pleasant
Burgoo,3096 Main St,Bistro,49.2576348,-123.1008393,Mount Pleasant
COBS Bread Bakery,2924 Main St,Bakery,49.2588736,-123.1008093,Mount Pleasant
Cafe D'Afrique,363  E. Broadway,Ethiopian,49.2630224,-123.0974793,Mount Pleasant
Caff√É¬© Barney,2526 Main St,Breakfast,49.2624998,-123.100769,Mount Pleasant
Caffe¬© Rustico,3136 Main St.,Cafe,49.2569005,-123.1009365,Mount Pleasant
Carp Sushi + Bowl,2516 Prince Edward St,Japanese,49.2623104,-123.095829,Mount Pleasant
Cartems Donuterie,2152 Main St,Donut,49.2656322,-123.1006577,Mount Pleasant
Cartems Donuts,2190 Main St,Donut,49.2656233,-123.1006429,Mount Pleasant
Chicha,136 E Broadway,Peruvian,49.2628051,-123.1021083,Mount Pleasant
Chutney Villa South Indian Cuisine,147 E Broadway,Indian,49.2631923,-123.1018777,Mount Pleasant
Coffee Roastery Modus,112 W Broadway,Coffee,49.2629228,-123.1072618,Mount Pleasant
Como Taperia,201 E 7th Ave,Spanish,49.2647398,-123.1006238,Mount Pleasant
Congee Noodle House,141 E Broadway,Chinese,49.263084,-123.1020899,Mount Pleasant
Dairy Queen Grill & Chill,2888 Main St,Fast Food,49.2594249,-123.1007522,Mount Pleasant
De Dutch Pannekoek House,410 W 2nd Ave,Breakfast,49.2671356,-123.1131742,Mount Pleasant
Dock Lunch,152 E 11th Ave,Sandwich,49.2610262,-123.1018121,Mount Pleasant
Domino's Pizza,585 Broadway E,Fast Food,49.2626839,-123.0916553,Mount Pleasant
Dubh Linn Gate Irish Pub,1601 Main St,Irish,49.2714055,-123.1008655,Mount Pleasant
Earnest Ice Cream,1829 Quebec St,Ice Cream,49.2689166,-123.1029959,Mount Pleasant
Eight √Ç¬Ω Restaurant Lounge,151 E 8th Ave,Pub,49.2638486,-123.1016578,Mount Pleasant
Elysian Coffee - 7th & Ontario,2301 Ontario St,Coffee,49.2644722,-123.1050488,Mount Pleasant
Fable Diner,151E E Broadway,Diner,49.2630513,-123.101494,Mount Pleasant
Fassil Restaurant,736 E Broadway,Ethiopian,49.2622223,-123.0882139,Mount Pleasant
Fatburger,255 West Broadway,Fast Food,49.2633013,-123.1106659,Mount Pleasant
Fife Bakery,64 E 3rd Ave,Bakery,49.2680363,-123.1032466,Mount Pleasant
Food Hall by ZUBU,159 W 4th Ave,Japanese,49.2675831,-123.1086523,Mount Pleasant
Freshslice Pizza,183 E Broadway,Fast Food,49.2630214,-123.1012976,Mount Pleasant
Galaxy Grill at Planet Bingo,2655 Main St,Grill,49.2616288,-123.1014236,Mount Pleasant
Gene Coffee Bar,2404 Main St,Coffee,49.2639157,-123.1007207,Mount Pleasant
Gigi's Pizza & Spaghetti House,189 Broadway W,Fast Food,49.263283,-123.1088971,Mount Pleasant
Glory Juice Co.,78 E 2nd Ave,Cafe,49.269065,-123.102959,Mount Pleasant
Gusto A Taste Of Italy,1610 Salt St,Italian,49.2714007,-123.1059364,Mount Pleasant
Heritage Asian Eatery,382 W Broadway,Asian,49.262908,-123.1124017,Mount Pleasant
Hime Sushi,315 E Broadway,Japanese,49.263087,-123.09876,Mount Pleasant
Hon's Wonton House - Olympic Village,25 E 2nd Ave,Chinese,49.2695381,-123.1041682,Mount Pleasant
Hot Delivery Chinese Food,3002 Cambie St,Chinese,49.2585541,-123.1148653,Mount Pleasant
Hyde Restaurant & Lounge,2960 Main St,Grill,49.2586779,-123.1009464,Mount Pleasant
Ignite Pizzeria,2588 Main St,Fast Food,49.26213,-123.1007895,Mount Pleasant
Indochine Kitchen,1 East Broadway,Asian,49.2631601,-123.1046852,Mount Pleasant
Italia Bella Bar & Grill,215 Kingsway,Italian,49.2616572,-123.0980671,Mount Pleasant
JJ Bean Coffee Roasters,3010 Main St,Cafe,49.2582219,-123.1007835,Mount Pleasant
Jitlada Thai Restaurant,118 W 6th Ave,Thai,49.265512,-123.1075603,Mount Pleasant
Josephine's Restaurant,2650 Main Street,Asian,49.2613256,-123.1008031,Mount Pleasant
KFC,795 E Broadway,Fast Food,49.2626796,-123.0874839,Mount Pleasant
Kafka's Coffee and Tea,2525 Main St,Cafe,49.2624754,-123.1011989,Mount Pleasant
Kaori Izakaya,3043 Main St,Japanese,49.2579913,-123.1014181,Mount Pleasant
Kind Cafe,3080 Main St,Vegan,49.2577372,-123.1008267,Mount Pleasant
Klasik Inasal and Noodle Express,650 E Broadway,Filipino,49.2623212,-123.089898,Mount Pleasant
Kranky Cafe,228 E 4th Ave,Cafe,49.2671303,-123.0998567,Mount Pleasant
Kwong Chow Congee & Noodle House,3163 Main St,Chinese,49.2570141,-123.1014822,Mount Pleasant
La Taqueria Pinche Taco Shop,2521 Main St,Mexican,49.26252,-123.101213,Mount Pleasant
Laura's Coffee Shop,1945 Manitoba St.,Diner,49.2675473,-123.106822,Mount Pleasant
Les Faux Bourgeois,663 E 15th Ave,French,49.2573518,-123.0896297,Mount Pleasant
Los Cuervos Taqueria & Cantina,603 Kingsway,Mexican,49.2574346,-123.0911227,Mount Pleasant
Lucky's Doughnuts,2902 Main St,Donut,49.2591315,-123.1008358,Mount Pleasant
Lucy's Eastside Diner,2708 Main St,Diner,49.2608828,-123.1008169,Mount Pleasant
Maizal RMF,2815 Main St,Mexican,49.2599696,-123.1014001,Mount Pleasant
Mali Thai Restaurant,2710 Main St,Thai,49.2608552,-123.100867,Mount Pleasant
Mangia Cucina & Bar,2211 Manitoba St,Italian,49.265396,-123.1069483,Mount Pleasant
Manna Sushi,6 E 2nd Ave,Japanese,49.2690952,-123.1044923,Mount Pleasant
Martini's Whole Wheat Pizza,151 Broadway W,Fast Food,49.2632265,-123.1082126,Mount Pleasant
Marulilu Caf√É¬©,451 W Broadway,Japanese,49.2633418,-123.1141032,Mount Pleasant
Marutama Gaiden,2858 Main St,Japanese,49.2595583,-123.100899,Mount Pleasant
Matchstick Fraser Street,639 E 15th Ave,Cafe,49.2572938,-123.0902815,Mount Pleasant
McDonald's,1527 Main St,Fast Food,49.2719008,-123.1006967,Mount Pleasant
Menya Raizo,401 W Broadway,Japanese,49.2633699,-123.1130696,Mount Pleasant
Mitra Canteen,3034 Main St,Middle Eastern,49.2580707,-123.1008151,Mount Pleasant
Nha Trang Vietnamese Beef Noodle Soup,720 E Broadway,Vietnamese,49.2622138,-123.0885161,Mount Pleasant
Nirvana Restaurant,2313 Main St,Indian,49.2643576,-123.1012003,Mount Pleasant
Nook,195 W 2nd Ave,Italian,49.2694803,-123.1092073,Mount Pleasant
Nuba Caf√É¬©,146 E 3rd Ave,Middle Eastern,49.2679671,-123.1017065,Mount Pleasant
Ophelia,165 W 2nd Ave,Mexican,49.2694703,-123.1080946,Mount Pleasant
Osteria Savio Volpe,615 Kingsway,Italian,49.2574913,-123.0909344,Mount Pleasant
Our Place Cafe,2205 Manitoba,Cafe,49.265419,-123.1070043,Mount Pleasant
Our Town Cafe,255 E Broadway,Cafe,49.2630829,-123.0999902,Mount Pleasant
Panago Pizza,2928 Main St,Fast Food,49.258807,-123.1008782,Mount Pleasant
Papa's Gourmet Pizza,3030 Main St,Fast Food,49.258249,-123.1008873,Mount Pleasant
Peaceful Restaurant,43 E 5th Ave,Chinese,49.2666437,-123.1037431,Mount Pleasant
Pho Extreme Xe Lua,457 W Broadway,Vietnamese,49.2634031,-123.1143093,Mount Pleasant
Pho Goodness (Main Street,3079 Main St,Vietnamese,49.2577224,-123.1014771,Mount Pleasant
Pho Quynh Express,91 West 2nd Avenue,Vietnamese,49.2694323,-123.1062533,Mount Pleasant
Pho Quynh Express,89 W 2nd Ave,Vietnamese,49.2694397,-123.1061413,Mount Pleasant
Pizza 604,2444 Main St,Fast Food,49.2633014,-123.100714,Mount Pleasant
Pizza Garden,3033 Main St,Fast Food,49.2581219,-123.1014093,Mount Pleasant
Pizza Pizza,311 E Broadway,Fast Food,49.2630472,-123.0987406,Mount Pleasant
Pizzeria Barbarella,654 E Broadway,Fast Food,49.2623321,-123.0897482,Mount Pleasant
Poke Bar,280 E Broadway,American,49.262751,-123.0997253,Mount Pleasant
Pure Bread,5 W 5th Ave,Bakery,49.2666191,-123.1049088,Mount Pleasant
P√É¬ºr & Simple,299 E 10th Ave,Breakfast,49.262108,-123.0992918,Mount Pleasant
Railtown Cafe,1691 Main St,Cafe,49.2703869,-123.1013086,Mount Pleasant
Red Burrito,2328 Cambie St,Mexican,49.2645544,-123.1144752,Mount Pleasant
Rocanini Coffee Roasters,127 W 5th Ave,Coffee,49.2666505,-123.1076901,Mount Pleasant
Rosemary Rocksalt,2515 Main St,Bagel,49.262569,-123.1012809,Mount Pleasant
Sal y Lim√É¬≥n,701 Kingsway #5,Mexican,49.2567896,-123.089226,Mount Pleasant
Saola,2419 Main St,Asian,49.2633297,-123.1012681,Mount Pleasant
Seiza Japanese Cuisine,3068 Main St,Japanese,49.2578688,-123.1008956,Mount Pleasant
Shiro Japanese,3096 Cambie St,Japanese,49.2579297,-123.1146171,Mount Pleasant
Smith√¢¬Ä¬ôs Bagelry,191 W. Broadway,Bagel,49.2633243,-123.1090103,Mount Pleasant
Solly's Bagelry,368 W 7th Ave,Bakery,49.2645467,-123.1124848,Mount Pleasant
Sprezzatura Restaurant,265 Kingsway,Italian,49.2612756,-123.0978145,Mount Pleasant
Starbucks,2980 Main St,Coffee,49.258598,-123.1008378,Mount Pleasant
Subway,2827 Main St Unit 3,Sandwich,49.259896,-123.1013984,Mount Pleasant
Subway,615 E Broadway #8,Sandwich,49.2626839,-123.0905008,Mount Pleasant
Subway,8-615 E Broadway,Sandwich,49.2628334,-123.1047497,Mount Pleasant
Subway,36-96 E Broadway,Sandwich,49.2628656,-123.1039739,Mount Pleasant
Subway,433 W Broadway,Sandwich,49.263342,-123.1136908,Mount Pleasant
Sunny Spot Cafe √•¬º¬†√®¬Æ¬∞√•¬á¬â√ß¬ö¬Æ√®¬Ç¬â√•¬§¬π√©¬¶¬ç,2543 Main St,Noodle,49.2622046,-123.1013597,Mount Pleasant
Sushi California,388 W Broadway,Japanese,49.2630257,-123.1124925,Mount Pleasant
Sushi Loku,592 E Broadway,Japanese,49.262358,-123.091274,Mount Pleasant
Sushiyama,371 E Broadway,Japanese,49.2630221,-123.0972043,Mount Pleasant
Swiss Bakery,143 East 3rd Ave,Bakery,49.2684773,-123.1016717,Mount Pleasant
Tacofino Ocho,8 E 5th Ave,Mexican,49.2662163,-123.1044144,Mount Pleasant
Temaki Sushi,2-2156 W Broadway,Japanese,49.2628186,-123.104995,Mount Pleasant
Terra Breads,1605 Manitoba St,Bakery,49.2714027,-123.1070645,Mount Pleasant
Terra Breads False Creek,53 West 5th Ave,Cafe,49.266649,-123.1060452,Mount Pleasant
Thai Son Restaurant,373 E Broadway,Vietnamese,49.2629861,-123.0967649,Mount Pleasant
The Basic,3048 Main St,Diner,49.2580108,-123.100896,Mount Pleasant
The Black Lodge,630 Kingsway,Vegetarian,49.2570319,-123.0910924,Mount Pleasant
The Federal Store Luncheonette & Grocer,2601 Quebec St,Cafe,49.2619295,-123.1032115,Mount Pleasant
The Firewood Caf√É¬©,3004 Cambie St,Fast Food,49.2585274,-123.1148738,Mount Pleasant
The Five Point Restaurant & Pub,3124 Main St,Pub,49.2571085,-123.1009123,Mount Pleasant
The Flying Pig Olympic Village,127 W 2nd Ave,Canadian,49.2694598,-123.1074993,Mount Pleasant
The Gluten Free Epicurean,633 E 15th Ave,Bakery,49.2573055,-123.0905028,Mount Pleasant
The Lion's Den Cafe,651 E 15th Ave,Caribbean,49.2574057,-123.0899468,Mount Pleasant
The Rumpus Room,2301 Main St,Diner,49.2644412,-123.1011723,Mount Pleasant
The Wallflower,2420 Main St,Diner,49.2635552,-123.1007275,Mount Pleasant
The Whip Restaurant & Gallery,209 6th Avenue East,Pub,49.2656087,-123.1001642,Mount Pleasant
Thierry Mount Pleasant,265 E 10th Ave,Dessert,49.2620868,-123.0998411,Mount Pleasant
Tocador,2610 MAIN ST,Latin,49.2618238,-123.1007894,Mount Pleasant
Toshi Sushi,181 E 16th Ave,Japanese,49.2567103,-123.1019284,Mount Pleasant
Tractor,1751 Quebec St,Salad,49.2695949,-123.1029667,Mount Pleasant
Triple O's Science World,1455 Quebec St #55,Fast Food,49.272298,-123.1020829,Mount Pleasant
Uma Sushi,450 W 8th Ave,Japanese,49.2638104,-123.1137727,Mount Pleasant
Uncle Abe's,3032 Main St,Bar,49.2581133,-123.1008261,Mount Pleasant
Uncle Fatih's Pizza - CAMBIE,477 W 8th Ave,Fast Food,49.2640751,-123.1140519,Mount Pleasant
Vera's Burger Shack,2922 Main St,Fast Food,49.2589048,-123.1008504,Mount Pleasant
Vij's Restaurant,3106 Cambie St,Indian,49.2575375,-123.1147883,Mount Pleasant
Wendy's,480 W 8th Ave,Fast Food,49.2636949,-123.1144896,Mount Pleasant
Westcoast Pok√É¬©,463 W 8th Ave,Seafood,49.264087,-123.1138642,Mount Pleasant
Whisk Matcha Cafe,39 Kingsway,Cafe,49.2639097,-123.1000823,Mount Pleasant
Zocalo Modern Cantina,646 Kingsway,Lantin,49.256925,-123.0908729,Mount Pleasant
iDen & Quan Ju De Beijing Duck House (√•¬Ö¬®√®¬Å¬ö√•¬æ¬∑,2808 Cambie St,Chinese,49.2601395,-123.1147488,Mount Pleasant
A&W Canada,6491 Oak St,Fast Food,49.2267627,-123.1289195,Oakridge
Caf√É¬© FortyOne,5750 Oak St,Kosher,49.2334656,-123.1276148,Oakridge
Domino's Pizza,6469 Oak St,Fast Food,49.2269997,-123.1287524,Oakridge
Dylan's,561 W 57th Ave,Lunch,49.2194255,-123.1180213,Oakridge
Mmmuffins,Oakridge,Bakery,49.2260954,-123.1165881,Oakridge
Nava Creative Kosher Cuisine,950 W 41st Ave,Cafe,49.2334428,-123.1267225,Oakridge
Peninsula (Oakridge) Seafood Restaurant,650 W 41st Ave,Seafood,49.2320456,-123.1186835,Oakridge
Peninsula Seafood Restaurant,"650 West 41st Ave Vancouver, BC V5Z2M9",Chinese,49.2319166,-123.1179691,Oakridge
Pho Hoa + Jazen Tea - Oak,1011 W 49th Ave,Vietnamese,49.2270157,-123.1288733,Oakridge
Samurai Sushi House,5888 Cambie St,Japanese,49.2318904,-123.1159603,Oakridge
Subway,6471 Oak St,Sandwich,49.2269357,-123.128909,Oakridge
Sushi Mura,6485 Oak St,Japanese,49.2268452,-123.1287853,Oakridge
Triple O's Langara College,100 W 49th Ave,Fast Food,49.224025,-123.108032,Oakridge
White Spot Oakridge,613 650 W 41st Ave A,Family-friendly,49.2333095,-123.1175731,Oakridge
A&W,Joyce-Collingwood Station,American,49.2383732,-123.0317578,Renfrew-Collingwood
Andamiro Korean Bistro,2568 Kingsway,Korean,49.2392139,-123.0528253,Renfrew-Collingwood
Bao Bakery,5115 Joyce St,Chinese,49.2381796,-123.0324466,Renfrew-Collingwood
Beijiang Restaurant √•¬å¬ó√ß¬ñ¬Ü√©¬•¬≠√•¬∫¬ó,3281 Kingsway,Chinese,49.2344793,-123.036161,Renfrew-Collingwood
Bento Sushi,3185 Grandview Hwy,Japanese,49.2589696,-123.0367347,Renfrew-Collingwood
Boston Pizza,2850 Bentall St,Fast Food,49.2584746,-123.0306817,Renfrew-Collingwood
Bubble World Tea House,3377 2 Kingsway #2,Chinese,49.233055,-123.0330923,Renfrew-Collingwood
Chef Pin,3293 Kingsway,Chinese,49.2344273,-123.0360543,Renfrew-Collingwood
Chili Pepper House,3003 Kingsway #1,Chinese,49.2362021,-123.041154,Renfrew-Collingwood
Church's Chicken,2504 Kingsway & Slocan St,Chicken,49.2399881,-123.0547464,Renfrew-Collingwood
Come Along Chinese Restaurant,2550 Kingsway,Chinese,49.2393614,-123.0531504,Renfrew-Collingwood
Congee Noodle King,3313 Kingsway,Chinese,49.2340119,-123.035255,Renfrew-Collingwood
Congee Noodle King √ß¬≤¬•√©¬∫¬µ√®¬ª¬í,3133 Kingsway,Chinese,49.2355847,-123.0387856,Renfrew-Collingwood
Creme de la Crumb Bakeshop & Catering,2955 Virtual Way Unit 110,Cafe,49.2611489,-123.0417814,Renfrew-Collingwood
Dairy Queen,2940 Kingsway Ave,Fast Food,49.2359167,-123.0447306,Renfrew-Collingwood
Dami Sushi & Korean,3280 E 22nd Ave,Korean,49.2504336,-123.0343458,Renfrew-Collingwood
Dharma Garden Veggie Deli,3195 Kingsway,Vegan,49.2352333,-123.0378501,Renfrew-Collingwood
Donair Land,3384 Vanness Ave,Middle Eastern,49.2384585,-123.032642,Renfrew-Collingwood
Dragon Crepe,3499 Kingsway,Chinese,49.232213,-123.0294687,Renfrew-Collingwood
Dumpling House,3141 Kingsway,Dumpling,49.2355494,-123.0387062,Renfrew-Collingwood
Fortune Lamb Dining √©¬∏¬ø√ß¬æ¬ä√®¬Ω¬©,3-3377 Kingsway,Chinese,49.2329936,-123.0330474,Renfrew-Collingwood
Freshii,2920 Virtual Way,Health Food,49.2597161,-123.0436942,Renfrew-Collingwood
Freshslice Pizza,5128 Joyce St,Fast Food,49.2378945,-123.0319888,Renfrew-Collingwood
Freshslice Pizza,2889 Grandview Hwy #2,Fast Food,49.258601,-123.04477,Renfrew-Collingwood
Gizella Pastry Ltd,3436 Lougheed Hwy,Bakery,49.2627293,-123.0289987,Renfrew-Collingwood
Grandt Kitchen Joyce,4963 Joyce St,Filipino,49.2396035,-123.0310206,Renfrew-Collingwood
Happy Valley Dim Sum Seafood Restaurant,3432 Lougheed Hwy,Chinese,49.2620924,-123.0296453,Renfrew-Collingwood
Hyoga Japanese Cuisine,3343 Kingsway,Japanese,49.2336372,-123.0342988,Renfrew-Collingwood
Jambo Grill Tandoor & Paan House,3219 Kingsway,Indian,49.2349448,-123.0371593,Renfrew-Collingwood
Japanese Bistro Kamome,5228 Joyce St,Japanese,49.2372008,-123.0327046,Renfrew-Collingwood
Joojak Restaurant,3337 Kingsway,Chinese,49.2336784,-123.0345324,Renfrew-Collingwood
Joyce Jiaozi Restaurant,5171 Joyce St,Chinese,49.2378591,-123.0326907,Renfrew-Collingwood
K & H Seafood Restaurant,3415 Kingsway,Chinese,49.2324432,-123.0320058,Renfrew-Collingwood
Kaur's Coffee,2406 E Broadway,Coffee,49.2617435,-123.0561247,Renfrew-Collingwood
Kimu Japanese Cuisine,4441 Boundary Rd,Japanese,49.2449191,-123.024194,Renfrew-Collingwood
Knight & Day Restaurant,3684 Lougheed Hwy,Family-friendly,49.2650534,-123.0243001,Renfrew-Collingwood
Kopitiam malaysia,3885 Rupert St,Malaysian,49.2498839,-123.0341413,Renfrew-Collingwood
Kumare Express,5183 Joyce St,Filipino,49.2377471,-123.0326674,Renfrew-Collingwood
Kwan Luck Restaurant,2516 Kingsway,Chinese,49.2396428,-123.0542507,Renfrew-Collingwood
La Piazza Dario,3075 Slocan St,Italian,49.2564704,-123.0504383,Renfrew-Collingwood
Li's China Grill,Unit4 3377 Kingsway,Chinese,49.232891,-123.0330769,Renfrew-Collingwood
Ling Nan Dim Sum Food Co.,3387 Kingsway,Chinese,49.2328118,-123.0328541,Renfrew-Collingwood
Los Guerreros Mexican Food Products,3317 Kingsway #102,Mexican,49.2340519,-123.0350789,Renfrew-Collingwood
Lucky Plus,Rupert Street,Chinese,49.2479372,-123.0338846,Renfrew-Collingwood
Lucky Plus Restaurant,3823 Rupert St,Chinese,49.2503264,-123.0342143,Renfrew-Collingwood
McDonald's,2909 Grandview Hwy,Fast Food,49.2586651,-123.0436159,Renfrew-Collingwood
McKim Wonton Mein Saga,2780 Kingsway,Chinese,49.2370618,-123.0483267,Renfrew-Collingwood
Metro Coffee Bar & Billiards,3175 Kingsway,Bar,49.2353338,-123.0381242,Renfrew-Collingwood
Michi Craft Kitchen,3665 Kingsway #180,Asian,49.2324554,-123.02436,Renfrew-Collingwood
Milk & Sugar Cafe,3365 Kingsway,Cafe,49.2333138,-123.0338152,Renfrew-Collingwood
Off the Grid Waffles,2665 Kingsway,Cafe,49.2388328,-123.0510247,Renfrew-Collingwood
Pampanga's Cuisine,5179 Joyce St,Filipino,49.2377809,-123.0326363,Renfrew-Collingwood
Pho Kitchen,2915 Hebb Ave,Vietnamese,49.2595689,-123.0434156,Renfrew-Collingwood
Pho Nhuan,2989 Rupert St,Vietnamese,49.2574592,-123.0341578,Renfrew-Collingwood
Pizza Hut,2850 Grandview Hwy,Fast Food,49.2579325,-123.0459998,Renfrew-Collingwood
Plato Filipino,5175 Joyce St,Filipino,49.2378644,-123.0325937,Renfrew-Collingwood
Prince Seafood Restaurant,2881 Grandview Hwy,Seafood,49.2584949,-123.0451062,Renfrew-Collingwood
Ragazzi Pizza,2996 E. 22nd Ave.,Fast Food,49.2504112,-123.041782,Renfrew-Collingwood
Second Floor Bistro,2665 Renfrew St,Bistro,49.2601303,-123.0449951,Renfrew-Collingwood
Starbucks,2840 Bentall St,Coffee,49.2586046,-123.0306721,Renfrew-Collingwood
Starbucks,2905 Hebb Ave,Coffee,49.2598109,-123.0439424,Renfrew-Collingwood
Subway,5218 Joyce St,Sandwich,49.2372491,-123.0326258,Renfrew-Collingwood
Subway,5099 Joyce St,Fast Food,49.2385125,-123.031282,Renfrew-Collingwood
Subway,2312 Kingsway,Sandwich,49.2415303,-123.0578208,Renfrew-Collingwood
Subway,2892 Grandview Hwy,Sandwich,49.2580275,-123.0449227,Renfrew-Collingwood
Subway,2323 Boundary Rd #110,Sandwich,49.2637085,-123.0242841,Renfrew-Collingwood
Super Great Pizza,3388 Vanness Ave,Fast Food,49.2383461,-123.0323181,Renfrew-Collingwood
Super Great Pizza,3308 Vaness Ave,Fast Food,49.2392379,-123.0345428,Renfrew-Collingwood
Sushi Aji,3339 Kingsway,Japanese,49.2336608,-123.034465,Renfrew-Collingwood
Sushi Royal House,2893 Grandview Hwy,Japanese,49.2586162,-123.0445439,Renfrew-Collingwood
Sushi Taku,4902 Joyce St,Japanese,49.2398062,-123.0299092,Renfrew-Collingwood
The Captain's Boil,3309 Kingsway,Seafood,49.2341589,-123.0352979,Renfrew-Collingwood
Tim Hortons,3451 Kingsway,Cafe,49.232254,-123.0311502,Renfrew-Collingwood
Tim Hortons,5055 Joyce St Unit 150,Cafe,49.2387706,-123.0316897,Renfrew-Collingwood
Tim Hortons,2889 E 12th Ave,Cafe,49.2594166,-123.0446561,Renfrew-Collingwood
Timber Bistro & Books,Slocan St Entrance 2700 E Broadway,Cafe,49.2617086,-123.0496106,Renfrew-Collingwood
Top Cantonese Cuisine Restaurant,2752 Kingsway,Chinese,49.2374664,-123.0494301,Renfrew-Collingwood
Trang Hau Banh Mi & Cafe,2522 Kingsway,Vietnamese,49.2397362,-123.0538522,Renfrew-Collingwood
Triple O's Grandview Highway,3505 Grandview Hwy,Fast Food,49.2584656,-123.0280866,Renfrew-Collingwood
Wendy's,3698 Grandview Hwy,Fast Food,49.2577852,-123.0243352,Renfrew-Collingwood
Yue Ting Seafood Restaurant,2532 Kingsway,Seafood,49.2396309,-123.0536173,Renfrew-Collingwood
iSushi Japanese Restaurant,3883 Rupert St,Japanese,49.2498859,-123.0341807,Renfrew-Collingwood
Aling Ening Restaurant,4253 Fraser St,Filipino,49.247027,-123.0905809,Riley Park
Anh and Chi,3388 Main St,Vietnamese,49.2549852,-123.1008596,Riley Park
Anna's Cake House (Cambie & 39th Ave),5510 Cambie St,Bakery,49.2352178,-123.1158082,Riley Park
Au Petit Cafe,4851 Main Street,Vietnamese,49.241269,-123.1016808,Riley Park
Autostrada Osteria Main Street,4811 Main St,Italian,49.2417397,-123.1016277,Riley Park
BKH Jerky,3201 Fraser St.,BBQ,49.2562552,-123.0902646,Riley Park
Bob Likes Thai Food.,3755 Main Street @ E 21st Ave,Thai,49.2513423,-123.101333,Riley Park
Boiling Point,4148 Main St,Chinese,49.2482504,-123.1008849,Riley Park
Bon Cafe,4909 Main St,Vietnamese,49.2403618,-123.1017427,Riley Park
Bonjour Banh Mi,5556 Cambie St,Vietnamese,49.2348617,-123.1158336,Riley Park
Bulalohan Sa Ilocos Fast Food Cafe Inc,4273 Fraser Street,Filipino,49.2469077,-123.0903983,Riley Park
CHI HOUSE,4063 Main St,Chinese,49.2492976,-123.101588,Riley Park
Caff√É¬© Artigiano,4010 Main St,Cafe,49.2491774,-123.100842,Riley Park
Caf√É¬© Gloucester,3338 Cambie St,Chinese,49.2555333,-123.1147493,Riley Park
Cambie Vietnamese Restaurant,4136 Main St,Vietnamese,49.2483255,-123.1008158,Riley Park
Chickpea Restaurant,4298 Main St,Vegan,49.2465536,-123.1010436,Riley Park
Church's Chicken,3449 Main St,Fast Food,49.254167,-123.1012977,Riley Park
Church's Chicken,3425 Main St,Fast Food,49.2544611,-123.1012989,Riley Park
Coco et Olive,3707 Main St,Cafe,49.2516796,-123.1011941,Riley Park
Continental Coffee,4295 Main St,Coffee,49.2473281,-123.1013852,Riley Park
Copa Cafe,4032 Cambie St,Chinese,49.2496738,-123.1151586,Riley Park
Corner 23,4008 Cambie St,Chinese,49.2499562,-123.1150368,Riley Park
Don√¢¬Ä¬ôt Argue Pizzeria,3240 Main St,Fast Food,49.2563171,-123.1008879,Riley Park
Dream Sushi,4401 Main St,Japanese,49.2458467,-123.1014995,Riley Park
Dutch Wooden Shoe Cafe,3292 Cambie St,Dutch,49.2560013,-123.1148992,Riley Park
East is East,4433 Main St,Middle Eastern,49.2453531,-123.1014848,Riley Park
Egg & Co.,4245 Fraser St,Brunch,49.247157,-123.0904601,Riley Park
El Camino's,3250 Main St,Latin,49.2561704,-123.1010147,Riley Park
Grand View Szechuan Restaurant,4181 Fraser St,Sichuan,49.2478619,-123.0903444,Riley Park
Haiyi Seafood Restaurant,4818 Main St,Chinese,49.2420726,-123.1012135,Riley Park
Hawkers Delight Deli,4127 Main St,Malaysian,49.2483626,-123.101467,Riley Park
Helen's Grill,4102 Main St,Diner,49.2486433,-123.1007253,Riley Park
Ignite Pizzeria,Main Street,Fast Food,49.2457108,-123.101237,Riley Park
Indian Junction Bar & Grill,3364 Cambie St,Indian,49.2552577,-123.1147778,Riley Park
King's Chinese Cuisine,4488 Main St,Chinese,49.2446116,-123.1009743,Riley Park
Le March√É¬© St. George,4393 St George St,Cafe,49.2457667,-123.0944347,Riley Park
Liberty Bakery + Cafe,3699 Main St,Bakery,49.251916,-123.1012221,Riley Park
Locus,4121 Main St,Breakfast,49.2484971,-123.1014653,Riley Park
Long's Noodle House,4853 Main St,Chinese,49.2412498,-123.1016585,Riley Park
Matchstick Riley Park,4807 Main St,Cafe,49.2417993,-123.1018127,Riley Park
McDonald's,4445 Main St,Fast Food,49.245242,-123.1014882,Riley Park
MeeT on Main,4288 Main St,Vegetarian,49.246713,-123.1008309,Riley Park
Nam Nam Noodle,4191 Main St,Chinese,49.2481699,-123.1013299,Riley Park
Nikkyu Japanese Restaurant,3302 Main St,Japanese,49.255567,-123.101019,Riley Park
O! Taho,4223 Fraser St,Filipino,49.2473531,-123.090327,Riley Park
Ogenki Sushi Fusion,4342 Main St,Japanese,49.2462607,-123.1009543,Riley Park
Ogenki sushi,4346 Main St,Japanese,49.2462251,-123.1009727,Riley Park
Old Bird,3950 Main St,Chinese,49.2498714,-123.100783,Riley Park
Original New Town Bakery,3484 Cambie St,Bakery,49.2542084,-123.1148856,Riley Park
Pampanga's Best Cafeteria,4279 Fraser St,Filipino,49.2468727,-123.0904633,Riley Park
Panz Veggie,3485 Fraser Street,Vegetarian,49.2539547,-123.0901929,Riley Park
Pho Tan,4589 Main St,Vietnamese,49.243205,-123.1016815,Riley Park
Pho Tan Restaurant,4598 Main St,Asian,49.2434312,-123.1011702,Riley Park
Pho Xe Lua 24,3346 Cambie St,Vietnamese,49.2554106,-123.1149547,Riley Park
Pizza Carano,4241 Fraser St,Fast Food,49.247247,-123.0904024,Riley Park
Potluck Hawker Eatery,3424 Cambie Street,Malay,49.2545787,-123.1148931,Riley Park
Quejos Cheesebuns,4129 Main St,Bakery,49.248382,-123.1013152,Riley Park
Restaurant Yugo,4265 Main St,Japanese,49.2475265,-123.1014138,Riley Park
Rocky Mountain Flatbread Main Street,4186 Main St,Fast Food,49.2478042,-123.1007361,Riley Park
SUSHI HUB,4855 Main St,Japanese,49.2411806,-123.1016703,Riley Park
Saigon Taste Vietnamese Restaurant,4197 Fraser St,Vietnamese,49.2477705,-123.090485,Riley Park
Sawasdee Thai Restaurant,4250 Main St,Thai,49.2470563,-123.1008276,Riley Park
Simply Delicious Restaurant & Bar,4316 Main St,Asian,49.2464954,-123.1010225,Riley Park
Slickity Jim's Chat 'n' Chew,3475 Main St,Breakfast,49.2540235,-123.1010613,Riley Park
Soho Tea Room,3466 Cambie St,Chinese,49.2542909,-123.114925,Riley Park
Solly's Up Main,4071 Main St,Bagel,49.2491206,-123.1014603,Riley Park
Splitz Grill,4242 Main St,Fast Food,49.2470985,-123.1007657,Riley Park
Subway,5698 Main St,Sandwich,49.2332066,-123.1012969,Riley Park
Sula Indian Restaurant - Main Street,4172 Main St,Indian,49.2479632,-123.1007692,Riley Park
Sun Sui Wah,3888 Main St,Chinese,49.2504277,-123.1006395,Riley Park
Sushi 7,3488 Cambie St,Japanese,49.2541729,-123.1148366,Riley Park
Sushi Bang,Cambie St CA,Japanese,49.2402091,-123.1178968,Riley Park
Sushi Main,3710 Main St,Japanese,49.2518619,-123.100658,Riley Park
Sushi Mania,3851 Main St,Japanese,49.2506311,-123.1013081,Riley Park
Sushi TonTon,4018 Cambie St,Japanese,49.2498517,-123.1150166,Riley Park
Sweet Revenge,4160 Main St,Dessert,49.2480936,-123.1009002,Riley Park
SweetSalt Baked Goods & Playscapes,3497 Fraser Street,Bakery,49.25385,-123.0902492,Riley Park
The Acorn Restaurant,3995 Main St,Vegetarian,49.2495953,-123.1013533,Riley Park
The Arbor Restaurant,3941 Main St,Vegetarian,49.2499509,-123.101352,Riley Park
The Fish Counter,3825 Main St,Seafood,49.2507804,-123.1012704,Riley Park
The French Table,3916 Main Street,French,49.2500363,-123.1008354,Riley Park
The General Public Sushi Lodge,3289 Main St,Japanese,49.2558553,-123.1015339,Riley Park
The Mighty Oak,198 W 18th Ave,Coffee,49.254629,-123.109615,Riley Park
The Shameful Tiki Room,4362 Main St,Polynesian,49.2461036,-123.1010655,Riley Park
Togo Sushi,423-650 W 41st Ave,Japanese,49.2337526,-123.1147325,Riley Park
Trafiq,4216 Main St,Bakery,49.2473463,-123.1007201,Riley Park
Trilussa Pizza & Pane,4363 Main St,Fast Food,49.2464617,-123.1014422,Riley Park
Trixi's Crepe & Coffeehaus,3306 Cambie St,Creperie,49.255692,-123.1149243,Riley Park
Van. Tea Cafe,5688 Main St,Chinese,49.2332905,-123.1010171,Riley Park
Viet House,3420 Cambie St,Vietnamese,49.2546251,-123.1149973,Riley Park
Wang's Beef Noodle House,3250 Cambie St,Chinese,49.256271,-123.1148358,Riley Park
Yum Sweet Shop,4150 Main St,Ice Cream,49.248141,-123.1007686,Riley Park
Zakkushi Dining on Main,4075 Main St,Japanese,49.2490989,-123.1015353,Riley Park
Grand Honour Restaurant,5668 Granville St.,Asian,49.2347517,-123.1393101,Shaughnessy
Honolulu Coffee,2098 W 41st Ave,Coffee,49.234297,-123.1547419,Shaughnessy
Kerrisdale Nakamura Japanese Cuisine,2055 W 41st Ave,Japanese,49.2347027,-123.1535489,Shaughnessy
McDonald's,2095 W 41st Ave,Fast Food,49.2349143,-123.1548416,Shaughnessy
Truffles Fine Foods,5151 Oak St,Sandwich,49.2391439,-123.1318942,Shaughnessy
BC Women's Cafeteria,4500 Oak St,Cafeteria,49.2443788,-123.1241862,South Cambie
BierCraft,3307 Cambie St.,Belgian,49.2558009,-123.1153763,South Cambie
City 1 Cafe,954 W King Edward Ave,Singaporean,49.2483912,-123.1254967,South Cambie
Corduroy Pie Company,758 W 16th Ave,Fast Food,49.2569247,-123.1212866,South Cambie
Flying Wedge Pizza Co,3357 Cambie St,Fast Food,49.2555016,-123.1154329,South Cambie
Hachibei,778 W 16th Ave,Japanese,49.256928,-123.1215673,South Cambie
JJ Bean Coffee Roasters,3399 Cambie St,Cafe,49.2551248,-123.115465,South Cambie
Kim Express,952 W King Edward Ave,Korean,49.2485223,-123.1254486,South Cambie
Landmark Hotpot House,4023 Cambie St,Chinese,49.2498405,-123.1155811,South Cambie
Las Tortas,3353 Cambie St,Mexican,49.2555349,-123.1153982,South Cambie
Lemonade Gluten Free Bakery,3385 Cambie St,Bakery,49.2552193,-123.1154132,South Cambie
Mandarin Hong Kong Cafe √¶¬ñ¬á√®¬è¬Ø√©¬§¬ê√•¬ª¬≥,904 W King Edward Ave,Chinese,49.248413,-123.1251604,South Cambie
Meat & Bread,370 Cambie St,Sandwich,49.233983,-123.116576,South Cambie
Osaka Sushi,960 W King Edward Ave,Japanese,49.2485394,-123.1255618,South Cambie
Sabra Kosher Bakery & Restaurant Ltd,3844 Oak St,Kosher,49.2513234,-123.1272918,South Cambie
Sorella,3369 Cambie St,Italian,49.2553882,-123.1154401,South Cambie
Subway,3890 Oak St,Sandwich,49.2509438,-123.1270301,South Cambie
Subway,3297 Cambie St Unit #2,Sandwich,49.2561084,-123.1153776,South Cambie
Sun Garden Chinese Restaurant,3832 Oak St,Chinese,49.2514875,-123.1272813,South Cambie
Thai Away Home,3315 Cambie St,Thai,49.2557391,-123.1153778,South Cambie
The Best Neighbours Restaurant,3838 Oak St.,Greek,49.2514254,-123.127207,South Cambie
Tokyo John Sushi,3365 Cambie St,Japanese,49.2554431,-123.1153495,South Cambie
Vina Vietnamese,655 W 41st Ave,Vietnamese,49.2338739,-123.1196898,South Cambie
Whitewood Coffee,3208 Oak St,Coffee,49.2567937,-123.1268805,South Cambie
usagi sweets,3720 Oak St,Japanese,49.2524673,-123.1272818,South Cambie
A&W Canada,1520 Main St,Fast Food,49.2719559,-123.1000013,Strathcona
A&W Canada,1150 Station St,Fast Food,49.2737759,-123.097836,Strathcona
Ask For Luigi Restaurant,305 Alexander St,Italian,49.2842,-123.0977177,Strathcona
Axum Ethiopian,1279 E Hastings St,Ethiopian,49.2816149,-123.0777844,Strathcona
Ba Le,638 Main St.,Sandwich,49.2787738,-123.0995718,Strathcona
Belgard Kitchen,55 Dunlevy Ave,Canadian,49.2843192,-123.0956589,Strathcona
Bodega on Main,1014 Main St,Tapas,49.275431,-123.0993791,Strathcona
Campagnolo Upstairs,1020 Main St second floor,Bar,49.2754049,-123.0997124,Strathcona
Come Arepa,302 Industrial Ave,Fast Food,49.2697188,-123.0984273,Strathcona
Crackle Creme,245 Union St,Cafe,49.27776,-123.0981399,Strathcona
Cuchillo,261 Powell St,Latin,49.2834276,-123.0981059,Strathcona
Dixies BBQ,337 East Hastings Street,BBQ,49.2815544,-123.0966219,Strathcona
Dosanko,566 Powell St,Japanese,49.2828319,-123.0919338,Strathcona
Dunlevy Snackbar,433 Dunlevy Ave,Asian,49.28092,-123.095595,Strathcona
Fat Mao Noodles,217 E Georgia St,Noodle,49.2787559,-123.0989242,Strathcona
Finch√¢¬Ä¬ôs Market,501 E Georgia St,Sandwich,49.2787186,-123.0932563,Strathcona
Fortune City Seafood Resturant √ß¬ô¬æ√ß¬¶¬è√¶¬µ¬∑√©¬Æ¬Æ√©¬Ö¬í√•¬Æ¬∂,302-2800 E 1st Ave.,Seafood,49.2681808,-123.0973952,Strathcona
Freshii,893 Great Northern Way,Health Food,49.2659991,-123.084348,Strathcona
Gain Wah Restaurant,218 Keefer Street,Chinese,49.2793717,-123.0989354,Strathcona
HAVE Cafe,374 Powell St,Cafe,49.2830108,-123.0960445,Strathcona
Hanoi Pho,404 E Hastings St,Vietnamese,49.2810808,-123.0952401,Strathcona
Hanoi Pho Restaurant,406 E Hastings St,Vietnamese,49.281101,-123.0951596,Strathcona
Hey Dumplings!,208 Keefer St,Dumpling,49.279337,-123.0992115,Strathcona
Hogan's Alley Cafe,789 Gore Ave,Cafe,49.2777421,-123.0971616,Strathcona
Ivanhoe Pub,1038 Main St,Pub,49.275115,-123.099599,Strathcona
Java Express,369 Terminal Ave,Coffee,49.2721287,-123.0945321,Strathcona
Kam Wai Dim Sum √©¬á¬ë √•¬®¬Å √©¬ª¬û √•¬ø¬É,249 E Pender St,Chinese,49.28061,-123.098438,Strathcona
Kent's Kitchen,232 Keefer St,Chinese,49.2793684,-123.0988074,Strathcona
Kissa Tanto,263 E Pender St,Fusion,49.2806451,-123.0981172,Strathcona
Kokomo,611 Gore Ave,Vegan,49.2791736,-123.0973488,Strathcona
LanaLou√¢¬Ä¬ôs,362 Powell St,Diner,49.2830274,-123.0962677,Strathcona
Mamie Taylor's,251 E Georgia St,American,49.2786841,-123.0980207,Strathcona
Matchstick Coffee Roasters,213 E Georgia St,Cafe,49.2787121,-123.0992481,Strathcona
Maxim's Bakery & Restaurant Chinatown,257 Keefer St,Bakery,49.2795906,-123.0978562,Strathcona
Oyster Express,296 Keefer Street,Seafood,49.2793021,-123.0973781,Strathcona
Pat's Pub,403 E Hastings St,Pub,49.2814583,-123.0951057,Strathcona
Phnom Penh Restaurant,244 E Georgia St,Cambodian,49.2783154,-123.0981947,Strathcona
Pink Pearl,1132 E Hastings St,Chinese,49.2806949,-123.0802963,Strathcona
Prime Time Chicken and Chinese Food,416 Main St,Chicken,49.2809398,-123.0993214,Strathcona
Railtown Cafe,397 Railway St,Cafe,49.2850495,-123.0954183,Strathcona
Rhinofish,550 Main St,Noodle,49.279636,-123.0994299,Strathcona
Robba da Matti,Powell St,Italian,49.2827482,-123.0843227,Strathcona
St Lawrence Restaurant,269 Powell St,French,49.2833058,-123.0979713,Strathcona
Steve's Pok√É¬© Bar,891 Great Northern Way,American,49.2663583,-123.0841213,Strathcona
Straight Outta Brooklyn NYC Pizza,648 Main St,Fast Food,49.2786853,-123.0995522,Strathcona
Strathcona Beer Company,895 E Hastings St,Pub,49.2812279,-123.0850699,Strathcona
Strathcona Park,857 Malkin Ave,Park,49.2739359,-123.083385,Strathcona
Subway,846 Powell Street,Sandwich,49.2826547,-123.0858096,Strathcona
Tacomio Pick Up Window,1245 Glen Dr,Mexican,49.2735,-123.0819493,Strathcona
Tayybeh,401 Industrial Ave,Middle Eastern,49.2700048,-123.0957958,Strathcona
The American,926 Main St,Bar,49.2762857,-123.0996722,Strathcona
The Boss Bakery & Restaurant Chinatown,532 Main St,Bakery,49.279825,-123.0993261,Strathcona
The Brixton,212 E Georgia St,Cafe,49.278422,-123.0991391,Strathcona
The Garden Strathcona,868 E Hastings St,Cafe,49.2808066,-123.085638,Strathcona
The Heatley,696 E Hastings St,Pub,49.281009,-123.0897164,Strathcona
The Mackenzie Room,415 Powell St,Canadian,49.2833009,-123.0949246,Strathcona
The Ramen Butcher,223 E Georgia St,Noodle,49.2786667,-123.0987197,Strathcona
The Union,219 Union St,Pub,49.2777797,-123.0989601,Strathcona
Torafuku,958 Main Street,Asian,49.2758842,-123.09968,Strathcona
Truck Stop Cafe,1049 Clark Dr,Diner,49.2754204,-123.0776829,Strathcona
Union Market,Union St,Deli,49.2775323,-123.0916297,Strathcona
Wilder Snail Neighborhood Grocery & Coffee,799 Keefer St,Coffee,49.279433,-123.0874543,Strathcona
89 Inn,6390 Fraser Street,Japanese,49.2266159,-123.0904656,Sunset
Al Watan Tandoori,6804 Fraser St.,Indian,49.2226944,-123.0908313,Sunset
All India Sweets & Restaurant,6560 Main St,Indian,49.225123,-123.1013989,Sunset
All India Sweets & Restaurant,6507 Main St,Indian,49.2255357,-123.1018538,Sunset
Angel Cafe,5995 Fraser St,Chinese,49.2302215,-123.0908067,Sunset
Apna Bhaia Sweet & Restaurant,6616 Fraser St,Indian,49.2243044,-123.0906297,Sunset
BAKER & TABLE Cafe,6414 Fraser St.,Bakery,49.2263292,-123.0905774,Sunset
Bento Sushi,350 SE Marine Dr,Japanese,49.2091519,-123.1004858,Sunset
Best Quality Sweets & Rest,7260 Main St,Vegetarian,49.2188,-123.101596,Sunset
Breka Bakery & Cafe (Fraser,6533 Fraser St,Bakery,49.2251384,-123.0909897,Sunset
Canan 2 For 1 Pizza,7270 Main St,Fast Food,49.2187363,-123.10141,Sunset
Chu Kiang Chinese Restaurant,6491 Knight St,Chinese,49.2256096,-123.0778425,Sunset
Church's Chicken,5704 Fraser St,Fast Food,49.232573,-123.0901219,Sunset
Church's Chicken,5704 Fraser Street E 41st Ave,Fast Food,49.2325792,-123.0901337,Sunset
Dairy Queen Grill & Chill,5907 Fraser St,Fast Food,49.2308508,-123.0909761,Sunset
Deer Garden Signatures,6270 Fraser St,Chinese,49.2276714,-123.0903203,Sunset
Dewan-E-Khass,5750 Fraser St,Pakistani,49.232273,-123.0903934,Sunset
Dockers Family Restaurant,6094 Fraser St,Diner,49.2292835,-123.0904266,Sunset
Dosa Corner,8248 Fraser St,Indian,49.2097506,-123.0908287,Sunset
Dosa Hut,7233 Fraser St,Indian,49.2189937,-123.0911392,Sunset
Fiesta Pina Ham,8580 Fraser St,Fast Food,49.2063292,-123.0911007,Sunset
Fraserview Tandoori House,7271 Main St,Indian,49.2187876,-123.1021848,Sunset
Freshii,6541 Main St,Health Food,49.2251807,-123.1018668,Sunset
Freshslice Pizza,6374 Fraser St,Fast Food,49.2266807,-123.0905333,Sunset
GJS Kitchen and Catering,418 East Kent Ave S unit 119,Indian,49.2062645,-123.0978066,Sunset
GWH Kitchen,642 SE Marine Dr,Asian,49.2106336,-123.0923888,Sunset
Gia Minh Restaurant,6181 Fraser St,Vietnamese,49.2285587,-123.0908461,Sunset
Good Choice Restaurant,6007 Fraser St,Chinese,49.2299962,-123.0908133,Sunset
Hi Five Chicken,203 SE Marine Dr,Fast Food,49.2113019,-123.1018701,Sunset
Himalaya Restaurant Ltd,6587 Main St,Indian,49.2248792,-123.1018768,Sunset
Ho Yuen Kee Restaurant,6236 Fraser St,Chinese,49.2279603,-123.0903879,Sunset
Hometown Pizza,6665 Fraser St,Italian,49.2239973,-123.0911232,Sunset
Indochine Kitchen + Bar,6231 Fraser Street,Asian,49.2279744,-123.0910328,Sunset
KFC,6487 Knight St,Fast Food,49.2256662,-123.0778129,Sunset
Kabab Hut,"219 East, 49th Avenue",Indian,49.225753,-123.1012355,Sunset
Kathi Rolls & Wraps,418 East Kent Ave S Suite 119A,Indian,49.2066305,-123.0977107,Sunset
Lee Loy BBQ Meat Co Ltd,6340 Fraser St,BBQ,49.2269313,-123.0904264,Sunset
Lian Hong Chinese Bakery,6400 Fraser St,Chinese,49.2264827,-123.0903596,Sunset
Little Caesars Pizza,5927 Fraser St,Fast Food,49.2307429,-123.0908638,Sunset
Madras Spice Restaurant,6260 Fraser St,Indian,49.2277989,-123.0904622,Sunset
McDonald's,7289 Knight St,Fast Food,49.2183554,-123.0774499,Sunset
New Bhaia Sweet Shop,5740 Fraser St,Indian,49.2324493,-123.0904074,Sunset
New Novelty Sweet & Restaurant,6669 Fraser St,Indian,49.2239119,-123.0910513,Sunset
Original Tandoori Kitchen,7215 Main St,Indian,49.2190826,-123.1021212,Sunset
Panos Greek Taverna,654 SE Marine Dr,Greek,49.2106133,-123.0922313,Sunset
Papa Dave's pizza and indian cuisine,Knight St,Indian,49.2141986,-123.0771115,Sunset
Papa Day's Pizza & Indian Cuisine,6483 Knight St,Indian,49.2257184,-123.0778229,Sunset
Pho Hong on Fraser,6348 Fraser St,Vietnamese,49.2268627,-123.0903511,Sunset
Pin Pin Restaurant,6113 Fraser St,Filipino,49.2289761,-123.0909249,Sunset
Pita House Restaurant,6196 Fraser St,Greek,49.228313,-123.0904919,Sunset
Pizza Hut,6082 Fraser St,Fast Food,49.2293879,-123.0903305,Sunset
Quiznos,1306 SE Marine Drive,Sandwich,49.2106886,-123.0805584,Sunset
Roots Caf√É¬©,6502 Main St,Coffee,49.2254629,-123.1012332,Sunset
SAMURAI SUSHI ON FRASER,6428 Fraser St,Japanese,49.2262258,-123.0905627,Sunset
Shoom Restaurant,6555 Fraser St,Chinese,49.224886,-123.091114,Sunset
Slice Of Chicago Deep Dish Pizza,5812 Fraser St,Fast Food,49.2318017,-123.0904133,Sunset
So Hyang Korean Cuisine,6345 Fraser St,Korean,49.227,-123.0909235,Sunset
Subway,610 SE Marine Dr,Sandwich,49.2105361,-123.0926764,Sunset
Subway,6191 Fraser St,Sandwich,49.2284157,-123.0908629,Sunset
Super Dhaba Sweets and Catering Ltd.,7273 Fraser St,Indian,49.2185528,-123.0913256,Sunset
Sushi & Co,6520 Fraser St,Japanese,49.225208,-123.0903776,Sunset
Tandoori King,8017 Fraser St.,Indian,49.212444,-123.0914419,Sunset
Tandoori King Restaurant (Old,8061 Fraser Street E 65th Ave,Indian,49.2119569,-123.0915718,Sunset
Tandoori Oven,6452 Main St,Indian,49.2261634,-123.1013709,Sunset
Taste Good Wonton Seafood Restaurant,620 SE Marine Dr,Chinese,49.2105987,-123.092406,Sunset
Taste Jpn,7766 Ontario St,Japanese,49.2145748,-123.1060289,Sunset
Thai Luong Vietnamese Noodle House,5744 Fraser St,Vietnamese,49.232366,-123.090393,Sunset
Triple O's,196 SE Marine Dr,Fast Food,49.2108687,-123.102592,Sunset
Uncle Mings Kitchen,8181 Main St,Chinese,49.2116536,-123.1024687,Sunset
Vancouver Veggie Pizza,7229 Main St,Fast Food,49.2189956,-123.1020791,Sunset
Wakame Sushi,5830 Fraser St.,Japanese,49.231671,-123.0904117,Sunset
Wendy's,10 SE Marine Dr,Fast Food,49.2118873,-123.1061557,Sunset
White Spot Marine Drive,1126 SE Marine Dr,Family-friendly,49.2105107,-123.0833322,Sunset
Win Win Chick-N,8197 Main St,Fast Food,49.2114286,-123.1025054,Sunset
Wo's Chinese Restaurant,8166 Main St,Chinese,49.211421,-123.1017591,Sunset
Yu Xiang Yuan Restaurant,6591 Fraser St,Chinese,49.2246746,-123.0910083,Sunset
9Dishes Japanese Restaurant,6507 Victoria Dr,Japanese,49.2249787,-123.0659313,Victoria-Fraserview
Bon Bon Bakery,5807 Victoria Drive,Bakery,49.2316235,-123.0659286,Victoria-Fraserview
Bubble Waffle Cafe,CA 2639 E 49th Ave,Chinese,49.2255119,-123.053541,Victoria-Fraserview
Celeshmet Restaurant,6956 Victoria Dr,Persian,49.2207446,-123.0655405,Victoria-Fraserview
Fat Boy Kitchen,6943 Victoria Dr,Asian,49.2209419,-123.0662598,Victoria-Fraserview
Flamingo Chinese Restaurant,1652 SE Marine Dr,Chinese,49.2105806,-123.0727278,Victoria-Fraserview
Freshslice Pizza,5845 Victoria Dr,Fast Food,49.2311839,-123.0657887,Victoria-Fraserview
Grand Chinese Hot Pot,6967 Victoria Dr,Chinese,49.2208258,-123.0660325,Victoria-Fraserview
Hometown Pizza,1408 57 Ave. E,Fast Food,49.2179351,-123.0767191,Victoria-Fraserview
Huang's Beef Noodle Restaurant,6940 Victoria Dr,Noodle,49.2208472,-123.0656879,Victoria-Fraserview
Jun Yuan Restaurant,5728 Victoria Dr,Chinese,49.2324182,-123.0652523,Victoria-Fraserview
Karakoram Restaurant,6990 Victoria Dr,Pakistani,49.2204869,-123.0655142,Victoria-Fraserview
Kim Phung Restaurant,5764 Victoria Dr,Vietnamese,49.2318753,-123.0653781,Victoria-Fraserview
Lucky Dragon Palace Restaurant,5822 Victoria Dr,Chinese,49.2309756,-123.0652542,Victoria-Fraserview
Mt. Fuji Japanese Restaurant,106 - 2607 E 49th Ave,Japanese,49.2252764,-123.054468,Victoria-Fraserview
Mt. Fuji Japanese Restaurant,2607 E 49th Ave,Japanese,49.2253612,-123.0544384,Victoria-Fraserview
Mui Garden Restaurant,5797 Victoria Dr,Chinese,49.2317383,-123.0657785,Victoria-Fraserview
Neighbour's Restaurant & Pizza House,6493 Victoria Dr,Fast Food,49.2254343,-123.0659526,Victoria-Fraserview
Nishiki Sushi Bar,6501 Victoria Dr,Japanese,49.2250574,-123.0659426,Victoria-Fraserview
Northern Cafe,1640 East Kent Ave S,Diner,49.2089234,-123.0729807,Victoria-Fraserview
On May Chinese Restaurant,6443 Victoria Dr,Chinese,49.2257985,-123.0661677,Victoria-Fraserview
Pho Thai Ha,2653 E 49th Ave,Vietnamese,49.225388,-123.053545,Victoria-Fraserview
Pine House Bread & Cake House,5870 Victoria Dr.,Bakery,49.230707,-123.0651918,Victoria-Fraserview
Pizza Hut,2619-2625 E 49th Ave,Fast Food,49.2255936,-123.0535762,Victoria-Fraserview
RGK BBQ √ß¬É¬ß√©¬π¬Ö√•¬§¬ß√ß¬é¬ã,5755 Victoria Dr,Chinese,49.2320912,-123.065792,Victoria-Fraserview
Shawarma cafe,1412 E 49th Ave,Mediterranean,49.2250473,-123.0768414,Victoria-Fraserview
Starbucks,2685 E 49th Ave,Coffee,49.2251112,-123.0534421,Victoria-Fraserview
Subway,6402 Victoria Dr,Sandwich,49.2261757,-123.0654783,Victoria-Fraserview
Supreme Pizza,6539 Victoria Dr,Fast Food,49.2248084,-123.0659377,Victoria-Fraserview
Teemway Seafood Co Ltd,6653 Victoria Dr,Caterer,49.2238296,-123.0660052,Victoria-Fraserview
Thai Son Restaurant,6471 Victoria Dr,Vietnamese,49.2257118,-123.0660246,Victoria-Fraserview
Thai Son Restaurant,6447 Victoria Dr.,Vietnamese,49.2257741,-123.0660876,Victoria-Fraserview
The First Dessert,5857 Victoria Dr,Dessert,49.2310847,-123.0657996,Victoria-Fraserview
The Soup House,5763 Victoria Dr.,Chinese,49.2319791,-123.0659269,Victoria-Fraserview
Wah Bo Food LTD,7055 Victoria Dr,Noodle,49.2196977,-123.0659002,Victoria-Fraserview
Wally's Burgers,2661 E 49th Ave,Fast Food,49.2253486,-123.0535419,Victoria-Fraserview
Weirdo Cafe,6459 Victoria Dr,Fusion,49.225727,-123.066243,Victoria-Fraserview
Wing Hing BBQ & Meat,5872 Victoria Dr,Chinese,49.2307034,-123.0653088,Victoria-Fraserview
Yao Sun Loong Kong Chicken Ltd √¶¬ú¬â√©¬†¬Ü√©¬æ¬ç√•¬¥¬ó√©¬õ¬û√®¬°¬å,5817 Victoria Dr,Chinese,49.2315494,-123.0657781,Victoria-Fraserview
Yu Kee BBQ Kitchen,2609 E 49th Ave,Chinese,49.2256543,-123.0543547,Victoria-Fraserview
3 QUARTERS FULL CAFE,1789 Comox St,Chinese,49.2885189,-123.1392191,West End
A Taste Of India Restaurant,1282 Robson St,Indian,49.2866919,-123.1283441,West End
A&W Canada,1158 Alberni St,Fast Food,49.2860922,-123.1252197,West End
A&W Canada,991 Denman St,Fast Food,49.2896798,-123.1386141,West End
Akira Sushi,1069 Denman St,Japanese,49.2885848,-123.140174,West End
Al-Basha,1206 Davie St,Kebab ,49.281871,-123.133692,West End
Babylon Cafe,105-1610 Robson St,Middle Eastern,49.2895386,-123.132799,West End
Banana Leaf Malaysian Cafe,1779 Robson St,Malaysian,49.2914032,-123.1349407,West End
Banana Leaf on Davie,1043 Davie St,Malaysian,49.2799227,-123.1302489,West End
Banana Leaf on Denman,1096 Denman St,Malaysian,49.2882994,-123.1400574,West End
Be Fresh Cafe,955 Burrard St,Cafe,49.2818276,-123.125498,West End
BeetBox Veg,1074 Davie St,Vegan,49.2800757,-123.1309752,West End
Belachan Kitchen,1128 Robson St,Malay,49.2850028,-123.1258737,West End
Big Bang Sushi,1103 Denman St,Japanese,49.2883088,-123.1405025,West End
Black+Blue,1032 Alberni St,Steak,49.2844825,-123.1230584,West End
Boulevard Kitchen & Oyster Bar,845 Burrard Street,Seafood,49.2830751,-123.1239084,West End
Breka Bakery & Caf√É¬© (Bute,812 Bute St,Bakery,49.2856903,-123.1272705,West End
Bubble World,1325 Robson St,Chinese,49.2874137,-123.1287899,West End
Buckstop,833 Denman St,BBQ,49.2910804,-123.1364574,West End
Cactus Club Cafe,1790 Beach Ave,New American,49.2867391,-123.142725,West End
Cafe Il Nido,780 Thurlow St,Italian,49.2846314,-123.1242731,West End
Caf√É¬© Portrait,1120 Denman St,Breakfast,49.2879654,-123.1404312,West End
Cardero Cafe,1016 Cardero St,Cafet,49.2870154,-123.1357669,West End
Cardero Cafe on Davie (Our Neighborhood Coffee Shop,1105 Davie St,Cafe,49.2806888,-123.1311259,West End
Cazba Restaurant,1103 Davie St,Persian,49.280678,-123.1311,West End
ChongQing on Robson,1260 Robson St,Chinese,49.286478,-123.1281157,West End
CinCin Ristorante + Bar,1154 Robson St,Italian,49.285261,-123.1261391,West End
Coast,1054 Alberni St,Seafood,49.2846237,-123.1232331,West End
Cocorico Cafe Bistro Tapas Bar,1290 Robson St,Grill,49.2867745,-123.1285849,West End
Cora Breakfast and Lunch,1368 Robson St,Breakfast,49.2875008,-123.1297495,West End
C|PRIME Modern Italian Steak and Wine,1015 Burrard St,Italian,49.2808932,-123.1272281,West End
D'oro Gelato & Caff√É¬®,1094 Denman St,Dessert,49.2882827,-123.139927,West End
Damso Restaurant,867 Denman St,Korean,49.2906152,-123.1369367,West End
Davie Dosa Company,1235 Davie St,Indian,49.282163,-123.133735,West End
Delany's Coffee House,1105 Denman St,Cafe,49.2883031,-123.1406828,West End
Dinesty Dumpling House,1719 Robson St,Chinese,49.2907799,-123.1340727,West End
Domino's Pizza,777 Denman St,Fast Food,49.2917966,-123.1352624,West End
Donair Dude,1172 Davie St,Fast Food,49.2813704,-123.1329526,West End
Donair Town Robson,1793 Robson St,Middle Eastern,49.2914723,-123.1351595,West End
Dosa & Curry,1188 Davie St,Indian,49.281454,-123.1331673,West End
Downtown Sushi Bar,1205 Davie St,Japanese,49.2819807,-123.1334404,West End
Earls,1185 Robson St,American,49.2859397,-123.1263654,West End
Ebisu On Robson,827 Bute St,Japanese,49.2858585,-123.1274769,West End
Espa√É¬±a Restaurant,1118 Denman St,Spanish,49.2880552,-123.1404114,West End
Falafel King,1110 Denman St,Lebanese,49.288146,-123.140288,West End
Fit Camp Foods,1107 Davie St,Health Food,49.2806728,-123.1312773,West End
Flower & Horse in Spring √®¬ä¬±√©¬¶¬¨√¶¬ò¬•√•¬§¬©√©¬õ¬≤√•¬ç¬ó√©¬Å¬é√¶¬©¬ã√ß¬±¬≥√ß¬∑¬ö,1741 Robson St,Chinese,49.2910565,-123.1344748,West End
Forage,1300 Robson St,Pacific Northwest,49.287051,-123.1290774,West End
Gillaneh Grill House,1072 Denman St,Persian,49.2884421,-123.1396485,West End
Ginger Garlic,Davie,Indian,49.2803931,-123.1311967,West End
Greenhorn Cafe,994 Nicola St,Brunch,49.2866291,-123.1340403,West End
Gurkha Himalayan Kitchen Restaurant,1141 Davie St,Nepalese,49.2811653,-123.1320997,West End
Guu Davie,1239 Davie St,Japanese,49.2823917,-123.1336009,West End
Guu Original Thurlow,838 Thurlow St,Japanese,49.2840076,-123.1254334,West End
Guu with Garlic,1698 Robson St,Japanese,49.2902019,-123.133953,West End
Gyu King Teppanyaki,1022 Alberni St,Japanese,49.2842782,-123.122531,West End
Hida Takayama Ramen,1610 Robson St #203,Japanese,49.2894629,-123.1326324,West End
Ho Ho's Yummy Food,1224 Davie St,Chinese,49.2820498,-123.1340035,West End
Hokkaido Ramen Santouka,1690 Robson St,Japanese,49.2901852,-123.1339645,West End
Holy Guacamole,805 Denman St,Mexican,49.2914957,-123.1357132,West End
Hongdae Pocha Korean BBQ,1642 Robson St,BBQ,49.2897845,-123.1332582,West End
Hook Seabar,1210 Denman St,Seafood,49.286879,-123.141935,West End
Horin Ramen + Sake,1226 Robson St,Japanese,49.2861973,-123.1275046,West End
India Bistro,1157 Davie St,Indian,49.2813797,-123.13251,West End
Italian Tomato,1047 Davie St,Italian,49.2800211,-123.1302754,West End
J&G Fried Chicken,1706 Robson St,Fast Food,49.2904875,-123.1342473,West End
JJ Bean Coffee Roasters,1188 Alberni St,Cafe,49.2864828,-123.1259039,West End
Jang Mo Jib Korean Restaurant,1575 Robson St,Korean,49.2893691,-123.1319381,West End
Jingle Bao,774 Denman St,Asian,49.2916234,-123.134878,West End
Joe Fortes Seafood & Chop House,777 Thurlow St,Seafood,49.2849406,-123.1247733,West End
JoongWon Restaurant,1329 Robson St,Korean,49.2874162,-123.1288262,West End
KFC,1147 Davie St,Fast Food,49.2813111,-123.1322331,West End
Kadoya Japanese Restaurant,1063 Davie St,Japanese,49.2802392,-123.1305632,West End
Kazami,1509 Robson St,Japanese,49.2889878,-123.131197,West End
Khaghan Restaurant Downtown,851 Denman St,Persian,49.2907992,-123.1368123,West End
Kinara Indian Cuisine,1326 Davie St,Indian,49.2830707,-123.1355829,West End
Kingyo,871 Denman St,Japanese,49.2906302,-123.1370603,West End
Kintaro Ramen,788 Denman St,Japanese,49.2915512,-123.1349987,West End
Kirin Restaurant,1172 Alberni St,Chinese,49.286305,-123.1255378,West End
Kobe Japanese Steakhouse,1042 Alberni St,Japanese,49.2845448,-123.1231404,West End
Kosoo Korean Restaurant - 1st Branch,832 Cardero St,Korean,49.2890947,-123.1326326,West End
Koyuki Sapporo Ramen,795 Jervis St,Japanese,49.2873158,-123.1284195,West End
La Baguette et Compagnie,1102 Davie St,Bakery,49.280445,-123.1315288,West End
La Belle Patate Vancouver,1215 Davie St,Fast Food,49.2820333,-123.1335487,West End
La Catrina Tacos,1187 Denman St,Mexican,49.2877737,-123.1412635,West End
Ladur√É¬©e,1141 Robson St,Dessert,49.2853448,-123.1256298,West End
Le Crocodile,909 Burrard St #100,French,49.2823018,-123.1249281,West End
Legendary Noodle,1074 Denman St,Noodle,49.2884818,-123.1397769,West End
Liuyishou Hotpot Robson,1542 Robson St,Chinese,49.288977,-123.1321299,West End
Los Amigos Taqueria,1118 Davie St,Mexican,49.2805803,-123.1319161,West End
MOMO SUSHI BIDWELL,833 Bidwell St,Japanese,49.2903934,-123.1344141,West End
Ma Dang Goul,847 Denman St,Korean,49.2909695,-123.1364999,West End
Marutama Ra-men Canada / Westend,780 Bidwell St,Japanese,49.2905691,-123.1333952,West End
Mary's on Davie,1202 Davie St,Diner,49.2817883,-123.1335975,West End
McDonald's,1610 Davie St,Fast Food,49.2852383,-123.1389968,West End
McDonald's,1701 Robson St,Fast Food,49.2906461,-123.1338744,West End
Mediterranean Grill,1152 Denman St,Persian,49.2877464,-123.1409009,West End
Megabite Pizza Davie St.,1112 Davie St,Fast Food,49.2805685,-123.1317623,West End
Melriches Coffeehouse,1244 Davie St,Coffee,49.2822726,-123.1343617,West End
Miko Sushi Japanese Restaurant,1335 Robson St,Japanese,49.2875451,-123.1289933,West End
Milano Espresso Bar Denman Street,849 Denman St,Cafe,49.2909574,-123.1365014,West End
MoMo Sushi,1230 Robson St,Japanese,49.2862491,-123.1279033,West End
Modern Handi Indian Cuisine,827 Denman St,Indian,49.2911315,-123.1363678,West End
Molli Cafe,1225 Burrard St.,Mexican,49.2787827,-123.1299875,West End
Motomachi Shokudo,740 Denman St,Japanese,49.2918484,-123.1345633,West End
Moxie's Grill & Bar,1160 Davie St,Grill,49.2810568,-123.1327804,West End
Mumbai Local Restaurant,1148 Davie St,Indian,49.2808497,-123.1323893,West End
Nat's New York Pizzeria,1080 Denman St,Fast Food,49.2883888,-123.139882,West End
Neptune Chinese Kitchen √©¬≥¬≥√©¬≥¬¥√ß¬≤¬•√©¬∫¬µ,1136 Alberni St,Chinese,49.2857633,-123.1247303,West End
Neptune Chinese Kitchen √©¬≥¬≥√©¬≥¬¥√©¬£¬ü√•¬∫¬ú (Davie,1143 Davie St,Noodle,49.2812277,-123.1321819,West End
Nero waffles,1703 Robson St,Brunch,49.2906701,-123.1339159,West End
Noodle Arts,1739 Robson St,Chinese,49.2910293,-123.134417,West End
Nook,781 Denman Street,Italian,49.2917365,-123.1353449,West End
Ole chicken,1256 Robson St,Korean,49.2864851,-123.1280225,West End
Olympia Pizza & Pasta Restaurant (Denman Street,998 Denman St,Greek,49.2893285,-123.138305,West End
Ongba Vietnamese Eatery,976 Denman St,Vietnamese,49.2895497,-123.1380672,West End
Osaka Sushi,1361 Burrard St,Japanese,49.2775993,-123.1318759,West End
Panago Pizza,969 Denman St,Fast Food,49.28978,-123.1383661,West End
Papi's Seafood and Oyster Bar,1193 Denman St,Seafood,49.2877699,-123.1413334,West End
PappaRoti,1505 Robson St,Cafe,49.2888952,-123.1311439,West End
Peaked Pies,975 Denman St,Australian,49.2896992,-123.1384286,West End
Pho Central Vietnamese Restaurant,1161 Davie St,Vietnamese,49.2815836,-123.1325109,West End
Pho Goodness,1150 Davie St,Vietnamese,49.2809229,-123.1322677,West End
Pho Goodness,1183 Davie St,Vietnamese,49.2816951,-123.1327991,West End
Pho Q&M Vietnamese Restaurant,825 Denman St,Vietnamese,49.2911737,-123.1363059,West End
Pink Elephant Thai,1152 Alberni St,Thai,49.2859529,-123.1252287,West End
Pizza Hut,#4 1725 Robson St Unit 4,Fast Food,49.2909847,-123.1343667,West End
Pokerrito,1668 Robson St,American,49.2899503,-123.133614,West End
Ramen DANBO,1333 Robson St,Japanese,49.2874958,-123.1289339,West End
Ramen Koika,1231 Davie St,Japanese,49.2821353,-123.1336098,West End
Red Robin Gourmet Burgers and Brews,803 Thurlow Street,Fast Food,49.2845862,-123.1252497,West End
Red Umbrella Cafe,1707 Davie St,Breakfast,49.286402,-123.1403028,West End
Rio Brazilian Steakhouse,1122 Denman St,Brazilian,49.2879495,-123.1404201,West End
Robba da Matti (West End,1906 Haro St,Italian,49.2917344,-123.1385969,West End
Saku,1773 Robson St,Japanese,49.2913126,-123.1348901,West End
Salam Bombay,755 Burrard St 2nd floor,Indian,49.2839926,-123.1221928,West End
Samurai Japanese Restaurant,1108 Davie St,Japanese,49.2805439,-123.1317481,West End
Shabusen Yakiniku House,755 Burrard St #202,Japanese,49.2839983,-123.1223368,West End
Shamrock Bar & Grill,1184 Denman St #102,Irish,49.2873824,-123.1413601,West End
Shenanigans on Robson,1227 Robson St,Irish,49.2865351,-123.127227,West End
Shizenya Restaurant on Denman,1059 Denman St,Japanese,49.288627,-123.1400016,West End
Spicy 6 Fine Indian Cuisine,1116 Robson St,Indian,49.2848585,-123.1256892,West End
Starbucks,785 Denman St,Coffee,49.2916735,-123.1354479,West End
Stepho's Souvlaki Greek Taverna,1124 Davie St,Greek,49.2806316,-123.1321013,West End
Stepho's Souvlaki Greek Taverna,1359 Robson St,Greek,49.287752,-123.129254,West End
Sunset Beach Concession Stand,1204 Beach Ave,Fast Food,49.2788042,-123.1378968,West End
Sura Korean Royal Cuisine Restaurant Vancouver,1518 Robson St,Korean,49.2888077,-123.131828,West End
Sushi Bar Maumi,1226 Bute St,Japanese,49.2813645,-123.1336464,West End
Sushiholic,836 Denman St,Japanese,49.2909605,-123.1360251,West End
Takis' Taverna,1106 Davie St,Greek,49.2805364,-123.1316731,West End
Tartine Bread & Pies,1069 Davie St,Cafe,49.2802396,-123.1307065,West End
Tavola,1829 Robson St,Italian,49.2919048,-123.1356847,West End
Tetsu Sushi Bar,775 Denman St,Japanese,49.2918295,-123.1352117,West End
Thai Basil Restaurant,1215 Thurlow St,Thai,49.2802973,-123.1315906,West End
The Basic,1031 Davie St,Breakfast,49.2797502,-123.1299447,West End
The Basic,948 Denman St,Breakfast,49.289889,-123.1376668,West End
The Capital,1178 Davie St,Fast Food,49.2813262,-123.1332537,West End
The Captain's Boil,1487 Robson St,Seafood,49.28874,-123.130575,West End
The Italians,1220 Bute St,Italian,49.2813107,-123.1335081,West End
The Red Accordion,1616 Alberni St,Pacific Northwest,49.2902314,-123.1318235,West End
The Sauce Pasta Cafe,861 Denman St,Italian,49.2906866,-123.136894,West End
Thida Thai Restaurant,1193 Davie St,Thai,49.2817776,-123.1329753,West End
Thierry Alberni,1059 Alberni St,Dessert,49.2848765,-123.1226288,West End
Tom Sushi,1175 Davie St,Japanese,49.2816505,-123.1326617,West End
True Confections Denman,866 Denman St,Dessert,49.2907579,-123.1361542,West End
T√É¬• Bom Korean Cuisine,1536 Robson St,Korean,49.2889813,-123.1319787,West End
Ukrainian Village,815 Denman St,Ukrainian,49.2914077,-123.1358246,West End
Vera's Burger Shack,1030 Davie St,Fast Food,49.2794934,-123.13008,West End
Viet Sub Vietnamese Cuisine,1682 Robson St,Vietnamese,49.2899538,-123.1336194,West End
Won More Szechuan Cuisine,1184 Denman St,Chinese,49.2872573,-123.1412277,West End
Won More Szechuan Cuisine,201 - 1184 Denman St.,Chinese,49.2918741,-123.1346369,West End
Yakinikuya Japanese BBQ,793 Jervis St,Japanese,49.2873367,-123.128366,West End
Yummy Pizza,1168 Davie St,Fast Food,49.281362,-123.1329409,West End
Yummy To Go,1711 Davie St,Japanese,49.2865407,-123.1404008,West End
Zabu Chicken,1635 Robson St,Chicken,49.2899356,-123.1324871,West End
Zakkushi on Denman,823 Denman St,Japanese,49.2912037,-123.1362474,West End
Zefferelli's,1136 Robson St 2nd Floor,Italian,49.2850272,-123.126053,West End
Zeitoon Restaurant,1795 Pendrell St,Persian,49.2879426,-123.1404572,West End
A&W Canada,2083 Alma St #200,Fast Food,49.268477,-123.185978,West Point Grey
Bean Around the World Coffees,4456 W 10th Ave,Coffee,49.2636605,-123.2079568,West Point Grey
Bella Roma Pizzeria & Ristorante,4460 W 10th Ave,Italian,49.2636161,-123.208092,West Point Grey
Bombay Masala Restaurant,4473 W 10th Ave,Indian,49.264024,-123.2083768,West Point Grey
Breka Bakery & Caf√É¬© (Kitsilano,3750 W 4th Ave,Bakery,49.2685179,-123.1867902,West Point Grey
Burgoo,4434 W 10th Ave,Bistro,49.2636512,-123.2071521,West Point Grey
Danoo Cafe,4462 W 10th Ave,Brunch,49.2636521,-123.2082089,West Point Grey
Dentry's Irish Grill,4450 West 10 Ave.,Irish,49.2636611,-123.2076873,West Point Grey
DoDo SUSHI,4443 W 10th Ave,Japanese,49.263924,-123.207363,West Point Grey
Domino's Pizza,4426 W 10th Ave W,Fast Food,49.2635833,-123.2069036,West Point Grey
Enigma Urban Eatery & Bar,4397 W 10th Ave,Canadian,49.2639001,-123.2059181,West Point Grey
Everyday Sushi,4572 W 10th Ave.,Japanese,49.2637021,-123.211343,West Point Grey
Figaro Caf√É¬© + Bakery,4372 W 10th Ave,Cafe,49.2636631,-123.2051643,West Point Grey
Four Olives Restaurant,4510 W 10th Ave,Greek,49.263669,-123.2095599,West Point Grey
Freshslice Pizza,2083 Alma St #230,Fast Food,49.2681947,-123.1859178,West Point Grey
Ginger & Chili Restaurant,4409 W 10th Ave,Chinese,49.2639581,-123.206341,West Point Grey
Ginger and Chili,4423 West 10th Ave,Asian,49.2639227,-123.2067629,West Point Grey
Gold Train Express,4530 West 10th Ave,Vietnamese,49.2636417,-123.2101416,West Point Grey
Grounds for Coffee,2565 Alma St,Cafe,49.2638467,-123.1860727,West Point Grey
Hime Sushi,4480 W 10th Ave.,Japanese,49.2636149,-123.2085421,West Point Grey
Hime Sushi,4490 W 10th Ave,Japanese,49.2636989,-123.2087306,West Point Grey
Koi Sushi,4532 W 10th Ave,Japanese,49.2636389,-123.2101844,West Point Grey
Locarno Beach Cafe,4445 NW Marine Dr,Cafe,49.2751382,-123.2062934,West Point Grey
Mix the Bakery,4430 W 10th Ave,Bakery,49.263638,-123.206997,West Point Grey
Pizza Hut,4540 West 10th Avenue,Fast Food,49.2636288,-123.2103871,West Point Grey
Rajio Japanese Public House,3763 W 10th Ave,Japanese,49.2636263,-123.1871358,West Point Grey
Rice Burger,2630 Sasamat St,Asian,49.2634268,-123.2089782,West Point Grey
Spanish Banks West Concession,4875 NW Marine Dr,Fast Food,49.2774896,-123.2226717,West Point Grey
Subway,4367 W 10th Ave,Sandwich,49.2639068,-123.2049784,West Point Grey
Sun Sushi,4512 W 10th Ave.,Japanese,49.2636959,-123.2095971,West Point Grey
T Room Bakery & Kitchenware,4445 West 10th Ave,Bakery,49.2639742,-123.2074662,West Point Grey
Takumi Japanese Restaurant,4422 W 10th Ave,Japanese,49.2636144,-123.2067299,West Point Grey
The Diner,4556 10th Ave W,Diner,49.2636064,-123.2108682,West Point Grey
The Galley Patio & Grill,1300 Discovery Street,Fast Food,49.2756037,-123.2015089,West Point Grey
The Kitchen Homemade Korean Restaurant,2620 Sasamat street,Korean,49.2634428,-123.2089752,West Point Grey
Yuji's from Japan,2083 Alma St,Japanese,49.2679307,-123.1865956,West Point Grey