name,address,cuisine,lat,lng,region
Sorella,3369 Cambie St,Italian,49.2553882,-123.1154401,South Cambie
Kim Express,952 W King Edward Ave,Takeout Restaurant,49.2485223,-123.1254486,South Cambie
Indian Junction Bar & Grill,3364 Cambie St,Indian,49.25525769999999,-123.1147778,Riley Park
Corduroy Pie Company,758 W 16th Ave,Pizza,49.2569247,-123.1212866,South Cambie
Osaka Sushi,960 W King Edward Ave,Japanese,49.2485394,-123.1255618,South Cambie
Tokyo John Sushi,3365 Cambie St,Japanese,49.2554431,-123.1153495,South Cambie
Viet House,3420 Cambie St,Vietnamese,49.2546251,-123.1149973,Riley Park
Café Gloucester,3338 Cambie St,Chinese,49.2555333,-123.1147493,Riley Park
Sushi TonTon,4018 Cambie St,Japanese,49.2498517,-123.1150166,Riley Park
Sabra Kosher Bakery & Restaurant Ltd,3844 Oak St,Kosher,49.2513234,-123.1272918,South Cambie
Corner 23,4008 Cambie St,Taiwanese,49.2499562,-123.1150368,Riley Park
Flying Wedge Pizza Co,3357 Cambie St,Pizza,49.2555016,-123.1154329,South Cambie
Landmark Hotpot House,4023 Cambie St,Chinese,49.2498405,-123.1155811,South Cambie
City 1 Cafe,954 W King Edward Ave,Singaporean,49.2483912,-123.1254967,South Cambie
Shiro Japanese,3096 Cambie St,Japanese,49.2579297,-123.1146171,Mount Pleasant
Dutch Wooden Shoe Cafe,3292 Cambie St,Dutch,49.2560013,-123.1148992,Riley Park
Hachibei,778 W 16th Ave,Japanese,49.256928,-123.1215673,South Cambie
Vij's Restaurant,3106 Cambie St,Indian,49.2575375,-123.1147883,Mount Pleasant
Sushi 7,3488 Cambie St,Japanese,49.25417290000001,-123.1148366,Riley Park
Mandarin Hong Kong Cafe 文華餐廳,904 W King Edward Ave,Chinese,49.248413,-123.1251604,South Cambie
Thai Away Home,3315 Cambie St,Thai,49.2557391,-123.1153778,South Cambie
Pho Xe Lua 24,3346 Cambie St,Pho,49.2554106,-123.1149547,Riley Park
Rayhan,3170 Oak St,Mediterranean,49.2574073,-123.1269061,Fairview
Zaccary's Pizza,3150 Oak St,Pizza,49.2574657,-123.1270033,Fairview
The Firewood Café,3004 Cambie St,Pizza,49.25852740000001,-123.1148738,Mount Pleasant
Cambie Vietnamese Restaurant,4136 Main St,Vietnamese,49.24832550000001,-123.1008158,Riley Park
Indian Roti Kitchen,2961 Cambie St,Indian,49.2590241,-123.1153551,Fairview
White Spot Oakridge,613 650 W 41st Ave A,Family-friendly,49.2333095,-123.1175731,Oakridge
Breakfast Table,3014 Granville St,Breakfast,49.258568,-123.1385172,Fairview
Marulilu Café,451 W Broadway,Japanese,49.2633418,-123.1141032,Mount Pleasant
Trilussa Pizza & Pane,4363 Main St,Pizza,49.2464617,-123.1014422,Riley Park
Peaceful Restaurant,532 W Broadway #110,Chinese,49.2630874,-123.1160779,Fairview
The Fish Counter,3825 Main St,Seafood,49.2507804,-123.1012704,Riley Park
Whitewood Coffee,3208 Oak St,Coffee store,49.2567937,-123.1268805,South Cambie
Burgoo,3096 Main St,Bistro,49.2576348,-123.1008393,Mount Pleasant
Bin 4 Burger Lounge,2996 Granville St,Hamburger,49.2590704,-123.1384745,Fairview
Chickpea Restaurant,4298 Main St,Vegan,49.2465536,-123.1010436,Riley Park
Tropika,2975 Cambie St,Malaysian,49.2589021,-123.1153024,Fairview
Rocky Mountain Flatbread Main Street,4186 Main St,Pizza,49.2478042,-123.1007361,Riley Park
Toshi Sushi,181 E 16th Ave,Japanese,49.25671029999999,-123.1019284,Mount Pleasant
Sushi Mania,3851 Main St,Japanese,49.2506311,-123.1013081,Riley Park
Seiza Japanese Cuisine,3068 Main St,Japanese,49.2578688,-123.1008956,Mount Pleasant
Subway,3890 Oak St,Sandwich,49.25094379999999,-123.1270301,South Cambie
De Dutch Pannekoek House,3192 Oak St,Breakfast,49.25726419999999,-123.1270022,Fairview
The Stable House Bistro,1520 W 13th Ave,Bistro,49.259699,-123.139316,Fairview
East is East,4433 Main St,Organic,49.2453531,-123.1014848,Riley Park
Raga Restaurant,1177 W Broadway,Indian,49.2637614,-123.1305469,Fairview
MeeT on Main,4288 Main St,Vegetarian,49.246713,-123.1008309,Riley Park
Heirloom Vegetarian Restaurant,1509 W 12th Ave,Vegetarian,49.2609126,-123.1391689,Fairview
El Camino's,3250 Main St,Latin American,49.25617039999999,-123.1010147,Riley Park
Long's Noodle House,4853 Main St,Shanghainese,49.2412498,-123.1016585,Riley Park
The Acorn Restaurant,3995 Main St,Vegetarian,49.2495953,-123.1013533,Riley Park
Saku Broadway,548 W Broadway,Japanese,49.26310059999999,-123.1166394,Fairview
Soho Tea Room,3466 Cambie St,Chinese,49.2542909,-123.114925,Riley Park
Samurai Sushi House,5888 Cambie St,Japanese,49.2318904,-123.1159603,Oakridge
Kind Cafe,3080 Main St,Vegan,49.2577372,-123.1008267,Mount Pleasant
The Arbor Restaurant,3941 Main St,Vegetarian,49.24995089999999,-123.101352,Riley Park
Uma Sushi,450 W 8th Ave,Japanese,49.2638104,-123.1137727,Mount Pleasant
Sprezzatura Restaurant,265 Kingsway,Italian,49.2612756,-123.0978145,Mount Pleasant
Hawkers Delight Deli,4127 Main St,Malaysian,49.2483626,-123.101467,Riley Park
Anh and Chi,3388 Main St,Vietnamese,49.2549852,-123.1008596,Riley Park
Sun Garden Chinese Restaurant,3832 Oak St,Chinese,49.2514875,-123.1272813,South Cambie
The Shameful Tiki Room,4362 Main St,Polynesian restaurant,49.2461036,-123.1010655,Riley Park
Helen's Grill,4102 Main St,Diner,49.2486433,-123.1007253,Riley Park
Pho Tan Restaurant,4598 Main St,Asian,49.2434312,-123.1011702,Riley Park
Bon Cafe,4909 Main St,Pho,49.2403618,-123.1017427,Riley Park
Hot Delivery Chinese Food,3002 Cambie St,Chinese Delivery,49.2585541,-123.1148653,Mount Pleasant
Sawasdee Thai Restaurant,4250 Main St,Thai,49.2470563,-123.1008276,Riley Park
Paul's Omelettery Restaurant,2211 Granville St,Breakfast,49.2659984,-123.1387561,Fairview
5 Spice Vietnamese Cuisine,1513 W Broadway,Vietnamese,49.2638171,-123.1391631,Fairview
Gyu-Kaku Japanese BBQ,950 W Broadway #201,Yakiniku,49.2632584,-123.1257975,Fairview
Subway,3297 Cambie St Unit #2,Sandwich,49.2561084,-123.1153776,South Cambie
Autostrada Osteria Main Street,4811 Main St,Italian,49.2417397,-123.1016277,Riley Park
Nam Nam Noodle,4191 Main St,Chinese Noodles,49.2481699,-123.1013299,Riley Park
Bob Likes Thai Food.,3755 Main Street @ E 21st Ave,Thai,49.2513423,-123.101333,Riley Park
Pepper Lunch,2323 Cambie St,Japanese,49.2646119,-123.1150465,Fairview
Papa's Gourmet Pizza,3030 Main St,Pizza,49.258249,-123.1008873,Mount Pleasant
CHI HOUSE,4063 Main St,Sichuan,49.2492976,-123.101588,Riley Park
Simply Delicious Restaurant & Bar,4316 Main St,Asian,49.2464954,-123.1010225,Riley Park
Fiore - South Granville,1485 W 12th Ave,Italian,49.2608974,-123.1382242,Fairview
Martini's Whole Wheat Pizza,151 Broadway W,Pizza,49.26322649999999,-123.1082126,Mount Pleasant
Copa Cafe,4032 Cambie St,Chinese,49.2496738,-123.1151586,Riley Park
Sun Sui Wah,3888 Main St,Chinese,49.2504277,-123.1006395,Riley Park
Ignite Pizzeria,2588 Main St,Pizza,49.26213,-123.1007895,Mount Pleasant
SUSHI HUB,4855 Main St,Japanese,49.2411806,-123.1016703,Riley Park
Sushi Bar Ajisai,2081 W 42nd Ave,Japanese,49.233934,-123.1536816,Kerrisdale
Boiling Point,4148 Main St,Chinese,49.2482504,-123.1008849,Riley Park
Mitra Canteen,3034 Main St,Middle Eastern,49.2580707,-123.1008151,Mount Pleasant
Sushi Mura,6485 Oak St,Japanese,49.2268452,-123.1287853,Oakridge
Kwong Chow Congee & Noodle House,3163 Main St,Cantonese,49.2570141,-123.1014822,Mount Pleasant
Yu Xiang Yuan Restaurant,6591 Fraser St,Chinese,49.2246746,-123.0910083,Sunset
Pho Goodness (Main Street,3079 Main St,Vietnamese,49.2577224,-123.1014771,Mount Pleasant
Haiyi Seafood Restaurant,4818 Main St,Takeout Restaurant,49.2420726,-123.1012135,Riley Park
Branas Mediterranean Grill,617 Stamps Landing,Mediterranean,49.26850049999999,-123.1187213,Fairview
Jitlada Thai Restaurant,118 W 6th Ave,Thai,49.265512,-123.1075603,Mount Pleasant
Lin Chinese Cuisine and Tea House,1537 W Broadway,Chinese,49.26377309999999,-123.1397224,Fairview
Chutney Villa South Indian Cuisine,147 E Broadway,Indian,49.2631923,-123.1018777,Mount Pleasant
Madras Spice Restaurant,6260 Fraser St,Indian,49.2277989,-123.0904622,Sunset
Slickity Jim's Chat 'n' Chew,3475 Main St,Breakfast,49.2540235,-123.1010613,Riley Park
Hyde Restaurant & Lounge,2960 Main St,Grill,49.2586779,-123.1009464,Mount Pleasant
Church's Chicken,3425 Main St,Fast Food,49.2544611,-123.1012989,Riley Park
Zakkushi Dining on Main,4075 Main St,Izakaya,49.2490989,-123.1015353,Riley Park
Uncle Fatih's Pizza - CAMBIE,477 W 8th Ave,Pizza,49.2640751,-123.1140519,Mount Pleasant
B House Restaurant,2270 Commercial Dr,Asian,49.2644738,-123.0695334,Grandview-Woodland
La Terrazza,1088 Cambie St,Italian,49.2749917,-123.1186413,Downtown
Kaori Izakaya,3043 Main St,Japanese,49.2579913,-123.1014181,Mount Pleasant
A&W Canada,650 W 41st Ave W,Hamburger,49.2320456,-123.1186835,Oakridge
Ro Sushi Japanese Bistro,678 W Broadway,Asian,49.2631001,-123.1192423,Fairview
Nando's Kerrisdale,2064 W 41st Ave,Chicken,49.2342436,-123.1540599,Kerrisdale
Lemonade Gluten Free Bakery,3385 Cambie St,Bakery,49.2552193,-123.1154132,South Cambie
Burdock & Co,2702 Main St,Small Plates,49.260986,-123.100708,Mount Pleasant
Sushivan,2566 Granville St,Japanese,49.26296319999999,-123.1383187,Fairview
OEB Breakfast Co.,1137 Marinaside Crescent,Breakfast,49.2734565,-123.119265,Downtown
The General Public Sushi Lodge,3289 Main St,Japanese,49.2558553,-123.1015339,Riley Park
Dairy Queen Grill & Chill,2888 Main St,Fast Food,49.2594249,-123.1007522,Mount Pleasant
Nikkyu Japanese Restaurant,3302 Main St,Japanese,49.255567,-123.101019,Riley Park
Wendy's,480 W 8th Ave,Fast Food,49.2636949,-123.1144896,Mount Pleasant
Shanghai Lu Restaurant,705 W Broadway,Shanghainese,49.26361259999999,-123.1200751,Fairview
Pokedoki - Poke,693 W Broadway,Hawaiian,49.2634971,-123.1195716,Fairview
iDen & Quan Ju De Beijing Duck House (全聚德,2808 Cambie St,Fine Dining,49.2601395,-123.1147488,Mount Pleasant
Sula Indian Restaurant - Main Street,4172 Main St,Indian,49.2479632,-123.1007692,Riley Park
Maenam,1938 W 4th Ave,Thai,49.2678675,-123.1488949,Kitsilano
Panago Pizza,8333 Granville St,Pizza,49.2111805,-123.1408436,Marpole
Trafiq,4216 Main St,Bakery,49.2473463,-123.1007201,Riley Park
Marutama Gaiden,2858 Main St,Japanese,49.25955829999999,-123.100899,Mount Pleasant
Peninsula (Oakridge) Seafood Restaurant,650 W 41st Ave,Seafood,49.2320456,-123.1186835,Oakridge
Aling Ening Restaurant,4253 Fraser St,Filipino,49.247027,-123.0905809,Riley Park
Angel Cafe,5995 Fraser St,Chinese,49.2302215,-123.0908067,Sunset
Thai Away Home on Granville,1081 Granville St,Thai,49.2785035,-123.1245091,Downtown
Dream Sushi,4401 Main St,Japanese,49.2458467,-123.1014995,Riley Park
Bob Likes Thai Food,1521 W Broadway,Thai,49.2637902,-123.1393566,Fairview
Royal Seoul House Restaurant,1215 W Broadway,Korean,49.2636516,-123.1318882,Fairview
Sal y Limón,701 Kingsway #5,Mexican,49.2567896,-123.089226,Mount Pleasant
Minato Sushi Restaurant (Vancouver BC,1001 W Broadway #102,Japanese,49.2636471,-123.1270408,Fairview
Egg & Co.,4245 Fraser St,Brunch,49.24715699999999,-123.0904601,Riley Park
Slice Of Chicago Deep Dish Pizza,5812 Fraser St,Pizza,49.2318017,-123.0904133,Sunset
Les Faux Bourgeois,663 E 15th Ave,French,49.2573518,-123.0896297,Mount Pleasant
Nando's Davie & Howe (Downtown,828 Davie St,Chicken,49.2778637,-123.1276568,Downtown
Z&W Shanghai Kitchen 龙餐馆 - 龍上海菜,2126 W Broadway,Shanghainese,49.263687,-123.1535823,Kitsilano
Kalvin's Restaurant,5225 Victoria Dr,Taiwanese,49.2372789,-123.0656188,Kensington-Cedar Cottage
Sushi Bang,Cambie St CA,Japanese,49.2402091,-123.1178968,Riley Park
Akbar's Own Indian Restaurant,1905 W Broadway,Indian,49.2640234,-123.1484033,Kitsilano
Como Taperia,201 E 7th Ave,Spanish,49.2647398,-123.1006238,Mount Pleasant
Noodlebox,1867 W 4th Ave,Asian,49.2683131,-123.1471669,Kitsilano
Boston Pizza,1333 Broadway W Suite 190,Pizza,49.2638726,-123.1342629,Fairview
JJ Bean Coffee Roasters,3399 Cambie St,Cafe,49.2551248,-123.115465,South Cambie
Mangos Lounge,1180 Howe St,Mexican,49.2782904,-123.1260684,Downtown
All India Sweets & Restaurant,6560 Main St,Indian,49.225123,-123.1013989,Sunset
Pho Extreme Xe Lua,457 W Broadway,Pho,49.2634031,-123.1143093,Mount Pleasant
McDonald's,4445 Main St,Fast Food,49.245242,-123.1014882,Riley Park
The Mighty Oak,198 W 18th Ave,Coffee shop,49.25462899999999,-123.109615,Riley Park
Galaxy Grill at Planet Bingo,2655 Main St,Grill,49.2616288,-123.1014236,Mount Pleasant
A&W Canada,555 12th Ave W Unit 25,Hamburger,49.2609881,-123.1164951,Fairview
Bangkok City Cafe,2953 W 4th Ave,Thai,49.2685582,-123.1706353,Kitsilano
usagi sweets,3720 Oak St,Japanese cheap sweets shop,49.2524673,-123.1272818,South Cambie
Neighbour's Restaurant & Pizza House,6493 Victoria Dr,Pizza,49.2254343,-123.0659526,Victoria-Fraserview
Cosy Inn Cafe,4455 Dunbar St,Breakfast,49.24656960000001,-123.1854609,Dunbar-Southlands
Jules Bistro,216 Abbott St,French,49.28344269999999,-123.1064141,Downtown
Panago Pizza,120-511 SW Marine Dr,Pizza,49.2100905,-123.1178353,Marpole
Five Sails Restaurant,999 Canada Pl,Fine Dining,49.2886946,-123.1111906,Downtown
Gotham Steakhouse & Cocktail Bar,615 Seymour St,Steak,49.2828825,-123.1159646,Downtown
Best Quality Sweets & Rest,7260 Main St,Vegetarian,49.21879999999999,-123.101596,Sunset
Mali Thai Restaurant,2710 Main St,Thai,49.26085519999999,-123.100867,Mount Pleasant
Deja Brew Coffeehouse + Fresh Food Cafe,943 W Broadway,Cafe,49.2637023,-123.1250172,Fairview
The Pizza King,1464 E Broadway,Pizza,49.2621968,-123.0742766,Kensington-Cedar Cottage
Chu Kiang Chinese Restaurant,6491 Knight St,Chinese,49.2256096,-123.0778425,Sunset
Glowbal,590 W Georgia St,Fusion restaurant,49.2811002,-123.1177713,Downtown
Ba-Le Deli & Bakery,701 Kingsway,Bakery,49.2567896,-123.089226,Mount Pleasant
Noodlebox,839 Homer St,Asian,49.2791466,-123.1177574,Downtown
McKim Wonton Mein Saga,2780 Kingsway,Chinese,49.2370618,-123.0483267,Renfrew-Collingwood
BC Liquor Stores 39Th & Cambie,5555 Cambie St,Liquor store,49.23469780000001,-123.1167789,South Cambie
