name,address,cuisine,lat,lng,region
Ekki Sushi,1150 Station St #146,Japanese,49.2737759,-123.097836,Strathcona
Tayybeh,401 Industrial Ave,Middle Eastern,49.2700048,-123.0957958,Strathcona
The Union,219 Union St,South East Asian,49.2777797,-123.0989601,Strathcona
Phnom Penh Restaurant,244 E Georgia St,Cambodian,49.2783154,-123.0981947,Strathcona
Vancouver Private Dining,1370 E Georgia St,Caterer,49.278305,-123.0755801,Grandview-Woodland
Torafuku,958 Main St,Pan Asian,49.2758842,-123.09968,Strathcona
Oyster Express,296 Keefer St,Seafood,49.2793021,-123.0973781,Strathcona
Kokomo,611 Gore Ave,Vegan,49.2791736,-123.0973488,Strathcona
Tacomio Pick Up Window,1245 Glen Dr,Takeout Restaurant,49.2735,-123.0819493,Strathcona
Steve's Poké Bar,891 Great Northern Way,Hawaiian,49.2663583,-123.0841213,Strathcona
Fat Mao Noodles,217 E Georgia St,Noodle Shop,49.2787559,-123.0989242,Strathcona
Ming Fong Fast Food,180 Keefer St,Chinese,49.2791047,-123.1007624,Downtown
Chinatown BBQ,130 E Pender St,Chinese,49.28016,-123.1015139,Downtown
Come Arepa,302 Industrial Ave,Fast Food,49.2697188,-123.0984273,Strathcona
Hey Dumplings!,208 Keefer St,Dumpling,49.279337,-123.0992115,Strathcona
Gain Wah Restaurant Ltd,218 Keefer St,Cantonese,49.2793717,-123.0989354,Strathcona
Kissa Tanto,263 E Pender St,Fusion restaurant,49.2806451,-123.0981172,Strathcona
Pacific Poke,625 Main St,Hawaiian,49.2790547,-123.1000169,Downtown
Bodega on Main,1014 Main St,Spanish,49.275431,-123.0993791,Strathcona
Bao Bei,163 Keefer St,Chinese,49.2796534,-123.1006157,Downtown
Virtuous Pie,583 Main St,Vegan,49.279734,-123.0999725,Downtown
Pizzeria Farina,915 Main St,Pizza,49.2765892,-123.1000905,Downtown
Sai Woo,158 E Pender St,Asian,49.2801505,-123.1009936,Downtown
Yolks,1598 E Hastings St,Breakfast,49.2811259,-123.072895,Grandview-Woodland
Kent's Kitchen,232 Keefer St,Chinese,49.2793684,-123.0988074,Strathcona
Absinthe Bistro,952 Commercial Dr,French,49.2759736,-123.0693516,Grandview-Woodland
Pepino's Spaghetti House,631 Commercial Dr,Italian,49.2788717,-123.0706063,Grandview-Woodland
A&W Canada,1150 Station St,Hamburger,49.2737759,-123.097836,Strathcona
New Town Bakery & Restaurant,148 E Pender St,Chinese bakery,49.2803095,-123.1011943,Downtown
DD MAU Chinatown,145 E Pender St,Vietnamese,49.2805781,-123.1008037,Downtown
Wilder Snail Neighborhood Grocery & Coffee,799 Keefer St,Coffee shop,49.279433,-123.0874543,Strathcona
Bali Thai,88 W Pender St,Indonesian,49.2804064,-123.1069714,Downtown
Cuchillo,261 Powell St,Latin American,49.2834276,-123.0981059,Strathcona
Kin Kao Thai Kitchen,903 Commercial Dr,Takeout Restaurant,49.2763558,-123.0696924,Grandview-Woodland
Campagnolo Upstairs,1020 Main St second floor,Bar,49.2754049,-123.0997124,Strathcona
PiDGiN Restaurant,350 Carrall St,Asian,49.28188100000001,-123.104145,Downtown
Strathcona Beer Company,895 E Hastings St,Brewpub,49.2812279,-123.0850699,Strathcona
Fets Whisky Kitchen,1230 Commercial Dr,Grill,49.2735267,-123.0692475,Grandview-Woodland
Straight Outta Brooklyn NYC Pizza,648 Main St,Pizza,49.2786853,-123.0995522,Strathcona
Ginger Sushi,1437 Commercial Dr,Takeout Restaurant,49.2717096,-123.0697506,Grandview-Woodland
Axum Restaurant,1279 E Hastings St,Ethiopian,49.2816149,-123.0777844,Strathcona
Kam Wai Dim Sum 金 威 點 心,249 E Pender St,Chinese,49.28061,-123.098438,Strathcona
The Mackenzie Room,415 Powell St,Canadian,49.2833009,-123.0949246,Strathcona
L'Abattoir,217 Carrall St,Pacific Northwest,49.2831234,-123.1044431,Downtown
Sopra Sotto Pizzeria,1510 Commercial Dr,Italian,49.271035,-123.0692425,Grandview-Woodland
Arriva Ristorante Ltd,1537 Commercial Dr,Italian,49.2709212,-123.0698917,Grandview-Woodland
La Mezcaleria,1622 Commercial Dr,Mexican,49.2700977,-123.0692773,Grandview-Woodland
Ask For Luigi Restaurant,305 Alexander St,Italian,49.2842,-123.0977177,Strathcona
Calabash Bistro,428 Carrall St,Caribbean,49.28103369999999,-123.1041914,Downtown
Tacofino Taco Bar,15 W Cordova St,Mexican,49.2827731,-123.1047979,Downtown
St Lawrence Restaurant,269 Powell St,French,49.2833058,-123.0979713,Strathcona
MeeT in Gastown,12 Water St,Vegetarian,49.2834276,-123.1048588,Downtown
The Whip Restaurant & Gallery,209 6th Avenue East,Takeout Restaurant,49.26560869999999,-123.1001642,Mount Pleasant
Hanoi Pho Restaurant,406 E Hastings St,Vietnamese,49.281101,-123.0951596,Strathcona
Sula Indian Restaurant - Commercial Drive,1128 Commercial Dr,Indian,49.2744339,-123.0691883,Grandview-Woodland
Gringo,27 Blood Alley Square,Mexican,49.2833607,-123.1053151,Downtown
Ba Le Sandwich Shop,633 Main St,Sandwich,49.27885449999999,-123.100179,Downtown
Ugly Dumpling,1590 Commercial Dr,Asian,49.2706489,-123.0694667,Grandview-Woodland
Belgard Kitchen,55 Dunlevy Ave,Canadian,49.2843192,-123.0956589,Strathcona
Windjammer Restaurant,937 Commercial Dr,British,49.2760328,-123.0696455,Grandview-Woodland
Di Beppe Restaurant,8 W Cordova St,Italian,49.282365,-123.104637,Downtown
Dixie's BBQ Commissary,337 E Hastings St E,Barbecue,49.2815544,-123.0966219,Strathcona
Wildebeest,120 W Hastings St,Pacific Northwest,49.2819194,-123.1080066,Downtown
Vortex Restaurant Equipment,763 Terminal Ave,Kitchen supply store,49.271044,-123.0876428,Strathcona
Fassil Restaurant,736 E Broadway,Ethiopian,49.2622223,-123.0882139,Mount Pleasant
Nicli Antica Pizzeria,62 E Cordova St,Pizza,49.28217919999999,-123.1028313,Downtown
Gusto A Taste Of Italy,1610 Salt St,Italian,49.2714007,-123.1059364,Mount Pleasant
Harambe Ethiopian Restaurant,2149 Commercial Dr,Ethiopian,49.26556679999999,-123.0699715,Grandview-Woodland
Tatsu Japanese Bistro,1441 Commercial Dr,Japanese,49.2716228,-123.0698886,Grandview-Woodland
Kishimoto Japanese Restaurant,2054 Commercial Dr,Japanese,49.2667364,-123.0694112,Grandview-Woodland
Deacon's Corner,101 Main St,Diner,49.2839947,-123.099882,Downtown
Lombardo's Pizzeria & Ristorante,1641 Commercial Dr,Italian,49.2700044,-123.0698928,Grandview-Woodland
The Boss Bakery & Restaurant Chinatown,532 Main St,Bakery,49.279825,-123.0993261,Strathcona
Hai Phong Kitchen,186 Keefer Pl,Vietnamese,49.2796087,-123.108583,Downtown
Rodney's Oyster House,52 Powell St,Seafood,49.28304989999999,-123.1030463,Downtown
Twisted Fork Bistro,213 Carrall St,Brunch,49.2831834,-123.1044482,Downtown
Cafe Deux Soleils,2096 Commercial Dr,Breakfast,49.2660509,-123.0694337,Grandview-Woodland
Como Taperia,201 E 7th Ave,Spanish,49.2647398,-123.1006238,Mount Pleasant
Charisma Cafe & Dessert House,197 Keefer Pl,Dessert,49.2799406,-123.1087145,Downtown
Maxim's Bakery & Restaurant Chinatown,257 Keefer St,Bakery,49.2795906,-123.0978562,Strathcona
Eternal Abundance Organic Market & Eatery,1025 Commercial Dr,Vegan,49.275432,-123.0698104,Grandview-Woodland
The Old Spaghetti Factory (Gastown,53 Water St,Italian,49.2837374,-123.1052117,Downtown
The Poke Guy,420 Richards St,Hawaiian,49.28377039999999,-123.1120424,Downtown
Dosanko Restaurant,566 Powell St Unit #100,Japanese,49.2828319,-123.0919338,Strathcona
TAKO - Taqueria Korean,601 Expo Blvd,Korean,49.2788834,-123.1082574,Downtown
Peckinpah,2 Water St,Southern,49.28333569999999,-123.1046377,Downtown
Budgies Burritos,44 Kingsway,Vegetarian,49.263639,-123.1004686,Mount Pleasant
Water St. Café,300 Water St,Canadian,49.2841708,-123.1090542,Downtown
Tandoori Palace,1439 Commercial Dr,Indian,49.2716292,-123.0699829,Grandview-Woodland
Vera's On The Drive,1438 Commercial Dr,Hamburger,49.27164339999999,-123.0694547,Grandview-Woodland
VanKoshary Eats,400 Industrial Ave,Takeout Restaurant,49.2692457,-123.0955406,Strathcona
Thai Basil Restaurant,1179 Commercial Dr,Thai,49.2741724,-123.0698629,Grandview-Woodland
Catch 122 Cafe Bistro,122 W Hastings St,Bistro,49.28184419999999,-123.1081617,Downtown
Vegan Pudding & Co.,422 Richards St,Vegan,49.2836682,-123.1121414,Downtown
The Flying Pig Gastown,102 Water St,Canadian,49.2837739,-123.1067002,Downtown
Nonna's Table Pizzeria & Restaurant,1489 E Hastings St,Italian,49.2814968,-123.0745067,Grandview-Woodland
Sunrise Pizza & Steak House,949 Commercial Dr,Pizza,49.2758896,-123.0696667,Grandview-Woodland
Brioche Urban Eatery,401 W Cordova St,Italian,49.2842375,-123.1099282,Downtown
La Casita - Gastown,101 W Cordova St,Mexican,49.2831085,-123.1069497,Downtown
Nightingale,1017 W Hastings St,Canadian,49.287432,-123.1175609,Downtown
Red Burrito,1700 Commercial Dr,Mexican,49.2694662,-123.0693077,Grandview-Woodland
Revel Room Supper Club & Live Music Restaurant,238 Abbott St,Southern,49.28307909999999,-123.1065521,Downtown
Jules Bistro,216 Abbott St,French,49.28344269999999,-123.1064141,Downtown
White Spot Dunsmuir,405 Dunsmuir St,Family-friendly,49.2819406,-123.1135203,Downtown
Take Thai Home Restaurants,1736 Commercial Dr,Thai,49.2689969,-123.0692568,Grandview-Woodland
Jitlada Thai Restaurant,118 W 6th Ave,Thai,49.265512,-123.1075603,Mount Pleasant
Pink Pearl Chinese Seafood Restaurant,1132 E Hastings St,Chinese,49.2806949,-123.0802963,Strathcona
Forage,1300 Robson St,Pacific Northwest,49.287051,-123.1290774,West End
Martini's Whole Wheat Pizza,151 Broadway W,Pizza,49.26322649999999,-123.1082126,Mount Pleasant
Sal y Limón,701 Kingsway #5,Mexican,49.2567896,-123.089226,Mount Pleasant
Manna Sushi,6 E 2nd Ave,Japanese,49.2690952,-123.1044923,Mount Pleasant
A&W Canada,1399 Main St #110,Hamburger,49.27313729999999,-123.10036,Downtown
Momo Sushi,6-375 Water St,Japanese,49.284686,-123.110254,Downtown
Nirvana Restaurant,2313 Main St,Indian,49.2643576,-123.1012003,Mount Pleasant
The Garden Strathcona,868 E Hastings St,Cafe,49.2808066,-123.085638,Strathcona
Joyeaux Café & Restaurant,551 Howe St,Vietnamese,49.2848652,-123.1170502,Downtown
Britannia Sushi,1016 Commercial Dr,Japanese,49.2754328,-123.0693353,Grandview-Woodland
Indigo Age Catering,436 Richards St,Vegan,49.283463,-123.1125294,Downtown
Prime Time Chicken and Chinese Food,416 Main St,Chicken,49.2809398,-123.0993214,Strathcona
Peaceful Restaurant,43 E 5th Ave,Chinese,49.2666437,-123.1037431,Mount Pleasant
Tsuki Sushi Bar,509 Abbott St,Japanese,49.2808984,-123.107827,Downtown
Haru Korean Kitchen,324 Cambie St,Korean,49.2829075,-123.1091588,Downtown
Top Of Vancouver Revolving Restaurant,555 W Hastings St,Continental restaurant,49.2846966,-123.1119349,Downtown
Yagger's Downtown Restaurant & Sports Bar,433 W Pender St,Takeout Restaurant,49.28317639999999,-123.1122509,Downtown
Silk Dinner Lounge and Restaurant,132 Powell St,Indian,49.2831042,-123.1010731,Downtown
The Irish Heather,210 Carrall St,Irish pub,49.2828842,-123.1041375,Downtown
Kojima Sushi,1836 Commercial Dr,Japanese,49.2681034,-123.0694691,Grandview-Woodland
Loku Japanese Cuisine,2280 Commercial Dr,Japanese,49.2643741,-123.0693441,Grandview-Woodland
Vietnam House Restaurant,2122 E Hastings St,Vietnamese,49.2809485,-123.0612294,Grandview-Woodland
AnnaLena,1809 W 1st Ave,Canadian,49.2708261,-123.1467714,Kitsilano
Thai Son Restaurant,373 E Broadway,Vietnamese,49.2629861,-123.0967649,Mount Pleasant
Congee Noodle House,141 E Broadway,Chinese,49.263084,-123.1020899,Mount Pleasant
Freshslice Pizza,663 Abbott St,Pizza,49.27921389999999,-123.1078386,Downtown
Pelican Seafood Restaurant,1895 E Hastings St,Seafood,49.2815691,-123.0662004,Grandview-Woodland
Sitar Restaurant,8 Powell St,Indian,49.2850084,-123.0643792,Grandview-Woodland
Sushiyama,371 E Broadway,Japanese,49.2630221,-123.0972043,Mount Pleasant
Crackle Creme,245 Union St,Cafe,49.27776,-123.0981399,Strathcona
Sushi Den,609 Abbott St,Japanese,49.2794272,-123.1078154,Downtown
Nha Trang Vietnamese Beef Noodle Soup,720 E Broadway,Vietnamese,49.2622138,-123.0885161,Mount Pleasant
The Arbor Restaurant,3941 Main St,Vegetarian,49.24995089999999,-123.101352,Riley Park
Mosaic Grille & Bar,655 Burrard St,Grill,49.2853096,-123.1207679,Downtown
Helen's Grill,4102 Main St,Diner,49.2486433,-123.1007253,Riley Park
Glowbal,590 W Georgia St,Fusion restaurant,49.2811002,-123.1177713,Downtown
The American,926 Main St,Bar,49.2762857,-123.0996722,Strathcona
Freshii,893 Great Northern Way,Health Food,49.26599909999999,-123.084348,Strathcona
Finch's Market,501 E Georgia St,Cafe,49.2787186,-123.0932563,Strathcona
Cibo Trattoria,900 Seymour St,Italian,49.2793994,-123.1204307,Downtown
Chutney Villa South Indian Cuisine,147 E Broadway,Indian,49.2631923,-123.1018777,Mount Pleasant
Zakkushi on Denman,823 Denman St,Izakaya,49.2912037,-123.1362474,West End
A&W Canada,1715 E Broadway,Hamburger,49.2627265,-123.0694772,Grandview-Woodland
Ha Long Bay Restaurant,430 W Pender St,Vietnamese,49.2830164,-123.1127467,Downtown
Bargreen Ellingson Restaurant Supply & Design,1040 Parker St,Kitchen supply store,49.2757412,-123.0805692,Strathcona
Peaceful Restaurant,602 Seymour St,Chinese,49.28282,-123.1154086,Downtown
Freshslice Pizza,183 E Broadway,Pizza,49.2630214,-123.1012976,Mount Pleasant
Noodlebox,108 W Hastings St,Asian,49.2816859,-123.1077569,Downtown
Cora Breakfast and Lunch,1368 Robson St,Breakfast,49.2875008,-123.1297495,West End
On Lok Restaurant & Wun Tun House,2010 E Hastings St,Chinese Noodles,49.2808579,-123.0633045,Grandview-Woodland
A&W Canada,550 Bute St,Hamburger,49.2880603,-123.1236062,Downtown
A&W Canada,467 W Broadway,Hamburger,49.2633988,-123.1144605,Mount Pleasant
El Cartel Food Truck & Catering,850 W Georgia St,Mobile caterer,49.28307969999999,-123.1201789,Downtown
A&W Canada,1158 Alberni St,Hamburger,49.2860922,-123.1252197,West End
Tetsu Sushi Bar,775 Denman St,Japanese,49.2918295,-123.1352117,West End
Freshii,561 W Broadway,Health Food,49.2634909,-123.1170326,Fairview
McDonald's,1527 Main St,Fast Food,49.2719008,-123.1006967,Mount Pleasant
Church's Chicken,2304 E Hastings St,Chicken,49.2809743,-123.0574231,Grandview-Woodland
Freshii,1185 W Georgia St,Health Food,49.2872573,-123.1247192,Downtown
Triple O's,800 Griffiths Way,Fast Food,49.2777744,-123.1085205,Downtown
Penang Bistro Fine Malaysian Cuisine,3932 Fraser St,Malaysian,49.24975,-123.089928,Kensington-Cedar Cottage
A&W Canada,2033 E Hastings St,Hamburger,49.2813825,-123.0630549,Grandview-Woodland
Robba da Matti,Powell St,Italian,49.2827482,-123.0843227,Strathcona
Pacific Restaurant Supply,1020 E Cordova St,Kitchen supply store,49.2816708,-123.0818174,Strathcona
Victoria Chinese Restaurant,1055 W Georgia St,Cantonese,49.2853911,-123.1215501,Downtown
Mumbai Local Restaurant,1148 Davie St,Indian,49.2808497,-123.1323893,West End
The Heatley,696 E Hastings St,Pub,49.281009,-123.0897164,Strathcona
KFC,795 E Broadway,Fast Food,49.2626796,-123.0874839,Mount Pleasant
Matchstick Fraser Street,639 E 15th Ave,Cafe,49.2572938,-123.0902815,Mount Pleasant
Railtown Cafe,397 Railway St,Cafe,49.2850495,-123.0954183,Strathcona
Triple O's Science World,1455 Quebec St #55,Fast Food,49.272298,-123.1020829,Mount Pleasant
Pat's Pub,403 E Hastings St,Pub,49.2814583,-123.0951057,Strathcona
Bufala Kerrisdale,5395 West Blvd,Pizza,49.2374814,-123.1556462,Arbutus-Ridge
Yama Cafe,2007 E Hastings St,Cafe,49.2814297,-123.0633912,Grandview-Woodland
Deacon's Corner Kits,3189 W Broadway,Diner,49.2643674,-123.1757517,Kitsilano
Robba da Matti (West End,1906 Haro St,Italian,49.2917344,-123.1385969,West End
Subway,1109 Main St,Sandwich,49.27476859999999,-123.1002541,Downtown
Ivanhoe Pub,1038 Main St,Pub,49.275115,-123.099599,Strathcona
HAVE Culinary Training Society,374 Powell St,Culinary school,49.2830108,-123.0960445,Strathcona
Catfe,UNIT #2035 – SECOND FLOOR INTERNATIONAL VILLAGE MALL 88 W Pender St,Cafe,49.2799755,-123.1071426,Downtown
Happy Tree House BBQ Kingsway,3502 Kingsway,Chinese,49.23186339999999,-123.0289157,Killarney
Strathcona Park,857 Malkin Ave,Park,49.2739359,-123.083385,Strathcona
Canada Place,999 Canada Pl,Convention center,49.2886946,-123.1111906,Downtown
Java Express,369 Terminal Ave,Coffee store,49.2721287,-123.0945321,Strathcona
Vancouver Restaurants For Sale,201-1055 W Broadway,Real Estate Agency,49.2636377,-123.1278582,Fairview
Strathcona Community Centre,601 Keefer St,Community center,49.2796579,-123.0917889,Strathcona
Blue Hat Bakery at Pacific Institute of Culinary Arts,1505 W 2nd Ave #101,Bakery,49.2698875,-123.1379948,Fairview
Pizza Hut,#4 1725 Robson St Unit 4,Pizza,49.2909847,-123.1343667,West End
